<?xml version='1.0' encoding='utf-8'?>
<kml xmlns="http://www.opengis.net/kml/2.2"><Document><Placemark><name>U01_S1</name><LineString><altitudeMode>absolute</altitudeMode><coordinates>37.512503910361986,55.69978929054262,160.0 37.512503910361986,55.69978929054262,283.0769230769231 37.51273381743488,55.699910318817516,283.0769230769231 37.512963725929886,55.700031346667615,283.0769230769231 37.51319363584702,55.70015237409294,283.0769230769231 37.51342354718627,55.700273401093476,283.0769230769231 37.51365345994767,55.70039442766921,283.0769230769231 37.513883374131225,55.70051545382013,283.0769230769231 37.51411328973693,55.70063647954627,283.0769230769231 37.51434320676482,55.70075750484759,283.0769230769231 37.51457312521489,55.70087852972406,283.0769230769231 37.51480304508715,55.70099955417573,283.0769230769231 37.515032966381604,55.70112057820257,283.0769230769231 37.51526288909828,55.70124160180456,283.0769230769231 37.51549281323718,55.70136262498171,283.0769230769231 37.5157227387983,55.701483647734015,283.0769230769231 37.515952665781676,55.701604670061464,283.0769230769231 37.51618259418729,55.70172569196406,283.0769230769231 37.51641252401518,55.70184671344178,283.0769230769231 37.51664245526534,55.70196773449462,283.0769230769231 37.51687238793778,55.70208875512259,283.0769230769231 37.517102322032514,55.702209775325684,283.0769230769231 37.517332257549555,55.702330795103876,283.0769230769231 37.5175621944889,55.702451814457184,283.0769230769231 37.51779213285058,55.702572833385574,283.0769230769231 37.51802207263459,55.70269385188905,283.0769230769231 37.518252013840936,55.702814869967646,283.0769230769231 37.51848195646965,55.7029358876213,283.0769230769231 37.518711900520714,55.70305690485004,283.0769230769231 37.51894184599416,55.70317792165383,283.0769230769231 37.519171792889985,55.70329893803271,283.0769230769231 37.51940174120821,55.70341995398662,283.0769230769231 37.519631690948835,55.70354096951559,283.0769230769231 37.51986164211188,55.703661984619615,283.0769230769231 37.52009159469734,55.70378299929868,283.0769230769231 37.52032154870524,55.70390401355278,283.0769230769231 37.52055150413558,55.7040250273819,283.0769230769231 37.52078146098838,55.70414604078604,283.0769230769231 37.52101141926365,55.704267053765186,283.0769230769231 37.52124137896139,55.70438806631937,283.0769230769231 37.52124803094639,55.70421194112876,283.0769230769231 37.52125468285762,55.70403581593254,283.0769230769231 37.521261334695055,55.70385969073072,283.0769230769231 37.521267986458724,55.703683565523264,283.0769230769231 37.52127463814862,55.70350744031022,283.0769230769231 37.52128128976474,55.70333131509154,283.0769230769231 37.52128794130708,55.70315518986727,283.0769230769231 37.521294592775654,55.702979064637375,283.0769230769231 37.52130124417046,55.70280293940188,283.0769230769231 37.52130789549149,55.702626814160766,283.0769230769231 37.52131454673876,55.70245068891403,283.0769230769231 37.52132119791225,55.702274563661696,283.0769230769231 37.52132784901198,55.70209843840374,283.0769230769231 37.521334500037945,55.701922313140166,283.0769230769231 37.521341150990146,55.701746187871,283.0769230769231 37.521347801868586,55.701570062596204,283.0769230769231 37.521354452673265,55.7013939373158,283.0769230769231 37.521361103404175,55.701217812029796,283.0769230769231 37.52136775406134,55.701041686738165,283.0769230769231 37.52137440464473,55.70086556144094,283.0769230769231 37.52138105515437,55.700689436138084,283.0769230769231 37.52138770559025,55.70051331082963,283.0769230769231 37.52139435595238,55.700337185515544,283.0769230769231 37.52140100624076,55.70016106019586,283.0769230769231 37.52140765645538,55.69998493487056,283.0769230769231 37.52141430659625,55.69980880953965,283.0769230769231 37.52142095666337,55.69963268420313,283.0769230769231 37.52142760665674,55.69945655886098,283.0769230769231 37.521434256576356,55.69928043351323,283.0769230769231 37.52144090642223,55.69910430815988,283.0769230769231 37.52144755619436,55.698928182800906,283.0769230769231 37.521454205892745,55.69875205743632,283.0769230769231 37.521460855517375,55.698575932066134,283.0769230769231 37.52146750506827,55.698399806690325,283.0769230769231 37.52147415454542,55.698223681308896,283.0769230769231 37.52148080394884,55.69804755592187,283.0769230769231 37.52148745327852,55.69787143052921,283.0769230769231 37.52149410253445,55.69769530513096,283.0769230769231 37.521500751716644,55.69751917972708,283.0769230769231 37.52150740082511,55.69734305431761,283.0769230769231 37.52151404985984,55.697166928902504,283.0769230769231 37.52152069882083,55.696990803481796,283.0769230769231 37.521527347708094,55.696814678055475,283.0769230769231 37.52153399652162,55.69663855262353,283.0769230769231 37.52154064526142,55.696462427186,283.0769230769231 37.52154729392748,55.696286301742845,283.0769230769231 37.52155394251983,55.69611017629408,283.0769230769231 37.521560591038444,55.69593405083969,283.0769230769231 37.521567239483325,55.695757925379695,283.0769230769231 37.521573887854494,55.695581799914095,283.0769230769231 37.52158053615192,55.695405674442874,283.0769230769231 37.521866803066246,55.69540912113451,283.0769230769231 37.52215307004268,55.69541256715899,283.0769230769231 37.52243933708122,55.69541601251631,283.0769230769231 37.52272560418185,55.695419457206455,283.0769230769231 37.523011871344565,55.695422901229456,283.0769230769231 37.52300522947798,55.69559902681375,283.0769230769231 37.52299858753774,55.69577515239243,283.0769230769231 37.52299194552386,55.695951277965506,283.0769230769231 37.52298530343632,55.69612740353298,283.0769230769231 37.52297866127512,55.69630352909485,283.0769230769231 37.52297201904027,55.696479654651085,283.0769230769231 37.522965376731754,55.69665578020171,283.0769230769231 37.52295873434958,55.696831905746734,283.0769230769231 37.52295209189375,55.697008031286146,283.0769230769231 37.52294544936425,55.697184156819944,283.0769230769231 37.5229388067611,55.697360282348136,283.0769230769231 37.522932164084274,55.697536407870714,283.0769230769231 37.52292552133379,55.69771253338768,283.0769230769231 37.52291887850964,55.69788865889903,283.0769230769231 37.52291223561182,55.69806478440478,283.0769230769231 37.522905592640335,55.69824090990491,283.0769230769231 37.522898949595174,55.69841703539943,283.0769230769231 37.52289230647635,55.698593160888336,283.0769230769231 37.52288566328385,55.69876928637163,283.0769230769231 37.522879020017676,55.698945411849316,283.0769230769231 37.52287237667783,55.699121537321396,283.0769230769231 37.52286573326431,55.69929766278785,283.0769230769231 37.52285908977712,55.69947378824871,283.0769230769231 37.52285244621625,55.69964991370395,283.0769230769231 37.52284580258169,55.69982603915358,283.0769230769231 37.52283915887347,55.7000021645976,283.0769230769231 37.52283251509155,55.70017829003599,283.0769230769231 37.52282587123596,55.7003544154688,283.0769230769231 37.522819227306684,55.70053054089598,283.0769230769231 37.522812583303725,55.700706666317565,283.0769230769231 37.52280593922708,55.70088279173353,283.0769230769231 37.52279929507675,55.70105891714386,283.0769230769231 37.52279265085273,55.70123504254861,283.0769230769231 37.52278600655503,55.70141116794773,283.0769230769231 37.52277936218363,55.701587293341255,283.0769230769231 37.52277271773854,55.701763418729165,283.0769230769231 37.52276607321976,55.701939544111454,283.0769230769231 37.522759428627296,55.702115669488144,283.0769230769231 37.522752783961124,55.702291794859214,283.0769230769231 37.52274613922127,55.702467920224684,283.0769230769231 37.52273949440771,55.702644045584535,283.0769230769231 37.52273284952046,55.70282017093877,283.0769230769231 37.522726204559504,55.7029962962874,283.0769230769231 37.52271955952485,55.70317242163041,283.0769230769231 37.5227129144165,55.703348546967824,283.0769230769231 37.52270626923445,55.70352467229961,283.0769230769231 37.52269962397869,55.70370079762579,283.0769230769231 37.52269297864923,55.70387692294637,283.0769230769231 37.522686333246064,55.704053048261336,283.0769230769231 37.52267968776919,55.70422917357068,283.0769230769231 37.522673042218614,55.70440529887442,283.0769230769231 37.52295937505645,55.704408743383276,283.0769230769231 37.52324570795639,55.70441218722474,283.0769230769231 37.523532040918425,55.70441563039882,283.0769230769231 37.52381837394254,55.704419072905516,283.0769230769231 37.52410470702873,55.70442251474481,283.0769230769231 37.52411134614486,55.704246389328055,283.0769230769231 37.52411798518736,55.70407026390568,283.0769230769231 37.52412462415623,55.70389413847771,283.0769230769231 37.52413126305146,55.7037180130441,283.0769230769231 37.52413790187306,55.703541887604906,283.0769230769231 37.52414454062102,55.70336576216009,283.0769230769231 37.52415117929536,55.70318963670967,283.0769230769231 37.52415781789606,55.70301351125364,283.0769230769231 37.524164456423144,55.702837385792,283.0769230769231 37.52417109487659,55.70266126032474,283.0769230769231 37.52417773325642,55.70248513485188,283.0769230769231 37.52418437156262,55.70230900937341,283.0769230769231 37.524191009795196,55.70213288388931,283.0769230769231 37.52419764795415,55.70195675839962,283.0769230769231 37.52420428603948,55.701780632904324,283.0769230769231 37.52421092405119,55.7016045074034,283.0769230769231 37.52421756198928,55.701428381896875,283.0769230769231 37.524224199853755,55.70125225638474,283.0769230769231 37.524230837644616,55.701076130867,283.0769230769231 37.52423747536185,55.700900005343655,283.0769230769231 37.52424411300549,55.70072387981469,283.0769230769231 37.52425075057549,55.70054775428011,283.0769230769231 37.524257388071895,55.700371628739916,283.0769230769231 37.52426402549468,55.70019550319412,283.0769230769231 37.524270662843854,55.700019377642725,283.0769230769231 37.52427730011943,55.69984325208571,283.0769230769231 37.524283937321385,55.69966712652307,283.0769230769231 37.524290574449736,55.699491000954836,283.0769230769231 37.52429721150449,55.69931487538098,283.0769230769231 37.52430384848563,55.699138749801534,283.0769230769231 37.52431048539317,55.69896262421646,283.0769230769231 37.5243171222271,55.698786498625786,283.0769230769231 37.524323758987435,55.6986103730295,283.0769230769231 37.52433039567418,55.69843424742761,283.0769230769231 37.52433703228731,55.69825812182009,283.0769230769231 37.524343668826845,55.69808199620697,283.0769230769231 37.524350305292785,55.697905870588244,283.0769230769231 37.52435694168513,55.6977297449639,283.0769230769231 37.524363578003886,55.69755361933395,283.0769230769231 37.52437021424904,55.6973774936984,283.0769230769231 37.5243768504206,55.69720136805722,283.0769230769231 37.524383486518566,55.69702524241044,283.0769230769231 37.524390122542954,55.696849116758045,283.0769230769231 37.52439675849375,55.69667299110004,283.0769230769231 37.52440339437095,55.696496865436444,283.0769230769231 37.524410030174565,55.69632073976722,283.0769230769231 37.524416665904596,55.69614461409238,283.0769230769231 37.52442330156104,55.695968488411935,283.0769230769231 37.524429937143914,55.69579236272588,283.0769230769231 37.524436572653194,55.69561623703424,283.0769230769231 37.52444320808889,55.69544011133696,283.0769230769231 37.52472947562383,55.69544355135697,283.0769230769231 37.52501574322076,55.695446990709804,283.0769230769231 37.52530201087968,55.695450429395486,283.0769230769231 37.52558827860057,55.69545386741401,283.0769230769231 37.52587454638341,55.69545730476535,283.0769230769231 37.52586791737862,55.69563343057549,283.0769230769231 37.52586128830032,55.69580955638001,283.0769230769231 37.5258546591485,55.69598568217892,283.0769230769231 37.52584802992317,55.69616180797224,283.0769230769231 37.52584140062433,55.696337933759935,283.0769230769231 37.52583477125197,55.69651405954203,283.0769230769231 37.525828141806095,55.6966901853185,283.0769230769231 37.52582151228671,55.69686631108937,283.0769230769231 37.52581488269381,55.697042436854645,283.0769230769231 37.52580825302738,55.69721856261429,283.0769230769231 37.52580162328743,55.697394688368334,283.0769230769231 37.525794993473966,55.69757081411677,283.0769230769231 37.52578836358697,55.697746939859606,283.0769230769231 37.52578173362646,55.69792306559682,283.0769230769231 37.52577510359242,55.698099191328424,283.0769230769231 37.52576847348486,55.69827531705442,283.0769230769231 37.52576184330377,55.698451442774825,283.0769230769231 37.52575521304915,55.698627568489584,283.0769230769231 37.525748582721,55.698803694198766,283.0769230769231 37.52574195231933,55.698979819902306,283.0769230769231 37.52573532184411,55.69915594560026,283.0769230769231 37.52572869129538,55.699332071292595,283.0769230769231 37.5257220606731,55.699508196979345,283.0769230769231 37.52571542997729,55.69968432266046,283.0769230769231 37.52570879920794,55.69986044833597,283.0769230769231 37.525702168365065,55.700036574005885,283.0769230769231 37.52569553744864,55.70021269967018,283.0769230769231 37.52568890645868,55.70038882532886,283.0769230769231 37.52568227539518,55.70056495098194,283.0769230769231 37.52567564425814,55.70074107662941,283.0769230769231 37.525669013047555,55.70091720227128,283.0769230769231 37.525662381763425,55.701093327907515,283.0769230769231 37.525655750405754,55.70126945353815,283.0769230769231 37.52564911897454,55.70144557916319,283.0769230769231 37.525642487469774,55.70162170478261,283.0769230769231 37.52563585589146,55.70179783039644,283.0769230769231 37.5256292242396,55.70197395600463,283.0769230769231 37.52562259251419,55.70215008160722,283.0769230769231 37.52561596071523,55.702326207204216,283.0769230769231 37.525609328842705,55.702502332795596,283.0769230769231 37.525602696896634,55.70267845838135,283.0769230769231 37.525596064877014,55.70285458396152,283.0769230769231 37.52558943278383,55.703030709536066,283.0769230769231 37.525582800617094,55.703206835105,283.0769230769231 37.525576168376794,55.70338296066832,283.0769230769231 37.52556953606294,55.70355908622606,283.0769230769231 37.52556290367553,55.70373521177816,283.0769230769231 37.525556271214555,55.70391133732467,283.0769230769231 37.52554963868001,55.70408746286556,283.0769230769231 37.52554300607191,55.70426358840085,283.0769230769231 37.52553637339024,55.70443971393053,283.0769230769231 37.52582270684858,55.704443151765496,283.0769230769231 37.5261090403689,55.70444658893309,283.0769230769231 37.52639537395119,55.704450025433275,283.0769230769231 37.52668170759545,55.704453461266084,283.0769230769231 37.52696804130165,55.7044568964315,283.0769230769231 37.52697466754882,55.704280770789026,283.0769230769231 37.52698129372251,55.70410464514094,283.0769230769231 37.5269879198227,55.70392851948724,283.0769230769231 37.5269945458494,55.70375239382792,283.0769230769231 37.52700117180261,55.70357626816301,283.0769230769231 37.52700779768233,55.703400142492505,283.0769230769231 37.52701442348856,55.70322401681637,283.0769230769231 37.527021049221304,55.70304789113463,283.0769230769231 37.527027674880564,55.7028717654473,283.0769230769231 37.52703430046634,55.70269563975434,283.0769230769231 37.52704092597863,55.70251951405577,283.0769230769231 37.527047551417446,55.7023433883516,283.0769230769231 37.52705417678277,55.70216726264182,283.0769230769231 37.527060802074615,55.70199113692644,283.0769230769231 37.527067427292984,55.70181501120545,283.0769230769231 37.527074052437875,55.701638885478836,283.0769230769231 37.52708067750929,55.701462759746626,283.0769230769231 37.527087302507226,55.70128663400881,283.0769230769231 37.52709392743169,55.70111050826538,283.0769230769231 37.52710055228268,55.70093438251635,283.0769230769231 37.5271071770602,55.70075825676171,283.0769230769231 37.527113801764244,55.70058213100146,283.0769230769231 37.52712042639482,55.7004060052356,283.0769230769231 37.52712705095193,55.700229879464125,283.0769230769231 37.52713367543557,55.700053753687065,283.0769230769231 37.52714029984575,55.69987762790437,283.0769230769231 37.52714692418245,55.69970150211608,283.0769230769231 37.52715354844569,55.69952537632217,283.0769230769231 37.527160172635476,55.69934925052266,283.0769230769231 37.52716679675179,55.69917312471755,283.0769230769231 37.52717342079465,55.69899699890682,283.0769230769231 37.527180044764044,55.6988208730905,283.0769230769231 37.52718666865998,55.69864474726856,283.0769230769231 37.52719329248246,55.698468621441,283.0769230769231 37.52719991623148,55.698292495607845,283.0769230769231 37.52720653990705,55.69811636976908,283.0769230769231 37.52721316350916,55.6979402439247,283.0769230769231 37.52721978703782,55.69776411807472,283.0769230769231 37.52722641049303,55.69758799221912,283.0769230769231 37.527233033874786,55.69741186635793,283.0769230769231 37.52723965718309,55.69723574049112,283.0769230769231 37.52724628041794,55.6970596146187,283.0769230769231 37.52725290357935,55.69688348874068,283.0769230769231 37.527259526667315,55.69670736285705,283.0769230769231 37.52726614968183,55.69653123696782,283.0769230769231 37.5272727726229,55.69635511107296,283.0769230769231 37.52727939549054,55.6961789851725,283.0769230769231 37.52728601828472,55.69600285926643,283.0769230769231 37.52729264100547,55.69582673335476,283.0769230769231 37.527299263652765,55.695650607437486,283.0769230769231 37.527305886226635,55.69547448151459,283.0769230769231 37.52759215438099,55.69547791486294,283.0769230769231 37.52787842259722,55.69548134754412,283.0769230769231 37.528164690875315,55.695484779558136,283.0769230769231 37.52845095921526,55.695488210904976,283.0769230769231 37.52873722761705,55.695491641584645,283.0769230769231 37.52873061147413,55.69566776762017,283.0769230769231 37.528723995257856,55.6958438936501,283.0769230769231 37.5287173789682,55.69602001967442,283.0769230769231 37.52871076260518,55.696196145693136,283.0769230769231 37.528704146168785,55.696372271706245,283.0769230769231 37.52869752965903,55.69654839771376,283.0769230769231 37.52869091307589,55.69672452371562,283.0769230769231 37.52868429641938,55.696900649711914,283.0769230769231 37.52867767968949,55.69707677570259,283.0769230769231 37.528671062886225,55.69725290168766,283.0769230769231 37.52866444600958,55.69742902766714,283.0769230769231 37.52865782905956,55.69760515364097,283.0769230769231 37.528651212036166,55.69778127960923,283.0769230769231 37.52864459493938,55.69795740557188,283.0769230769231 37.528637977769215,55.69813353152891,283.0769230769231 37.52863136052567,55.69830965748034,283.0769230769231 37.52862474320874,55.69848578342616,283.0769230769231 37.528618125818426,55.69866190936636,283.0769230769231 37.52861150835472,55.69883803530097,283.0769230769231 37.52860489081763,55.699014161229954,283.0769230769231 37.52859827320715,55.69919028715335,283.0769230769231 37.52859165552328,55.69936641307112,283.0769230769231 37.52858503776602,55.6995425389833,283.0769230769231 37.52857841993537,55.69971866488987,283.0769230769231 37.52857180203132,55.69989479079084,283.0769230769231 37.52856518405388,55.7000709166862,283.0769230769231 37.52855856600305,55.70024704257594,283.0769230769231 37.52855194787882,55.70042316846007,283.0769230769231 37.52854532968119,55.7005992943386,283.0769230769231 37.52853871141016,55.70077542021154,283.0769230769231 37.52853209306573,55.70095154607885,283.0769230769231 37.5285254746479,55.70112767194056,283.0769230769231 37.52851885615667,55.70130379779667,283.0769230769231 37.52851223759203,55.70147992364716,283.0769230769231 37.52850561895399,55.70165604949205,283.0769230769231 37.52849900024255,55.70183217533133,283.0769230769231 37.528492381457696,55.70200830116501,283.0769230769231 37.52848576259944,55.70218442699308,283.0769230769231 37.528479143667774,55.702360552815534,283.0769230769231 37.52847252466269,55.70253667863239,283.0769230769231 37.5284659055842,55.70271280444364,283.0769230769231 37.5284592864323,55.70288893024928,283.0769230769231 37.528452667206984,55.70306505604932,283.0769230769231 37.528446047908254,55.70324118184375,283.0769230769231 37.52843942853611,55.70341730763254,283.0769230769231 37.52843280909055,55.703593433415755,283.0769230769231 37.52842618957157,55.703769559193354,283.0769230769231 37.52841956997917,55.70394568496537,283.0769230769231 37.52841295031335,55.70412181073175,283.0769230769231 37.528406330574114,55.70429793649254,283.0769230769231 37.528399710761455,55.70447406224771,283.0769230769231 37.528686044839084,55.70447749340878,283.0769230769231 37.52897237897859,55.70448092390245,283.0769230769231 37.529258713179935,55.704484353728716,283.0769230769231 37.52954504744313,55.704487782887604,283.0769230769231 37.52983138176814,55.7044912113791,283.0769230769231 37.52983812741308,55.70431156299394,283.0769230769231 37.529844872981705,55.70413191460291,283.0769230769231 37.52985161847401,55.70395226620609,283.0769230769231 37.529858363890014,55.703772617803416,283.0769230769231 37.5298651092297,55.70359296939491,283.0769230769231 37.52987185449308,55.70341332098058,283.0769230769231 37.529878599680146,55.7032336725604,283.0769230769231 37.529885344790905,55.7030540241344,283.0769230769231 37.52989208982537,55.70287437570257,283.0769230769231 37.529898834783516,55.7026947272649,283.0769230769231 37.52990557966537,55.702515078821406,283.0769230769231 37.52991232447091,55.702335430372074,283.0769230769231 37.529919069200155,55.70215578191691,283.0769230769231 37.5299258138531,55.70197613345592,283.0769230769231 37.52993255842974,55.70179648498908,283.0769230769231 37.52993930293009,55.70161683651643,283.0769230769231 37.52994604735414,55.70143718803794,283.0769230769231 37.52995279170189,55.70125753955361,283.0769230769231 37.529959535973354,55.70107789106344,283.0769230769231 37.52996628016852,55.70089824256744,283.0769230769231 37.5299730242874,55.70071859406562,283.0769230769231 37.52997976832999,55.70053894555796,283.0769230769231 37.52998651229628,55.70035929704447,283.0769230769231 37.52999325618629,55.70017964852516,283.0769230769231 37.53000000000001,55.7,283.0769230769231 37.530006743737445,55.69982035146901,283.0769230769231 37.53001348739859,55.69964070293218,283.0769230769231 37.53002023098346,55.69946105438954,283.0769230769231 37.53002697449204,55.69928140584105,283.0769230769231 37.53003371792435,55.69910175728672,283.0769230769231 37.530040461280365,55.69892210872658,283.0769230769231 37.53004720456011,55.698742460160595,283.0769230769231 37.53005394776358,55.69856281158877,283.0769230769231 37.530060690890764,55.69838316301112,283.0769230769231 37.53006743394168,55.69820351442764,283.0769230769231 37.530074176916315,55.69802386583832,283.0769230769231 37.53008091981469,55.69784421724317,283.0769230769231 37.53008766263678,55.69766456864219,283.0769230769231 37.530094405382606,55.69748492003538,283.0769230769231 37.53010114805217,55.697305271422735,283.0769230769231 37.53010789064545,55.69712562280426,283.0769230769231 37.53011463316247,55.69694597417994,283.0769230769231 37.53012137560322,55.696766325549795,283.0769230769231 37.53012811796771,55.69658667691383,283.0769230769231 37.53013486025594,55.696407028272006,283.0769230769231 37.53014160246791,55.69622737962436,283.0769230769231 37.53014834460361,55.69604773097089,283.0769230769231 37.53015508666305,55.69586808231158,283.0769230769231 37.530161828646236,55.69568843364644,283.0769230769231 37.53016857055316,55.69550878497547,283.0769230769231 37.53045483932573,55.69551221165212,283.0769230769231 37.53074110816006,55.695515637661615,283.0769230769231 37.531027377056134,55.69551906300392,283.0769230769231 37.531313646013935,55.695522487679064,283.0769230769231 37.53159991503346,55.69552591168703,283.0769230769231 37.53159317968615,55.695705560472675,283.0769230769231 37.531586444262665,55.69588520925249,283.0769230769231 37.53157970876299,55.69606485802648,283.0769230769231 37.531572973187124,55.696244506794635,283.0769230769231 37.53156623753508,55.696424155556954,283.0769230769231 37.531559501806846,55.69660380431344,283.0769230769231 37.53155276600241,55.6967834530641,283.0769230769231 37.5315460301218,55.69696310180893,283.0769230769231 37.53153929416499,55.69714275054792,283.0769230769231 37.53153255813199,55.69732239928109,283.0769230769231 37.5315258220228,55.69750204800842,283.0769230769231 37.53151908583741,55.69768169672991,283.0769230769231 37.53151234957582,55.69786134544558,283.0769230769231 37.53150561323804,55.69804099415542,283.0769230769231 37.53149887682405,55.698220642859425,283.0769230769231 37.53149214033387,55.69840029155758,283.0769230769231 37.53148540376748,55.698579940249935,283.0769230769231 37.5314786671249,55.69875958893644,283.0769230769231 37.53147193040611,55.698939237617125,283.0769230769231 37.53146519361112,55.69911888629197,283.0769230769231 37.53145845673991,55.69929853496098,283.0769230769231 37.53145171979251,55.699478183624166,283.0769230769231 37.53144498276889,55.69965783228151,283.0769230769231 37.531438245669065,55.69983748093303,283.0769230769231 37.53143150849303,55.700017129578725,283.0769230769231 37.53142477124078,55.700196778218576,283.0769230769231 37.53141803391232,55.70037642685261,283.0769230769231 37.53141129650764,55.7005560754808,283.0769230769231 37.531404559026754,55.70073572410316,283.0769230769231 37.531397821469646,55.700915372719685,283.0769230769231 37.53139108383632,55.70109502133039,283.0769230769231 37.53138434612678,55.70127466993525,283.0769230769231 37.53137760834102,55.701454318534296,283.0769230769231 37.53137087047903,55.701633967127485,283.0769230769231 37.53136413254082,55.70181361571486,283.0769230769231 37.531357394526395,55.70199326429641,283.0769230769231 37.53135065643574,55.702172912872115,283.0769230769231 37.53134391826886,55.702352561441984,283.0769230769231 37.53133718002575,55.702532210006034,283.0769230769231 37.53133044170641,55.70271185856425,283.0769230769231 37.531323703310846,55.70289150711664,283.0769230769231 37.53131696483905,55.70307115566319,283.0769230769231 37.53131022629102,55.703250804203904,283.0769230769231 37.53130348766676,55.70343045273879,283.0769230769231 37.531296748966255,55.70361010126785,283.0769230769231 37.53129001018953,55.70378974979107,283.0769230769231 37.531283271336555,55.70396939830846,283.0769230769231 37.531276532407354,55.70414904682003,283.0769230769231 37.53126979340191,55.70432869532576,283.0769230769231 37.53126305432022,55.70450834382565,283.0769230769231 37.53154938901595,55.70451176831278,283.0769230769231 37.531835723773426,55.70451519213251,283.0769230769231 37.532122058592634,55.70451861528484,283.0769230769231 37.53240839347355,55.70452203776978,283.0769230769231 37.53269472841619,55.70452545958732,283.0769230769231 37.5327014609346,55.70434581097282,283.0769230769231 37.53270819337684,55.70416616235247,283.0769230769231 37.53271492574292,55.7039865137263,283.0769230769231 37.532721658032834,55.70380686509429,283.0769230769231 37.53272839024659,55.703627216456454,283.0769230769231 37.532735122384175,55.7034475678128,283.0769230769231 37.532741854445604,55.7032679191633,283.0769230769231 37.532748586430884,55.70308827050797,283.0769230769231 37.532755318339994,55.702908621846824,283.0769230769231 37.53276205017295,55.70272897317983,283.0769230769231 37.532768781929754,55.70254932450701,283.0769230769231 37.5327755136104,55.70236967582836,283.0769230769231 37.5327822452149,55.702190027143885,283.0769230769231 37.53278897674324,55.70201037845358,283.0769230769231 37.53279570819544,55.70183072975743,283.0769230769231 37.532802439571476,55.70165108105546,283.0769230769231 37.532809170871374,55.70147143234767,283.0769230769231 37.532815902095116,55.701291783634026,283.0769230769231 37.53282263324272,55.701112134914574,283.0769230769231 37.532829364314175,55.70093248618928,283.0769230769231 37.53283609530949,55.700752837458154,283.0769230769231 37.532842826228666,55.70057318872121,283.0769230769231 37.5328495570717,55.700393539978414,283.0769230769231 37.532856287838584,55.7002138912298,283.0769230769231 37.53286301852933,55.70003424247536,283.0769230769231 37.532869749143956,55.69985459371509,283.0769230769231 37.53287647968243,55.699674944948974,283.0769230769231 37.53288321014477,55.69949529617704,283.0769230769231 37.53288994053098,55.69931564739928,283.0769230769231 37.532896670841055,55.699135998615674,283.0769230769231 37.532903401075,55.69895634982625,283.0769230769231 37.53291013123281,55.698776701030994,283.0769230769231 37.53291686131449,55.6985970522299,283.0769230769231 37.53292359132005,55.69841740342298,283.0769230769231 37.53293032124948,55.698237754610226,283.0769230769231 37.53293705110278,55.698058105791645,283.0769230769231 37.532943780879954,55.69787845696723,283.0769230769231 37.53295051058101,55.69769880813699,283.0769230769231 37.53295724020594,55.69751915930091,283.0769230769231 37.53296396975475,55.69733951045902,283.0769230769231 37.53297069922744,55.697159861611276,283.0769230769231 37.532977428624015,55.696980212757715,283.0769230769231 37.53298415794447,55.696800563898314,283.0769230769231 37.5329908871888,55.696620915033094,283.0769230769231 37.53299761635703,55.69644126616203,283.0769230769231 37.533004345449136,55.69626161728513,283.0769230769231 37.53301107446513,55.69608196840243,283.0769230769231 37.533017803405016,55.69590231951388,283.0769230769231 37.53302453226879,55.69572267061948,283.0769230769231 37.53303126105645,55.69554302171928,283.0769230769231 37.53331753044604,55.69554644172421,283.0769230769231 37.533603799897264,55.69554986106198,283.0769230769231 37.53389006941011,55.69555327973256,283.0769230769231 37.53417633898457,55.695556697735974,283.0769230769231 37.534462608620636,55.69556011507219,283.0769230769231 37.53445588639264,55.69573976408685,283.0769230769231 37.534449164088606,55.69591941309569,283.0769230769231 37.53444244170854,55.69609906209869,283.0769230769231 37.534435719252436,55.69627871109586,283.0769230769231 37.53442899672029,55.696458360087206,283.0769230769231 37.5344222741121,55.69663800907273,283.0769230769231 37.53441555142788,55.696817658052396,283.0769230769231 37.53440882866761,55.69699730702626,283.0769230769231 37.5344021058313,55.69717695599427,283.0769230769231 37.534395382918945,55.69735660495648,283.0769230769231 37.53438865993054,55.69753625391284,283.0769230769231 37.53438193686609,55.69771590286338,283.0769230769231 37.534375213725596,55.69789555180809,283.0769230769231 37.534368490509046,55.69807520074696,283.0769230769231 37.534361767216446,55.69825484968001,283.0769230769231 37.534355043847796,55.698434498607234,283.0769230769231 37.5343483204031,55.698614147528616,283.0769230769231 37.53434159688234,55.69879379644417,283.0769230769231 37.53433487328553,55.698973445353914,283.0769230769231 37.53432814961266,55.69915309425779,283.0769230769231 37.53432142586373,55.69933274315587,283.0769230769231 37.53431470203875,55.69951239204812,283.0769230769231 37.534307978137704,55.69969204093453,283.0769230769231 37.5343012541606,55.699871689815105,283.0769230769231 37.53429453010743,55.70005133868986,283.0769230769231 37.5342878059782,55.70023098755878,283.0769230769231 37.53428108177291,55.70041063642187,283.0769230769231 37.53427435749155,55.70059028527913,283.0769230769231 37.534267633134114,55.70076993413057,283.0769230769231 37.534260908700624,55.70094958297618,283.0769230769231 37.534254184191056,55.70112923181594,283.0769230769231 37.53424745960542,55.7013088806499,283.0769230769231 37.53424073494371,55.70148852947801,283.0769230769231 37.53423401020593,55.701668178300295,283.0769230769231 37.53422728539207,55.701847827116744,283.0769230769231 37.53422056050214,55.70202747592739,283.0769230769231 37.534213835536136,55.702207124732176,283.0769230769231 37.534207110494044,55.702386773531146,283.0769230769231 37.53420038537588,55.70256642232428,283.0769230769231 37.534193660181636,55.70274607111159,283.0769230769231 37.53418693491131,55.70292571989308,283.0769230769231 37.5341802095649,55.703105368668716,283.0769230769231 37.534173484142414,55.703285017438546,283.0769230769231 37.534166758643835,55.703464666202535,283.0769230769231 37.53416003306918,55.7036443149607,283.0769230769231 37.53415330741843,55.703823963713035,283.0769230769231 37.534146581691594,55.704003612459545,283.0769230769231 37.53413985588867,55.704183261200214,283.0769230769231 37.53413313000965,55.70436290993505,283.0769230769231 37.53412640405454,55.704542558664066,283.0769230769231 37.53441273936716,55.70454597647721,283.0769230769231 37.53469907474141,55.704549393622976,283.0769230769231 37.53498541017728,55.704552810101326,283.0769230769231 37.535271745674734,55.70455622591229,283.0769230769231 37.53555808123377,55.704559641055845,283.0769230769231 37.53556480062556,55.704379992212445,283.0769230769231 37.53557151994133,55.704200343363205,283.0769230769231 37.53557823918108,55.704020694508145,283.0769230769231 37.53558495834481,55.70384104564726,283.0769230769231 37.535591677432535,55.70366139678053,283.0769230769231 37.53559839644424,55.70348174790799,283.0769230769231 37.53560511537994,55.703302099029614,283.0769230769231 37.535611834239624,55.70312245014541,283.0769230769231 37.535618553023305,55.70294280125539,283.0769230769231 37.53562527173097,55.70276315235951,283.0769230769231 37.53563199036263,55.702583503457824,283.0769230769231 37.53563870891829,55.7024038545503,283.0769230769231 37.53564542739794,55.70222420563696,283.0769230769231 37.535652145801585,55.70204455671779,283.0769230769231 37.53565886412923,55.70186490779278,283.0769230769231 37.53566558238087,55.70168525886195,283.0769230769231 37.53567230055652,55.70150560992529,283.0769230769231 37.53567901865617,55.70132596098281,283.0769230769231 37.53568573667981,55.70114631203448,283.0769230769231 37.535692454627466,55.70096666308034,283.0769230769231 37.53569917249912,55.700787014120365,283.0769230769231 37.53570589029478,55.70060736515457,283.0769230769231 37.53571260801446,55.700427716182936,283.0769230769231 37.53571932565813,55.70024806720547,283.0769230769231 37.53572604322582,55.70006841822218,283.0769230769231 37.53573276071751,55.69988876923306,283.0769230769231 37.53573947813322,55.69970912023812,283.0769230769231 37.535746195472946,55.699529471237355,283.0769230769231 37.53575291273668,55.69934982223075,283.0769230769231 37.535759629924435,55.69917017321831,283.0769230769231 37.53576634703621,55.69899052420006,283.0769230769231 37.53577306407199,55.69881087517597,283.0769230769231 37.53577978103179,55.69863122614606,283.0769230769231 37.53578649791562,55.69845157711031,283.0769230769231 37.53579321472346,55.69827192806874,283.0769230769231 37.53579993145534,55.698092279021346,283.0769230769231 37.535806648111226,55.69791262996811,283.0769230769231 37.535813364691144,55.697732980909045,283.0769230769231 37.535820081195084,55.69755333184416,283.0769230769231 37.53582679762305,55.69737368277345,283.0769230769231 37.53583351397506,55.69719403369689,283.0769230769231 37.53584023025108,55.69701438461454,283.0769230769231 37.535846946451144,55.69683473552633,283.0769230769231 37.535853662575235,55.69665508643231,283.0769230769231 37.535860378623354,55.696475437332445,283.0769230769231 37.53586709459552,55.69629578822675,283.0769230769231 37.53587381049171,55.69611613911524,283.0769230769231 37.535880526311935,55.6959364899979,283.0769230769231 37.535887242056205,55.695756840874715,283.0769230769231 37.53589395772451,55.69557719174573,283.0769230769231 37.536180227729915,55.6955806050789,283.0769230769231 37.53646649779683,55.6955840177449,283.0769230769231 37.53675276792526,55.695587429743725,283.0769230769231 37.537039038115175,55.695590841075365,283.0769230769231 37.53732530836657,55.695594251739834,283.0769230769231 37.53731859925798,55.69577390098305,283.0769230769231 37.5373118900735,55.695953550220466,283.0769230769231 37.537305180813135,55.69613319945204,283.0769230769231 37.53729847147688,55.69631284867778,283.0769230769231 37.53729176206473,55.69649249789771,283.0769230769231 37.53728505257669,55.696672147111784,283.0769230769231 37.537278343012765,55.69685179632005,283.0769230769231 37.53727163337294,55.697031445522484,283.0769230769231 37.53726492365721,55.697211094719094,283.0769230769231 37.5372582138656,55.697390743909885,283.0769230769231 37.537251503998085,55.697570393094836,283.0769230769231 37.53724479405467,55.69775004227396,283.0769230769231 37.537238084035366,55.69792969144726,283.0769230769231 37.537231373940145,55.69810934061473,283.0769230769231 37.53722466376903,55.69828898977638,283.0769230769231 37.53721795352201,55.69846863893219,283.0769230769231 37.53721124319909,55.698648288082175,283.0769230769231 37.53720453280025,55.69882793722634,283.0769230769231 37.537197822325524,55.69900758636468,283.0769230769231 37.537191111774874,55.69918723549718,283.0769230769231 37.53718440114832,55.699366884623856,283.0769230769231 37.53717769044585,55.699546533744716,283.0769230769231 37.53717097966748,55.69972618285974,283.0769230769231 37.537164268813186,55.69990583196893,283.0769230769231 37.537157557882985,55.70008548107231,283.0769230769231 37.53715084687686,55.700265130169846,283.0769230769231 37.53714413579483,55.70044477926156,283.0769230769231 37.537137424636875,55.700624428347446,283.0769230769231 37.53713071340301,55.700804077427506,283.0769230769231 37.537124002093215,55.70098372650174,283.0769230769231 37.5371172907075,55.70116337557015,283.0769230769231 37.53711057924587,55.70134302463271,283.0769230769231 37.5371038677083,55.70152267368948,283.0769230769231 37.53709715609482,55.701702322740395,283.0769230769231 37.537090444405415,55.70188197178548,283.0769230769231 37.537083732640085,55.70206162082476,283.0769230769231 37.53707702079882,55.7022412698582,283.0769230769231 37.53707030888162,55.70242091888582,283.0769230769231 37.537063596888494,55.70260056790759,283.0769230769231 37.53705688481944,55.70278021692354,283.0769230769231 37.537050172674455,55.702959865933686,283.0769230769231 37.53704346045353,55.70313951493798,283.0769230769231 37.53703674815668,55.70331916393646,283.0769230769231 37.53703003578388,55.70349881292911,283.0769230769231 37.53702332333515,55.70367846191593,283.0769230769231 37.537016610810475,55.70385811089693,283.0769230769231 37.53700989820987,55.704037759872094,283.0769230769231 37.53700318553332,55.70421740884144,283.0769230769231 37.53699647278083,55.70439705780495,283.0769230769231 37.536989759952384,55.704576706762616,283.0769230769231 37.537276095880706,55.704580117901784,283.0769230769231 37.537562431870526,55.704583528373526,283.0769230769231 37.53784876792183,55.70458693817788,283.0769230769231 37.53813510403462,55.70459034731483,283.0769230769231 37.53842144020888,55.70459375578437,283.0769230769231 37.53842814647394,55.70441410671253,283.0769230769231 37.53843485266314,55.70423445763484,283.0769230769231 37.53844155877647,55.704054808551334,283.0769230769231 37.53844826481393,55.70387515946201,283.0769230769231 37.538454970775526,55.703695510366835,283.0769230769231 37.53846167666126,55.70351586126587,283.0769230769231 37.53846838247112,55.70333621215905,283.0769230769231 37.538475088205125,55.70315656304641,283.0769230769231 37.53848179386327,55.70297691392796,283.0769230769231 37.538488499445556,55.70279726480366,283.0769230769231 37.538495204951985,55.702617615673546,283.0769230769231 37.53850191038255,55.70243796653761,283.0769230769231 37.53850861573726,55.70225831739584,283.0769230769231 37.53851532101612,55.70207866824825,283.0769230769231 37.53852202621912,55.701899019094824,283.0769230769231 37.538528731346275,55.701719369935574,283.0769230769231 37.53853543639757,55.70153972077051,283.0769230769231 37.538542141373014,55.70136007159961,283.0769230769231 37.53854884627262,55.70118042242287,283.0769230769231 37.53855555109636,55.70100077324033,283.0769230769231 37.53856225584427,55.70082112405195,283.0769230769231 37.53856896051632,55.70064147485775,283.0769230769231 37.53857566511254,55.700461825657705,283.0769230769231 37.538582369632906,55.70028217645186,283.0769230769231 37.538589074077436,55.70010252724017,283.0769230769231 37.538595778446116,55.699922878022655,283.0769230769231 37.538602482738966,55.69974322879932,283.0769230769231 37.53860918695597,55.69956357957016,283.0769230769231 37.538615891097145,55.699383930335166,283.0769230769231 37.53862259516248,55.699204281094346,283.0769230769231 37.53862929915198,55.69902463184771,283.0769230769231 37.53863600306564,55.69884498259525,283.0769230769231 37.538642706903474,55.69866533333694,283.0769230769231 37.53864941066547,55.69848568407283,283.0769230769231 37.538656114351646,55.69830603480288,283.0769230769231 37.538662817961985,55.698126385527104,283.0769230769231 37.53866952149649,55.697946736245505,283.0769230769231 37.53867622495518,55.697767086958066,283.0769230769231 37.53868292833804,55.69758743766482,283.0769230769231 37.53868963164507,55.69740778836574,283.0769230769231 37.538696334876285,55.697228139060826,283.0769230769231 37.53870303803167,55.6970484897501,283.0769230769231 37.53870974111124,55.69686884043354,283.0769230769231 37.53871644411499,55.696689191111155,283.0769230769231 37.538723147042916,55.69650954178294,283.0769230769231 37.53872984989503,55.696329892448894,283.0769230769231 37.538736552671324,55.69615024310903,283.0769230769231 37.538743255371806,55.69597059376334,283.0769230769231 37.538749957996465,55.69579094441182,283.0769230769231 37.538756660545324,55.69561129505448,283.0769230769231 37.538451427681316,55.69565990884613,283.0769230769231 37.53814619407175,55.695708521874415,283.0769230769231 37.53784095971663,55.69575713413929,283.0769230769231 37.53753572461598,55.695805745640776,283.0769230769231 37.5372304887698,55.69585435637886,283.0769230769231 37.53692525217811,55.69590296635354,283.0769230769231 37.5366200148409,55.69595157556483,283.0769230769231 37.5363147767582,55.69600018401269,283.0769230769231 37.53600953793003,55.696048791697145,283.0769230769231 37.53570429835638,55.69609739861818,283.0769230769231 37.535399058037264,55.69614600477578,283.0769230769231 37.535093816972704,55.69619461016995,283.0769230769231 37.53478857516271,55.6962432148007,283.0769230769231 37.53448333260728,55.696291818668016,283.0769230769231 37.534178089306444,55.696340421771886,283.0769230769231 37.5338728452602,55.69638902411232,283.0769230769231 37.53356760046856,55.6964376256893,283.0769230769231 37.533262354931544,55.69648622650283,283.0769230769231 37.53295710864916,55.69653482655289,283.0769230769231 37.53265186162141,55.69658342583952,283.0769230769231 37.53234661384831,55.696632024362664,283.0769230769231 37.532041365329874,55.696680622122344,283.0769230769231 37.53173611606612,55.696729219118545,283.0769230769231 37.53143086605704,55.69677781535128,283.0769230769231 37.53112561530267,55.696826410820535,283.0769230769231 37.530820363802995,55.6968750055263,283.0769230769231 37.530515111558046,55.69692359946858,283.0769230769231 37.53020985856782,55.69697219264737,283.0769230769231 37.529904604832346,55.69702078506266,283.0769230769231 37.52959935035162,55.697069376714445,283.0769230769231 37.52929409512566,55.69711796760274,283.0769230769231 37.528988839154465,55.697166557727506,283.0769230769231 37.52868358243807,55.69721514708878,283.0769230769231 37.528378324976465,55.697263735686526,283.0769230769231 37.52807306676967,55.697312323520755,283.0769230769231 37.527767807817696,55.69736091059144,283.0769230769231 37.52746254812055,55.69740949689862,283.0769230769231 37.52715728767825,55.69745808244227,283.0769230769231 37.5268520264908,55.69750666722237,283.0769230769231 37.52654676455822,55.69755525123892,283.0769230769231 37.52624150188051,55.697603834491936,283.0769230769231 37.52593623845769,55.69765241698142,283.0769230769231 37.52563097428977,55.697700998707326,283.0769230769231 37.52532570937676,55.697749579669676,283.0769230769231 37.52502044371867,55.697798159868476,283.0769230769231 37.5247151773155,55.697846739303706,283.0769230769231 37.524409910167286,55.69789531797536,283.0769230769231 37.524104642274025,55.69794389588344,283.0769230769231 37.523799373635725,55.69799247302796,283.0769230769231 37.52349410425241,55.698041049408886,283.0769230769231 37.52318883412408,55.69808962502622,283.0769230769231 37.52288356325074,55.69813819987997,283.0769230769231 37.52257829163241,55.698186773970136,283.0769230769231 37.522273019269115,55.698235347296695,283.0769230769231 37.52196774616085,55.69828391985964,283.0769230769231 37.521662472307625,55.698332491659,283.0769230769231 37.521357197709456,55.698381062694736,283.0769230769231 37.521051922366354,55.698429632966864,283.0769230769231 37.520746646278326,55.698478202475364,283.0769230769231 37.52044136944539,55.698526771220266,283.0769230769231 37.520136091867556,55.698575339201525,283.0769230769231 37.51983081354483,55.69862390641916,283.0769230769231 37.51952553447723,55.69867247287315,283.0769230769231 37.519220254664766,55.69872103856351,283.0769230769231 37.51891497410744,55.69876960349023,283.0769230769231 37.51860969280527,55.698818167653286,283.0769230769231 37.518304410758276,55.6988667310527,283.0769230769231 37.517999127966455,55.698915293688465,283.0769230769231 37.51769384442982,55.69896385556057,283.0769230769231 37.51738856014839,55.69901241666902,283.0769230769231 37.51708327512217,55.6990609770138,283.0769230769231 37.516777989351176,55.6991095365949,283.0769230769231 37.516472702835415,55.69915809541232,283.0769230769231 37.5161674155749,55.69920665346608,283.0769230769231 37.51586212756964,55.69925521075613,283.0769230769231 37.515556838819656,55.69930376728251,283.0769230769231 37.515251549324944,55.6993523230452,283.0769230769231 37.51494625908553,55.69940087804419,283.0769230769231 37.51464096810141,55.69944943227949,283.0769230769231 37.5143356763726,55.69949798575108,283.0769230769231 37.514030383899126,55.69954653845897,283.0769230769231 37.513725090680985,55.69959509040314,283.0769230769231 37.51341979671819,55.69964364158359,283.0769230769231 37.51311450201075,55.69969219200032,283.0769230769231 37.51280920655868,55.69974074165334,283.0769230769231 37.512503910361986,55.69978929054262,283.0769230769231 37.512503910361986,55.69978929054262,160.0</coordinates></LineString></Placemark></Document></kml>