{
  "type": "FeatureCollection",
  "features": [
    {
      "type": "Feature",
      "properties": {
        "id": "JOB_mug9k0vy",
        "survey_type": "rgb",
        "payload_profile": "RGB"
      },
      "geometry": {
        "coordinates": [
          [
            [
              37.4639066395427,
              55.706421083372646
            ],
            [
              37.46426393520767,
              55.68709031963593
            ],
            [
              37.528934450610194,
              55.68870158175142
            ],
            [
              37.52750526794881,
              55.7086354563086
            ],
            [
              37.4639066395427,
              55.706421083372646
            ]
          ]
        ],
        "type": "Polygon"
      }
    },
    {
      "type": "Feature",
      "properties": {
        "id": "JOB_mug9zkpn",
        "survey_type": "rgb",
        "payload_profile": "RGB"
      },
      "geometry": {
        "coordinates": [
          [
            [
              37.45965152324425,
              55.748568516875196
            ],
            [
              37.46338698498428,
              55.721227567575795
            ],
            [
              37.48057010898415,
              55.72080678799526
            ],
            [
              37.47832883194036,
              55.75067087364343
            ],
            [
              37.46338698498428,
              55.754875247298514
            ],
            [
              37.45965152324425,
              55.748568516875196
            ]
          ]
        ],
        "type": "Polygon"
      }
    },
    {
      "type": "Feature",
      "properties": {
        "id": "JOB_mug9zsll",
        "survey_type": "rgb",
        "payload_profile": "RGB"
      },
      "geometry": {
        "coordinates": [
          [
            [
              37.492523586550334,
              55.750250411353306
            ],
            [
              37.49775323298536,
              55.72501437978917
            ],
            [
              37.509706710550205,
              55.721227567575795
            ],
            [
              37.52166018811647,
              55.72795942430673
            ],
            [
              37.519418911072705,
              55.750250411353306
            ],
            [
              37.50671834115897,
              55.75361398278443
            ],
            [
              37.492523586550334,
              55.750250411353306
            ]
          ]
        ],
        "type": "Polygon"
      }
    },
    {
      "type": "Feature",
      "properties": {
        "id": "JOB_mugb47tq",
        "survey_type": "rgb",
        "payload_profile": "RGB"
      },
      "geometry": {
        "coordinates": [
          [
            [
              37.487760078690314,
              55.71791037069218
            ],
            [
              37.48803476051836,
              55.711024749381096
            ],
            [
              37.510421329597705,
              55.711566359079
            ],
            [
              37.500258101918746,
              55.72123669670384
            ],
            [
              37.49146828338377,
              55.72139140264699
            ],
            [
              37.487760078690314,
              55.71791037069218
            ]
          ]
        ],
        "type": "Polygon"
      }
    },
    {
      "type": "Feature",
      "properties": {
        "id": "JOB_mugboooc",
        "survey_type": "rgb",
        "payload_profile": "RGB"
      },
      "geometry": {
        "coordinates": [
          [
            [
              37.540240573724816,
              55.75362009283427
            ],
            [
              37.53648898539541,
              55.74411846170682
            ],
            [
              37.54961954455149,
              55.743062582063544
            ],
            [
              37.555872191767605,
              55.748693610007905
            ],
            [
              37.540240573724816,
              55.75362009283427
            ]
          ]
        ],
        "type": "Polygon"
      }
    },
    {
      "type": "Feature",
      "properties": {
        "id": "JOB_mugbouwk",
        "survey_type": "rgb",
        "payload_profile": "RGB"
      },
      "geometry": {
        "coordinates": [
          [
            [
              37.57963225119295,
              55.7557312521636
            ],
            [
              37.575880662862346,
              55.751860706103145
            ],
            [
              37.58275857480098,
              55.748693610007905
            ],
            [
              37.58838595729699,
              55.75397196065765
            ],
            [
              37.57963225119295,
              55.7557312521636
            ]
          ]
        ],
        "type": "Polygon"
      }
    },
    {
      "type": "Feature",
      "properties": {
        "id": "JOB_mugbp6jk",
        "survey_type": "rgb",
        "payload_profile": "RGB"
      },
      "geometry": {
        "coordinates": [
          [
            [
              37.565694906540415,
              55.74355715918185
            ],
            [
              37.55295819268201,
              55.73467966391999
            ],
            [
              37.55962980470292,
              55.73058167730281
            ],
            [
              37.579038130582234,
              55.74338645716233
            ],
            [
              37.565694906540415,
              55.74355715918185
            ]
          ]
        ],
        "type": "Polygon"
      }
    },
    {
      "type": "Feature",
      "properties": {
        "id": "JOB_mugbpdk2",
        "survey_type": "rgb",
        "payload_profile": "RGB"
      },
      "geometry": {
        "coordinates": [
          [
            [
              37.58298044677605,
              55.723750743575096
            ],
            [
              37.60693759903381,
              55.746288289937894
            ],
            [
              37.6133059559624,
              55.74441065807878
            ],
            [
              37.590258568980374,
              55.72101803545149
            ],
            [
              37.58298044677605,
              55.723750743575096
            ]
          ]
        ],
        "type": "Polygon"
      }
    },
    {
      "type": "Feature",
      "properties": {
        "id": "JOB_mugbpkox",
        "survey_type": "rgb",
        "payload_profile": "RGB"
      },
      "geometry": {
        "coordinates": [
          [
            [
              37.58298044677605,
              55.709231041033036
            ],
            [
              37.61542874160611,
              55.71093952147757
            ],
            [
              37.59965947682838,
              55.71452708723453
            ],
            [
              37.58298044677605,
              55.709231041033036
            ]
          ]
        ],
        "type": "Polygon"
      }
    },
    {
      "type": "Feature",
      "properties": {
        "id": "JOB_mugbpt86",
        "survey_type": "lidar",
        "payload_profile": "LIDAR"
      },
      "geometry": {
        "coordinates": [
          [
            [
              37.57911116009919,
              55.734377963185125
            ],
            [
              37.60545108327992,
              55.725902657898956
            ],
            [
              37.61410562946668,
              55.736072803458995
            ],
            [
              37.590023413987325,
              55.74412228982072
            ],
            [
              37.57911116009919,
              55.734377963185125
            ]
          ]
        ],
        "type": "Polygon"
      }
    },
    {
      "type": "Feature",
      "properties": {
        "id": "JOB_mugbq43d",
        "survey_type": "rgb",
        "payload_profile": "RGB"
      },
      "geometry": {
        "coordinates": [
          [
            [
              37.60020536825755,
              55.688266737099724
            ],
            [
              37.56807922947897,
              55.686455760113034
            ],
            [
              37.567161339799185,
              55.68050481661331
            ],
            [
              37.59745169921996,
              55.6810223259086
            ],
            [
              37.60020536825755,
              55.688266737099724
            ]
          ]
        ],
        "type": "Polygon"
      }
    },
    {
      "type": "Feature",
      "properties": {
        "id": "JOB_mugbq9i2",
        "survey_type": "rgb",
        "payload_profile": "RGB"
      },
      "geometry": {
        "coordinates": [
          [
            [
              37.478584985736774,
              55.675588136793976
            ],
            [
              37.49097649640916,
              55.66394090352904
            ],
            [
              37.52906891810417,
              55.682057323957
            ],
            [
              37.478584985736774,
              55.675588136793976
            ]
          ]
        ],
        "type": "Polygon"
      }
    },
    {
      "type": "Feature",
      "properties": {
        "id": "JOB_mugbqdxs",
        "survey_type": "rgb",
        "payload_profile": "RGB"
      },
      "geometry": {
        "coordinates": [
          [
            [
              37.52860997326471,
              55.65203125919194
            ],
            [
              37.544673042654495,
              55.67791716742772
            ],
            [
              37.56303083624235,
              55.65306702427944
            ],
            [
              37.52860997326471,
              55.65203125919194
            ]
          ]
        ],
        "type": "Polygon"
      }
    },
    {
      "type": "Feature",
      "properties": {
        "id": "JOB_mugbqk0e",
        "survey_type": "rgb",
        "payload_profile": "RGB"
      },
      "geometry": {
        "coordinates": [
          [
            [
              37.57083289851661,
              55.65824543873251
            ],
            [
              37.57266867787621,
              55.653325961269985
            ],
            [
              37.586895967906344,
              55.6535848965481
            ],
            [
              37.58597807822744,
              55.660316612728764
            ],
            [
              37.57083289851661,
              55.65824543873251
            ]
          ]
        ],
        "type": "Polygon"
      }
    },
    {
      "type": "Feature",
      "properties": {
        "id": "JOB_mugbqw64",
        "survey_type": "rgb",
        "payload_profile": "RGB"
      },
      "geometry": {
        "coordinates": [
          [
            [
              37.57496340207436,
              55.67170611091987
            ],
            [
              37.58735491274666,
              55.674035372667674
            ],
            [
              37.62498838960133,
              55.666270627543184
            ],
            [
              37.61535054796843,
              55.65513847225637
            ],
            [
              37.57496340207436,
              55.67170611091987
            ]
          ]
        ],
        "type": "Polygon"
      }
    },
    {
      "type": "Feature",
      "properties": {
        "id": "JOB_mugbtq3n",
        "survey_type": "rgb",
        "payload_profile": "RGB"
      },
      "geometry": {
        "coordinates": [
          [
            [
              37.610182984568354,
              55.68670759286161
            ],
            [
              37.606078561754714,
              55.67629439589615
            ],
            [
              37.62078607683472,
              55.673401349142665
            ],
            [
              37.622496253007995,
              55.68092282571351
            ],
            [
              37.610182984568354,
              55.68670759286161
            ]
          ]
        ],
        "type": "Polygon"
      }
    },
    {
      "type": "Feature",
      "properties": {
        "id": "JOB_mugc6vdy",
        "survey_type": "lidar",
        "payload_profile": "LIDAR"
      },
      "geometry": {
        "coordinates": [
          [
            [
              37.42982705439121,
              55.75165474216641
            ],
            [
              37.44986321068015,
              55.64748605214305
            ],
            [
              37.45341801260224,
              55.647668407552004
            ],
            [
              37.43305869250176,
              55.752018481411426
            ],
            [
              37.42821123533594,
              55.757837848074075
            ],
            [
              37.42982705439121,
              55.75165474216641
            ]
          ]
        ],
        "type": "Polygon"
      }
    },
    {
      "type": "Feature",
      "properties": {
        "id": "JOB_mujkb5uw",
        "survey_type": "lidar",
        "payload_profile": "LIDAR"
      },
      "geometry": {
        "coordinates": [
          [
            [
              37.510392590161956,
              55.70384245355214
            ],
            [
              37.517820900385374,
              55.716016948712394
            ],
            [
              37.54685884035004,
              55.698514918928254
            ],
            [
              37.53740462733819,
              55.69128353173696
            ],
            [
              37.510392590161956,
              55.70384245355214
            ]
          ]
        ],
        "type": "Polygon"
      }
    }
  ]
}
