{
  "type": "FeatureCollection",
  "features": [
    {
      "type": "Feature",
      "geometry": {
        "type": "Polygon",
        "coordinates": [
          [
            [
              37.502766367602895,
              55.683944537565644
            ],
            [
              37.501563880338274,
              55.71538263579918
            ],
            [
              37.557255959463724,
              55.71604950100602
            ],
            [
              37.55841379259607,
              55.684610621796445
            ],
            [
              37.502766367602895,
              55.683944537565644
            ]
          ]
        ]
      },
      "properties": {
        "id": "ALLOWED"
      }
    }
  ]
}
