<?xml version='1.0' encoding='utf-8'?>
<kml xmlns="http://www.opengis.net/kml/2.2"><Document><Placemark><name>JOB_RGB</name><Polygon><outerBoundaryIs><LinearRing><coordinates>37.53406047971323,55.69780192993722,0 37.53389234097975,55.7022931510974,0 37.525939064632354,55.702197932462724,0 37.52610811467466,55.697706727240835,0 37.53406047971323,55.69780192993722,0</coordinates></LinearRing></outerBoundaryIs></Polygon></Placemark><Placemark><name>BASE</name><Point><coordinates>37.518070822776075,55.69985660476765</coordinates></Point></Placemark><Placemark><name>RESERVE</name><Point><coordinates>37.54351986382653,55.70016111412656</coordinates></Point></Placemark></Document></kml>