{
  "type": "FeatureCollection",
  "features": [
    {
      "type": "Feature",
      "geometry": {
        "type": "Polygon",
        "coordinates": [
          [
            [
              37.49403924741099,
              55.683388459594084
            ],
            [
              37.492795186382295,
              55.71572466021251
            ],
            [
              37.56599132609896,
              55.71660112621144
            ],
            [
              37.56717502204031,
              55.68426386984114
            ],
            [
              37.49403924741099,
              55.683388459594084
            ]
          ]
        ]
      },
      "properties": {
        "id": "ALLOWED"
      }
    }
  ]
}
