<?xml version='1.0' encoding='utf-8'?>
<kml xmlns="http://www.opengis.net/kml/2.2"><Document><Placemark><name>JOB_RGB</name><Polygon><outerBoundaryIs><LinearRing><coordinates>37.54282484718314,55.69745693420501,0 37.54262428365571,55.70284642051641,0 37.51717350799716,55.70254171579275,0 37.51737757095032,55.697152290684365,0 37.54282484718314,55.69745693420501,0</coordinates></LinearRing></outerBoundaryIs></Polygon></Placemark><Placemark><name>START</name><Point><coordinates>37.50932282816219,55.69975071200104</coordinates></Point></Placemark><Placemark><name>END</name><Point><coordinates>37.55067749414587,55.70024580742193</coordinates></Point></Placemark></Document></kml>