{
  "type": "FeatureCollection",
  "features": [
    {
      "type": "Feature",
      "geometry": {
        "type": "Polygon",
        "coordinates": [
          [
            [
              37.54282484718314,
              55.69745693420501
            ],
            [
              37.54262428365571,
              55.70284642051641
            ],
            [
              37.51717350799716,
              55.70254171579275
            ],
            [
              37.51737757095032,
              55.697152290684365
            ],
            [
              37.54282484718314,
              55.69745693420501
            ]
          ]
        ]
      },
      "properties": {
        "id": "JOB_RGB",
        "survey_type": "rgb",
        "payload_profile": "RGB"
      }
    }
  ]
}
