{
  "type": "FeatureCollection",
  "features": [
    {
      "type": "Feature",
      "geometry": {
        "type": "Polygon",
        "coordinates": [
          [
            [
              37.280823188261,
              55.62222424848174
            ],
            [
              37.27849953814542,
              55.67521455747249
            ],
            [
              37.39611843450708,
              55.676807888608955
            ],
            [
              37.39828349642206,
              55.62381443783167
            ],
            [
              37.280823188261,
              55.62222424848174
            ]
          ]
        ]
      },
      "properties": {
        "id": "ALLOWED"
      }
    }
  ]
}
