<?xml version='1.0' encoding='utf-8'?>
<kml xmlns="http://www.opengis.net/kml/2.2"><Document><Placemark><name>JOB_RGB</name><MultiGeometry><Polygon><outerBoundaryIs><LinearRing><coordinates>37.33236348456337,55.642706968171,0 37.3315232414542,55.66246658755994,0 37.30292355773069,55.662074403495495,0 37.30377818691313,55.642315072650845,0 37.33236348456337,55.642706968171,0</coordinates></LinearRing></outerBoundaryIs><innerBoundaryIs><LinearRing><coordinates>37.320900998751206,55.65063879912906,0 37.32074721006692,55.6542314369034,0 37.31439303299423,55.65414431112505,0 37.31454740293399,55.65055168500906,0 37.320900998751206,55.65063879912906,0</coordinates></LinearRing></innerBoundaryIs></Polygon><Polygon><outerBoundaryIs><LinearRing><coordinates>37.373915113074915,55.63697399041797,0 37.37339396176444,55.649548576323454,0 37.35433329948258,55.649294403281594,0 37.3548605509972,55.63671993638271,0 37.373915113074915,55.63697399041797,0</coordinates></LinearRing></outerBoundaryIs></Polygon></MultiGeometry></Placemark><Placemark><name>BASE</name><Point><coordinates>37.295540374378504,55.64905587447446</coordinates></Point></Placemark><Placemark><name>RESERVE</name><Point><coordinates>37.38290116631658,55.65023837895745</coordinates></Point></Placemark></Document></kml>