{
  "type": "FeatureCollection",
  "features": [
    {
      "type": "Feature",
      "geometry": {
        "type": "MultiPolygon",
        "coordinates": [
          [
            [
              [
                37.33236348456337,
                55.642706968171
              ],
              [
                37.3315232414542,
                55.66246658755994
              ],
              [
                37.30292355773069,
                55.662074403495495
              ],
              [
                37.30377818691313,
                55.642315072650845
              ],
              [
                37.33236348456337,
                55.642706968171
              ]
            ],
            [
              [
                37.320900998751206,
                55.65063879912906
              ],
              [
                37.32074721006692,
                55.6542314369034
              ],
              [
                37.31439303299423,
                55.65414431112505
              ],
              [
                37.31454740293399,
                55.65055168500906
              ],
              [
                37.320900998751206,
                55.65063879912906
              ]
            ]
          ],
          [
            [
              [
                37.373915113074915,
                55.63697399041797
              ],
              [
                37.37339396176444,
                55.649548576323454
              ],
              [
                37.35433329948258,
                55.649294403281594
              ],
              [
                37.3548605509972,
                55.63671993638271
              ],
              [
                37.373915113074915,
                55.63697399041797
              ]
            ]
          ]
        ]
      },
      "properties": {
        "id": "JOB_RGB",
        "survey_type": "rgb",
        "payload_profile": "RGB"
      }
    }
  ]
}
