{
  "type": "FeatureCollection",
  "features": [
    {
      "type": "Feature",
      "geometry": {
        "type": "Polygon",
        "coordinates": [
          [
            [
              37.49728787389659,
              55.68163096276764
            ],
            [
              37.49590849971417,
              55.71756012678109
            ],
            [
              37.56274282427292,
              55.7183604319773
            ],
            [
              37.56406095850433,
              55.6824301969111
            ],
            [
              37.49728787389659,
              55.68163096276764
            ]
          ]
        ]
      },
      "properties": {
        "id": "ALLOWED"
      }
    }
  ]
}
