{
  "type": "FeatureCollection",
  "features": [
    {
      "type": "Feature",
      "geometry": {
        "type": "Polygon",
        "coordinates": [
          [
            [
              37.551572460574285,
              55.69756043783621
            ],
            [
              37.551373100026574,
              55.70294994494177
            ],
            [
              37.54660101129868,
              55.702893554315
            ],
            [
              37.546801028020425,
              55.697504058536204
            ],
            [
              37.551572460574285,
              55.69756043783621
            ]
          ]
        ]
      },
      "properties": {
        "id": "NFZ",
        "hard": true
      }
    }
  ]
}
