{
  "type": "FeatureCollection",
  "features": [
    {
      "type": "Feature",
      "geometry": {
        "type": "Polygon",
        "coordinates": [
          [
            [
              37.530424459783966,
              55.70989018222069
            ],
            [
              37.530422281966224,
              55.70984611485743
            ],
            [
              37.53041246420619,
              55.70980238020897
            ],
            [
              37.53039510107926,
              55.70975939946224
            ],
            [
              37.530370359825184,
              55.70971758654234
            ],
            [
              37.530338478736525,
              55.709677344126284
            ],
            [
              37.53029976486295,
              55.70963905976525
            ],
            [
              37.53025459105355,
              55.70960310215239
            ],
            [
              37.53020339236557,
              55.709569817572444
            ],
            [
              37.53014666187422,
              55.70953952656694
            ],
            [
              37.53008494592397,
              55.70951252084759
            ],
            [
              37.53001883886695,
              55.709489060487215
            ],
            [
              37.529948977339345,
              55.70946937141531
            ],
            [
              37.529876034130545,
              55.709453643242554
            ],
            [
              37.52980071170449,
              55.70944202743491
            ],
            [
              37.52972373543525,
              55.709434635855175
            ],
            [
              37.52964584662213,
              55.70943153968576
            ],
            [
              37.52956779535152,
              55.7094327687433
            ],
            [
              37.529490333274055,
              55.70943831119158
            ],
            [
              37.52941420636687,
              55.70944811365546
            ],
            [
              37.52934014775036,
              55.70946208173485
            ],
            [
              37.529268870628734,
              55.70948008091375
            ],
            [
              37.52920106142228,
              55.7095019378555
            ],
            [
              37.529137373157376,
              55.70952744207197
            ],
            [
              37.529078419178084,
              55.709556347950404
            ],
            [
              37.5290247672396,
              55.7095883771185
            ],
            [
              37.52897693404058,
              55.709623221125135
            ],
            [
              37.52893538024707,
              55.70966054441046
            ],
            [
              37.52890050605576,
              55.70969998753744
            ],
            [
              37.52887264733947,
              55.70974117065306
            ],
            [
              37.5288520724119,
              55.70978369714635
            ],
            [
              37.528838979442924,
              55.70982715746771
            ],
            [
              37.528833494549225,
              55.709871133073
            ],
            [
              37.528835670578815,
              55.709915200454304
            ],
            [
              37.52884548660109,
              55.709958935218346
            ],
            [
              37.52886284810741,
              55.71000191617381
            ],
            [
              37.52888758792031,
              55.71004372938755
            ],
            [
              37.52891946780263,
              55.71008397217128
            ],
            [
              37.52895818075104,
              55.71012225695968
            ],
            [
              37.52900335395201,
              55.710158215043144
            ],
            [
              37.529054552371676,
              55.7101915001189
            ],
            [
              37.529111282945145,
              55.71022179162633
            ],
            [
              37.52917299932479,
              55.71024879783445
            ],
            [
              37.52923910714197,
              55.710272258651656
            ],
            [
              37.529308969731304,
              55.71029194813087
            ],
            [
              37.52938191426258,
              55.710307676645805
            ],
            [
              37.529457238221056,
              55.71031929271732
            ],
            [
              37.52953421617376,
              55.710326684472506
            ],
            [
              37.52961210675667,
              55.71032978072216
            ],
            [
              37.52969015981544,
              55.7103285516466
            ],
            [
              37.529767623630676,
              55.71032300908271
            ],
            [
              37.52984375215847,
              55.71031320641009
            ],
            [
              37.529917812216155,
              55.71029923803686
            ],
            [
              37.52998909054412,
              55.7102812384903
            ],
            [
              37.530056900675746,
              55.7102593811212
            ],
            [
              37.53012058954907,
              55.710233876434096
            ],
            [
              37.53017954379667,
              55.71020497005986
            ],
            [
              37.53023319565304,
              55.71017294038982
            ],
            [
              37.53028102842267,
              55.71013809589444
            ],
            [
              37.53032258145602,
              55.71010077215227
            ],
            [
              37.530357454585605,
              55.71006132861796
            ],
            [
              37.530385311979416,
              55.71002014516018
            ],
            [
              37.53040588537457,
              55.709977618403016
            ],
            [
              37.53041897666008,
              55.70993415790623
            ],
            [
              37.530424459783966,
              55.70989018222069
            ]
          ]
        ]
      },
      "properties": {
        "id": "TEST_MAST",
        "height_m": 180,
        "horizontal_buffer_m": 50,
        "vertical_buffer_m": 20
      }
    }
  ]
}
