<?xml version='1.0' encoding='utf-8'?>
<kml xmlns="http://www.opengis.net/kml/2.2"><Document><Placemark><name>JOB_RGB</name><Polygon><outerBoundaryIs><LinearRing><coordinates>37.53971089618412,55.695622647997865,0 37.53937589456684,55.704605112529386,0 37.52028693765337,55.704376568680104,0 37.52062631355295,55.695394180652364,0 37.53971089618412,55.695622647997865,0</coordinates></LinearRing></outerBoundaryIs></Polygon></Placemark><Placemark><name>BASE</name><Point><coordinates>37.512503910361986,55.69978929054262</coordinates></Point></Placemark><Placemark><name>RESERVE</name><Point><coordinates>37.5490869063332,55.700227022732136</coordinates></Point></Placemark></Document></kml>