{
  "type": "FeatureCollection",
  "features": [
    {
      "type": "Feature",
      "geometry": {
        "type": "Polygon",
        "coordinates": [
          [
            [
              37.53971089618412,
              55.695622647997865
            ],
            [
              37.53937589456684,
              55.704605112529386
            ],
            [
              37.52028693765337,
              55.704376568680104
            ],
            [
              37.52062631355295,
              55.695394180652364
            ],
            [
              37.53971089618412,
              55.695622647997865
            ]
          ]
        ]
      },
      "properties": {
        "id": "JOB_RGB",
        "survey_type": "rgb",
        "payload_profile": "RGB"
      }
    }
  ]
}
