{
  "type": "FeatureCollection",
  "features": [
    {
      "type": "Feature",
      "geometry": {
        "type": "Polygon",
        "coordinates": [
          [
            [
              37.579915929176295,
              55.72152254419826
            ],
            [
              37.57932882289335,
              55.73769118680099
            ],
            [
              37.57938243879548,
              55.738748785120144
            ],
            [
              37.57961954777438,
              55.73979832550477
            ],
            [
              37.58003788077569,
              55.740829699338676
            ],
            [
              37.58063342248187,
              55.74183297218652
            ],
            [
              37.58140044946432,
              55.74279847953468
            ],
            [
              37.58233158484286,
              55.74371691995978
            ],
            [
              37.583417868943876,
              55.74457944482394
            ],
            [
              37.584648845291525,
              55.74537774362874
            ],
            [
              37.586012661115205,
              55.746104124200066
            ],
            [
              37.58749618141302,
              55.74675158692657
            ],
            [
              37.58908511547585,
              55.74731389232999
            ],
            [
              37.5907641546527,
              55.747785621310825
            ],
            [
              37.59251712002526,
              55.74816222748318
            ],
            [
              37.59432711856003,
              55.74844008108879
            ],
            [
              37.59617670622119,
              55.74861650406277
            ],
            [
              37.5980480564571,
              55.74868979590878
            ],
            [
              37.63308551494313,
              55.749084568878864
            ],
            [
              37.634960591002006,
              55.74905348838234
            ],
            [
              37.636821226869415,
              55.74891886822291
            ],
            [
              37.63864948916669,
              55.7486820058452
            ],
            [
              37.64042775727593,
              55.74834518411523
            ],
            [
              37.64213889355368,
              55.747911649267714
            ],
            [
              37.64376640883532,
              55.74738557954847
            ],
            [
              37.6452946216188,
              55.74677204485756
            ],
            [
              37.646708809379646,
              55.74607695778643
            ],
            [
              37.64799535054887,
              55.745307016525636
            ],
            [
              37.64914185577915,
              55.74446964019919
            ],
            [
              37.65013728723176,
              55.74357289725393
            ],
            [
              37.65097206473677,
              55.74262542760009
            ],
            [
              37.65163815780957,
              55.741636359258784
            ],
            [
              37.652129162646986,
              55.74061522032469
            ],
            [
              37.65244036337461,
              55.739571847096684
            ],
            [
              37.65256877697211,
              55.738516289265625
            ],
            [
              37.65312563904201,
              55.72234714934931
            ],
            [
              37.6530700444521,
              55.72128957072643
            ],
            [
              37.65283106699307,
              55.720240159849524
            ],
            [
              37.65241102255449,
              55.719209022138756
            ],
            [
              37.65181396981384,
              55.7182060862626
            ],
            [
              37.65104567063393,
              55.717241008586804
            ],
            [
              37.650113534115484,
              55.716323080272716
            ],
            [
              37.64902654486135,
              55.71546113791615
            ],
            [
              37.64779517615768,
              55.71466347858271
            ],
            [
              37.64643128891951,
              55.713937780052866
            ],
            [
              37.64494801738113,
              55.71329102703868
            ],
            [
              37.6433596426353,
              55.71272944407704
            ],
            [
              37.641681455238,
              55.71225843573942
            ],
            [
              37.639929608196525,
              55.71188253472792
            ],
            [
              37.63812096174738,
              55.711605358352145
            ],
            [
              37.63627292140575,
              55.71142957380078
            ],
            [
              37.63440327082992,
              55.71135687253847
            ],
            [
              37.599399563151266,
              55.710962654541866
            ],
            [
              37.597526293532326,
              55.71099320210642
            ],
            [
              37.59566733783907,
              55.71112723691378
            ],
            [
              37.593840584428385,
              55.71136346910536
            ],
            [
              37.59206361250889,
              55.71169962537707
            ],
            [
              37.59035352335894,
              55.712132470805614
            ],
            [
              37.588726776090155,
              55.712657839908715
            ],
            [
              37.5871990295206,
              55.71327067664379
            ],
            [
              37.585784991665676,
              55.71396508296409
            ],
            [
              37.58449827828493,
              55.7147343754702
            ],
            [
              37.583351281839676,
              55.715571149616835
            ],
            [
              37.58235505212011,
              55.71646735086297
            ],
            [
              37.581519189692436,
              55.7174143520857
            ],
            [
              37.58085175319768,
              55.718403036518716
            ],
            [
              37.5803591814038,
              55.71942388542219
            ],
            [
              37.58004623077512,
              55.72046706964447
            ],
            [
              37.579915929176295,
              55.72152254419826
            ]
          ]
        ]
      },
      "properties": {
        "id": "ALLOWED",
        "layer": "allowed_airspace"
      }
    }
  ]
}