<?xml version="1.0" encoding="UTF-8"?>
<kml xmlns="http://www.opengis.net/kml/2.2"><Document>
<Style id="survey"><PolyStyle><color>5522aa22</color></PolyStyle></Style>
<Style id="nfz"><PolyStyle><color>55aa2222</color></PolyStyle></Style>
<Style id="allowed"><PolyStyle><color>222222aa</color></PolyStyle></Style>
<Placemark><name>RGB_A</name><styleUrl>#survey</styleUrl><Polygon><outerBoundaryIs><LinearRing><coordinates>37.59901375,55.72174186,0 37.63402709,55.72213624,0 37.63346234,55.73830525,0 37.59843453,55.73791064,0 37.59901375,55.72174186,0</coordinates></LinearRing></outerBoundaryIs></Polygon></Placemark>
<Placemark><name>ALLOWED_AIRSPACE</name><styleUrl>#allowed</styleUrl><Polygon><outerBoundaryIs><LinearRing><coordinates>37.57991593,55.72152254,0 37.57932882,55.73769119,0 37.57938244,55.73874879,0 37.57961955,55.73979833,0 37.58003788,55.74082970,0 37.58063342,55.74183297,0 37.58140045,55.74279848,0 37.58233158,55.74371692,0 37.58341787,55.74457944,0 37.58464885,55.74537774,0 37.58601266,55.74610412,0 37.58749618,55.74675159,0 37.58908512,55.74731389,0 37.59076415,55.74778562,0 37.59251712,55.74816223,0 37.59432712,55.74844008,0 37.59617671,55.74861650,0 37.59804806,55.74868980,0 37.63308551,55.74908457,0 37.63496059,55.74905349,0 37.63682123,55.74891887,0 37.63864949,55.74868201,0 37.64042776,55.74834518,0 37.64213889,55.74791165,0 37.64376641,55.74738558,0 37.64529462,55.74677204,0 37.64670881,55.74607696,0 37.64799535,55.74530702,0 37.64914186,55.74446964,0 37.65013729,55.74357290,0 37.65097206,55.74262543,0 37.65163816,55.74163636,0 37.65212916,55.74061522,0 37.65244036,55.73957185,0 37.65256878,55.73851629,0 37.65312564,55.72234715,0 37.65307004,55.72128957,0 37.65283107,55.72024016,0 37.65241102,55.71920902,0 37.65181397,55.71820609,0 37.65104567,55.71724101,0 37.65011353,55.71632308,0 37.64902654,55.71546114,0 37.64779518,55.71466348,0 37.64643129,55.71393778,0 37.64494802,55.71329103,0 37.64335964,55.71272944,0 37.64168146,55.71225844,0 37.63992961,55.71188253,0 37.63812096,55.71160536,0 37.63627292,55.71142957,0 37.63440327,55.71135687,0 37.59939956,55.71096265,0 37.59752629,55.71099320,0 37.59566734,55.71112724,0 37.59384058,55.71136347,0 37.59206361,55.71169963,0 37.59035352,55.71213247,0 37.58872678,55.71265784,0 37.58719903,55.71327068,0 37.58578499,55.71396508,0 37.58449828,55.71473438,0 37.58335128,55.71557115,0 37.58235505,55.71646735,0 37.58151919,55.71741435,0 37.58085175,55.71840304,0 37.58035918,55.71942389,0 37.58004623,55.72046707,0 37.57991593,55.72152254,0</coordinates></LinearRing></outerBoundaryIs></Polygon></Placemark>
<Placemark><name>BASE_A</name><description>both</description><Point><coordinates>37.59258316,55.72346562,0</coordinates></Point></Placemark>
<Placemark><name>RES_A</name><description>reserve</description><Point><coordinates>37.63989361,55.73657937,0</coordinates></Point></Placemark>
</Document></kml>