{
  "type": "FeatureCollection",
  "features": [
    {
      "type": "Feature",
      "geometry": {
        "type": "Polygon",
        "coordinates": [
          [
            [
              37.59901374614922,
              55.7217418638082
            ],
            [
              37.634027088738094,
              55.722136240259736
            ],
            [
              37.63346233636381,
              55.738305252976254
            ],
            [
              37.598434529147006,
              55.737910638679
            ],
            [
              37.59901374614922,
              55.7217418638082
            ]
          ]
        ]
      },
      "properties": {
        "id": "RGB_A",
        "survey_type": "rgb",
        "payload_profile": "RGB_STD"
      }
    }
  ]
}