{
  "type": "FeatureCollection",
  "features": [
    {
      "type": "Feature",
      "geometry": {
        "type": "LineString",
        "coordinates": [
          [
            37.507732289962156,
            55.69973139183856,
            160.0
          ],
          [
            37.507732289962156,
            55.69973139183856,
            283.0769230769231
          ],
          [
            37.508044564174874,
            55.69975647044574,
            283.0769230769231
          ],
          [
            37.50835683880138,
            55.69978154826091,
            283.0769230769231
          ],
          [
            37.508669113841655,
            55.69980662528405,
            283.0769230769231
          ],
          [
            37.50898138929568,
            55.69983170151516,
            283.0769230769231
          ],
          [
            37.50929366516343,
            55.699856776954256,
            283.0769230769231
          ],
          [
            37.5096059414449,
            55.699881851601326,
            283.0769230769231
          ],
          [
            37.50991821814008,
            55.699906925456375,
            283.0769230769231
          ],
          [
            37.510230495248955,
            55.69993199851938,
            283.0769230769231
          ],
          [
            37.510542772771494,
            55.699957070790354,
            283.0769230769231
          ],
          [
            37.51085505070771,
            55.69998214226931,
            283.0769230769231
          ],
          [
            37.51116732905756,
            55.700007212956216,
            283.0769230769231
          ],
          [
            37.511479607821045,
            55.70003228285109,
            283.0769230769231
          ],
          [
            37.51179188699815,
            55.70005735195391,
            283.0769230769231
          ],
          [
            37.51210416658886,
            55.70008242026469,
            283.0769230769231
          ],
          [
            37.51241644659316,
            55.70010748778343,
            283.0769230769231
          ],
          [
            37.51272872701102,
            55.70013255451011,
            283.0769230769231
          ],
          [
            37.51304100784245,
            55.70015762044474,
            283.0769230769231
          ],
          [
            37.51335328908743,
            55.70018268558732,
            283.0769230769231
          ],
          [
            37.513665570745935,
            55.700207749937846,
            283.0769230769231
          ],
          [
            37.51397785281795,
            55.700232813496314,
            283.0769230769231
          ],
          [
            37.514290135303476,
            55.70025787626271,
            283.0769230769231
          ],
          [
            37.51460241820248,
            55.70028293823706,
            283.0769230769231
          ],
          [
            37.51491470151496,
            55.700307999419344,
            283.0769230769231
          ],
          [
            37.51522698524089,
            55.700333059809566,
            283.0769230769231
          ],
          [
            37.51553926938027,
            55.70035811940771,
            283.0769230769231
          ],
          [
            37.51585155393307,
            55.70038317821376,
            283.0769230769231
          ],
          [
            37.51616383889929,
            55.70040823622778,
            283.0769230769231
          ],
          [
            37.5164761242789,
            55.70043329344969,
            283.0769230769231
          ],
          [
            37.516788410071904,
            55.70045834987953,
            283.0769230769231
          ],
          [
            37.51710069627828,
            55.700483405517296,
            283.0769230769231
          ],
          [
            37.517412982898,
            55.70050846036298,
            283.0769230769231
          ],
          [
            37.51772526993106,
            55.70053351441656,
            283.0769230769231
          ],
          [
            37.51803755737745,
            55.70055856767807,
            283.0769230769231
          ],
          [
            37.518349845237154,
            55.70058362014749,
            283.0769230769231
          ],
          [
            37.51866213351015,
            55.700608671824796,
            283.0769230769231
          ],
          [
            37.51897442219642,
            55.70063372271003,
            283.0769230769231
          ],
          [
            37.51928671129597,
            55.70065877280316,
            283.0769230769231
          ],
          [
            37.51959900080876,
            55.70068382210419,
            283.0769230769231
          ],
          [
            37.5199112907348,
            55.700708870613106,
            283.0769230769231
          ],
          [
            37.520223581074056,
            55.70073391832995,
            283.0769230769231
          ],
          [
            37.52053587182652,
            55.700758965254664,
            283.0769230769231
          ],
          [
            37.52084816299217,
            55.70078401138728,
            283.0769230769231
          ],
          [
            37.521160454571024,
            55.70080905672776,
            283.0769230769231
          ],
          [
            37.52147274656302,
            55.700834101276165,
            283.0769230769231
          ],
          [
            37.521785038968176,
            55.70085914503242,
            283.0769230769231
          ],
          [
            37.52209733178646,
            55.70088418799657,
            283.0769230769231
          ],
          [
            37.52240962501787,
            55.70090923016861,
            283.0769230769231
          ],
          [
            37.522721918662384,
            55.700934271548526,
            283.0769230769231
          ],
          [
            37.52303421271999,
            55.70095931213632,
            283.0769230769231
          ],
          [
            37.52334650719067,
            55.70098435193197,
            283.0769230769231
          ],
          [
            37.52365880207442,
            55.7010093909355,
            283.0769230769231
          ],
          [
            37.523971097371216,
            55.70103442914691,
            283.0769230769231
          ],
          [
            37.52428339308104,
            55.701059466566164,
            283.0769230769231
          ],
          [
            37.524595689203885,
            55.7010845031933,
            283.0769230769231
          ],
          [
            37.52490798573974,
            55.70110953902828,
            283.0769230769231
          ],
          [
            37.52522028268857,
            55.70113457407114,
            283.0769230769231
          ],
          [
            37.52553258005038,
            55.701159608321845,
            283.0769230769231
          ],
          [
            37.52584487782515,
            55.7011846417804,
            283.0769230769231
          ],
          [
            37.52615717601287,
            55.701209674446815,
            283.0769230769231
          ],
          [
            37.52646947461351,
            55.70123470632108,
            283.0769230769231
          ],
          [
            37.526781773627086,
            55.701259737403184,
            283.0769230769231
          ],
          [
            37.52709407305355,
            55.70128476769316,
            283.0769230769231
          ],
          [
            37.5274063728929,
            55.70130979719094,
            283.0769230769231
          ],
          [
            37.527718673145124,
            55.70133482589659,
            283.0769230769231
          ],
          [
            37.5280309738102,
            55.70135985381007,
            283.0769230769231
          ],
          [
            37.52834327488813,
            55.701384880931386,
            283.0769230769231
          ],
          [
            37.52865557637888,
            55.70140990726055,
            283.0769230769231
          ],
          [
            37.528967878282444,
            55.701434932797525,
            283.0769230769231
          ],
          [
            37.52928018059881,
            55.70145995754234,
            283.0769230769231
          ],
          [
            37.52959248332796,
            55.701484981494986,
            283.0769230769231
          ],
          [
            37.52990478646988,
            55.701510004655454,
            283.0769230769231
          ],
          [
            37.53021709002456,
            55.70153502702372,
            283.0769230769231
          ],
          [
            37.53052939399197,
            55.701560048599845,
            283.0769230769231
          ],
          [
            37.530841698372114,
            55.701585069383775,
            283.0769230769231
          ],
          [
            37.53115400316496,
            55.70161008937551,
            283.0769230769231
          ],
          [
            37.53146630837051,
            55.70163510857506,
            283.0769230769231
          ],
          [
            37.53177861398874,
            55.70166012698244,
            283.0769230769231
          ],
          [
            37.53209092001964,
            55.701685144597604,
            283.0769230769231
          ],
          [
            37.53240322646319,
            55.701710161420586,
            283.0769230769231
          ],
          [
            37.53271553331938,
            55.701735177451376,
            283.0769230769231
          ],
          [
            37.5330278405882,
            55.70176019268995,
            283.0769230769231
          ],
          [
            37.533340148269616,
            55.70178520713635,
            283.0769230769231
          ],
          [
            37.53365245636363,
            55.70181022079053,
            283.0769230769231
          ],
          [
            37.53396476487023,
            55.70183523365252,
            283.0769230769231
          ],
          [
            37.53427707378939,
            55.70186024572228,
            283.0769230769231
          ],
          [
            37.534589383121094,
            55.70188525699985,
            283.0769230769231
          ],
          [
            37.53490169286535,
            55.701910267485204,
            283.0769230769231
          ],
          [
            37.53521400302211,
            55.70193527717834,
            283.0769230769231
          ],
          [
            37.53552631359139,
            55.70196028607927,
            283.0769230769231
          ],
          [
            37.53583862457315,
            55.70198529418797,
            283.0769230769231
          ],
          [
            37.5361509359674,
            55.70201030150445,
            283.0769230769231
          ],
          [
            37.53646324777411,
            55.702035308028705,
            283.0769230769231
          ],
          [
            37.53677555999325,
            55.702060313760754,
            283.0769230769231
          ],
          [
            37.537087872624845,
            55.702085318700554,
            283.0769230769231
          ],
          [
            37.53740018566885,
            55.70211032284813,
            283.0769230769231
          ],
          [
            37.537406750119025,
            55.70193457919942,
            283.0769230769231
          ],
          [
            37.537413314496554,
            55.701758835545135,
            283.0769230769231
          ],
          [
            37.53741987880144,
            55.701583091885276,
            283.0769230769231
          ],
          [
            37.53742644303368,
            55.70140734821983,
            283.0769230769231
          ],
          [
            37.53743300719327,
            55.701231604548816,
            283.0769230769231
          ],
          [
            37.537439571280224,
            55.70105586087223,
            283.0769230769231
          ],
          [
            37.53744613529454,
            55.70088011719006,
            283.0769230769231
          ],
          [
            37.53745269923621,
            55.700704373502305,
            283.0769230769231
          ],
          [
            37.53745926310524,
            55.70052862980899,
            283.0769230769231
          ],
          [
            37.537465826901645,
            55.700352886110096,
            283.0769230769231
          ],
          [
            37.5374723906254,
            55.70017714240562,
            283.0769230769231
          ],
          [
            37.53747895427653,
            55.70000139869557,
            283.0769230769231
          ],
          [
            37.537485517855025,
            55.69982565497994,
            283.0769230769231
          ],
          [
            37.53749208136089,
            55.69964991125873,
            283.0769230769231
          ],
          [
            37.53749864479411,
            55.69947416753195,
            283.0769230769231
          ],
          [
            37.53750520815471,
            55.699298423799604,
            283.0769230769231
          ],
          [
            37.537511771442674,
            55.699122680061656,
            283.0769230769231
          ],
          [
            37.53751833465801,
            55.69894693631815,
            283.0769230769231
          ],
          [
            37.53752489780072,
            55.69877119256907,
            283.0769230769231
          ],
          [
            37.5375314608708,
            55.698595448814416,
            283.0769230769231
          ],
          [
            37.537538023868265,
            55.69841970505416,
            283.0769230769231
          ],
          [
            37.537544586793096,
            55.69824396128835,
            283.0769230769231
          ],
          [
            37.53755114964531,
            55.698068217516955,
            283.0769230769231
          ],
          [
            37.53783743806702,
            55.698071627086826,
            283.0769230769231
          ],
          [
            37.5381237265502,
            55.698075035989454,
            283.0769230769231
          ],
          [
            37.53841001509481,
            55.69807844422485,
            283.0769230769231
          ],
          [
            37.53869630370085,
            55.69808185179299,
            283.0769230769231
          ],
          [
            37.53898259236832,
            55.69808525869391,
            283.0769230769231
          ],
          [
            37.53897603593424,
            55.69826100257691,
            283.0769230769231
          ],
          [
            37.538969479427614,
            55.69843674645436,
            283.0769230769231
          ],
          [
            37.538962922848434,
            55.698612490326234,
            283.0769230769231
          ],
          [
            37.5389563661967,
            55.69878823419253,
            283.0769230769231
          ],
          [
            37.53894980947241,
            55.698963978053236,
            283.0769230769231
          ],
          [
            37.538943252675566,
            55.699139721908374,
            283.0769230769231
          ],
          [
            37.53893669580616,
            55.69931546575795,
            283.0769230769231
          ],
          [
            37.5389301388642,
            55.69949120960193,
            283.0769230769231
          ],
          [
            37.53892358184968,
            55.69966695344034,
            283.0769230769231
          ],
          [
            37.5389170247626,
            55.699842697273176,
            283.0769230769231
          ],
          [
            37.538910467602946,
            55.700018441100454,
            283.0769230769231
          ],
          [
            37.53890391037074,
            55.70019418492213,
            283.0769230769231
          ],
          [
            37.53889735306597,
            55.70036992873825,
            283.0769230769231
          ],
          [
            37.53889079568862,
            55.70054567254878,
            283.0769230769231
          ],
          [
            37.53888423823872,
            55.70072141635373,
            283.0769230769231
          ],
          [
            37.53887768071625,
            55.700897160153126,
            283.0769230769231
          ],
          [
            37.538871123121204,
            55.70107290394694,
            283.0769230769231
          ],
          [
            37.53886456545359,
            55.70124864773518,
            283.0769230769231
          ],
          [
            37.538858007713415,
            55.701424391517826,
            283.0769230769231
          ],
          [
            37.53885144990067,
            55.70160013529491,
            283.0769230769231
          ],
          [
            37.538844892015334,
            55.70177587906642,
            283.0769230769231
          ],
          [
            37.53883833405744,
            55.70195162283235,
            283.0769230769231
          ],
          [
            37.53883177602696,
            55.702127366592705,
            283.0769230769231
          ],
          [
            37.53911809428292,
            55.7021307733396,
            283.0769230769231
          ],
          [
            37.53940441260029,
            55.70213417941915,
            283.0769230769231
          ],
          [
            37.53969073097907,
            55.702137584831355,
            283.0769230769231
          ],
          [
            37.539977049419235,
            55.702140989576215,
            283.0769230769231
          ],
          [
            37.54026336792078,
            55.70214439365373,
            283.0769230769231
          ],
          [
            37.54026991953154,
            55.70196864978184,
            283.0769230769231
          ],
          [
            37.54027647106979,
            55.70179290590437,
            283.0769230769231
          ],
          [
            37.54028302253553,
            55.701617162021336,
            283.0769230769231
          ],
          [
            37.54028957392878,
            55.7014414181327,
            283.0769230769231
          ],
          [
            37.540296125249526,
            55.70126567423852,
            283.0769230769231
          ],
          [
            37.54030267649777,
            55.70108993033875,
            283.0769230769231
          ],
          [
            37.54030922767351,
            55.700914186433415,
            283.0769230769231
          ],
          [
            37.540315778776765,
            55.700738442522486,
            283.0769230769231
          ],
          [
            37.540322329807516,
            55.70056269860601,
            283.0769230769231
          ],
          [
            37.54032888076576,
            55.70038695468394,
            283.0769230769231
          ],
          [
            37.54033543165153,
            55.7002112107563,
            283.0769230769231
          ],
          [
            37.540341982464795,
            55.70003546682308,
            283.0769230769231
          ],
          [
            37.540348533205574,
            55.69985972288429,
            283.0769230769231
          ],
          [
            37.540355083873855,
            55.69968397893992,
            283.0769230769231
          ],
          [
            37.540361634469654,
            55.69950823498999,
            283.0769230769231
          ],
          [
            37.54036818499296,
            55.69933249103448,
            283.0769230769231
          ],
          [
            37.54037473544378,
            55.69915674707339,
            283.0769230769231
          ],
          [
            37.54038128582211,
            55.69898100310673,
            283.0769230769231
          ],
          [
            37.540387836127955,
            55.6988052591345,
            283.0769230769231
          ],
          [
            37.540394386361314,
            55.698629515156675,
            283.0769230769231
          ],
          [
            37.54040093652219,
            55.69845377117329,
            283.0769230769231
          ],
          [
            37.54040748661059,
            55.69827802718434,
            283.0769230769231
          ],
          [
            37.54041403662651,
            55.698102283189804,
            283.0769230769231
          ],
          [
            37.54070032566223,
            55.69810568608726,
            283.0769230769231
          ],
          [
            37.54098661475929,
            55.69810908831747,
            283.0769230769231
          ],
          [
            37.54127290391768,
            55.69811248988044,
            283.0769230769231
          ],
          [
            37.541559193137374,
            55.69811589077616,
            283.0769230769231
          ],
          [
            37.541845482418374,
            55.69811929100462,
            283.0769230769231
          ],
          [
            37.54183893882064,
            55.69829503511056,
            283.0769230769231
          ],
          [
            37.54183239515049,
            55.698470779210936,
            283.0769230769231
          ],
          [
            37.54182585140794,
            55.69864652330574,
            283.0769230769231
          ],
          [
            37.54181930759298,
            55.698822267394966,
            283.0769230769231
          ],
          [
            37.5418127637056,
            55.698998011478594,
            283.0769230769231
          ],
          [
            37.54180621974581,
            55.699173755556664,
            283.0769230769231
          ],
          [
            37.5417996757136,
            55.69934949962918,
            283.0769230769231
          ],
          [
            37.541793131608976,
            55.6995252436961,
            283.0769230769231
          ],
          [
            37.54178658743193,
            55.69970098775745,
            283.0769230769231
          ],
          [
            37.54178004318247,
            55.69987673181323,
            283.0769230769231
          ],
          [
            37.541773498860586,
            55.700052475863444,
            283.0769230769231
          ],
          [
            37.541766954466276,
            55.70022821990807,
            283.0769230769231
          ],
          [
            37.541760409999554,
            55.70040396394714,
            283.0769230769231
          ],
          [
            37.54175386546041,
            55.70057970798061,
            283.0769230769231
          ],
          [
            37.54174732084883,
            55.70075545200853,
            283.0769230769231
          ],
          [
            37.541740776164836,
            55.70093119603086,
            283.0769230769231
          ],
          [
            37.541734231408405,
            55.70110694004763,
            283.0769230769231
          ],
          [
            37.54172768657955,
            55.70128268405882,
            283.0769230769231
          ],
          [
            37.541721141678266,
            55.70145842806443,
            283.0769230769231
          ],
          [
            37.54171459670455,
            55.70163417206449,
            283.0769230769231
          ],
          [
            37.54170805165841,
            55.70180991605895,
            283.0769230769231
          ],
          [
            37.54170150653983,
            55.701985660047846,
            283.0769230769231
          ],
          [
            37.541694961348824,
            55.702161404031166,
            283.0769230769231
          ],
          [
            37.5419812802184,
            55.702164804104626,
            283.0769230769231
          ],
          [
            37.54226759914928,
            55.70216820351073,
            283.0769230769231
          ],
          [
            37.54255391814144,
            55.70217160224949,
            283.0769230769231
          ],
          [
            37.54284023719487,
            55.7021750003209,
            283.0769230769231
          ],
          [
            37.543126556309566,
            55.70217839772497,
            283.0769230769231
          ],
          [
            37.543133095080805,
            55.70200265363032,
            283.0769230769231
          ],
          [
            37.543139633779695,
            55.70182690953012,
            283.0769230769231
          ],
          [
            37.54314617240621,
            55.70165116542434,
            283.0769230769231
          ],
          [
            37.54315271096037,
            55.70147542131297,
            283.0769230769231
          ],
          [
            37.54315924944217,
            55.70129967719603,
            283.0769230769231
          ],
          [
            37.543165787851606,
            55.70112393307353,
            283.0769230769231
          ],
          [
            37.543172326188696,
            55.700948188945446,
            283.0769230769231
          ],
          [
            37.543178864453424,
            55.7007724448118,
            283.0769230769231
          ],
          [
            37.5431854026458,
            55.700596700672584,
            283.0769230769231
          ],
          [
            37.54319194076582,
            55.70042095652779,
            283.0769230769231
          ],
          [
            37.54319847881349,
            55.70024521237742,
            283.0769230769231
          ],
          [
            37.543205016788804,
            55.700069468221486,
            283.0769230769231
          ],
          [
            37.54321155469177,
            55.699893724059955,
            283.0769230769231
          ],
          [
            37.54321809252239,
            55.699717979892874,
            283.0769230769231
          ],
          [
            37.54322463028066,
            55.699542235720216,
            283.0769230769231
          ],
          [
            37.54323116796658,
            55.69936649154199,
            283.0769230769231
          ],
          [
            37.54323770558016,
            55.699190747358166,
            283.0769230769231
          ],
          [
            37.54324424312139,
            55.699015003168796,
            283.0769230769231
          ],
          [
            37.54325078059028,
            55.698839258973855,
            283.0769230769231
          ],
          [
            37.54325731798682,
            55.69866351477332,
            283.0769230769231
          ],
          [
            37.543263855311025,
            55.69848777056724,
            283.0769230769231
          ],
          [
            37.54327039256289,
            55.698312026355566,
            283.0769230769231
          ],
          [
            37.54327692974241,
            55.698136282138336,
            283.0769230769231
          ],
          [
            37.54296238733638,
            55.698150443351224,
            283.0769230769231
          ],
          [
            37.54264784471676,
            55.69816460375706,
            283.0769230769231
          ],
          [
            37.542333301883566,
            55.698178763355834,
            283.0769230769231
          ],
          [
            37.54201875883682,
            55.69819292214755,
            283.0769230769231
          ],
          [
            37.54170421557654,
            55.6982070801322,
            283.0769230769231
          ],
          [
            37.541389672102724,
            55.698221237309774,
            283.0769230769231
          ],
          [
            37.541075128415414,
            55.69823539368029,
            283.0769230769231
          ],
          [
            37.5407605845146,
            55.69824954924374,
            283.0769230769231
          ],
          [
            37.54044604040032,
            55.69826370400012,
            283.0769230769231
          ],
          [
            37.540131496072576,
            55.698277857949435,
            283.0769230769231
          ],
          [
            37.539816951531385,
            55.69829201109168,
            283.0769230769231
          ],
          [
            37.53950240677677,
            55.69830616342685,
            283.0769230769231
          ],
          [
            37.539187861808735,
            55.698320314954934,
            283.0769230769231
          ],
          [
            37.53887331662731,
            55.69833446567597,
            283.0769230769231
          ],
          [
            37.5385587712325,
            55.69834861558991,
            283.0769230769231
          ],
          [
            37.538244225624325,
            55.69836276469678,
            283.0769230769231
          ],
          [
            37.5379296798028,
            55.698376912996565,
            283.0769230769231
          ],
          [
            37.537615133767936,
            55.69839106048927,
            283.0769230769231
          ],
          [
            37.53730058751975,
            55.69840520717491,
            283.0769230769231
          ],
          [
            37.53698604105827,
            55.69841935305347,
            283.0769230769231
          ],
          [
            37.536671494383505,
            55.69843349812492,
            283.0769230769231
          ],
          [
            37.536356947495456,
            55.69844764238931,
            283.0769230769231
          ],
          [
            37.53604240039416,
            55.69846178584661,
            283.0769230769231
          ],
          [
            37.535727853079614,
            55.698475928496826,
            283.0769230769231
          ],
          [
            37.535413305551856,
            55.69849007033995,
            283.0769230769231
          ],
          [
            37.53509875781088,
            55.69850421137598,
            283.0769230769231
          ],
          [
            37.53478420985671,
            55.69851835160492,
            283.0769230769231
          ],
          [
            37.534469661689364,
            55.69853249102678,
            283.0769230769231
          ],
          [
            37.534155113308856,
            55.69854662964154,
            283.0769230769231
          ],
          [
            37.5338405647152,
            55.69856076744921,
            283.0769230769231
          ],
          [
            37.533526015908414,
            55.69857490444978,
            283.0769230769231
          ],
          [
            37.53321146688851,
            55.69858904064327,
            283.0769230769231
          ],
          [
            37.532896917655506,
            55.69860317602963,
            283.0769230769231
          ],
          [
            37.532582368209425,
            55.69861731060892,
            283.0769230769231
          ],
          [
            37.53226781855027,
            55.69863144438111,
            283.0769230769231
          ],
          [
            37.531953268678066,
            55.698645577346184,
            283.0769230769231
          ],
          [
            37.53163871859282,
            55.698659709504156,
            283.0769230769231
          ],
          [
            37.53132416829456,
            55.69867384085502,
            283.0769230769231
          ],
          [
            37.53100961778329,
            55.6986879713988,
            283.0769230769231
          ],
          [
            37.53069506705903,
            55.698702101135474,
            283.0769230769231
          ],
          [
            37.530380516121795,
            55.69871623006503,
            283.0769230769231
          ],
          [
            37.53006596497161,
            55.69873035818747,
            283.0769230769231
          ],
          [
            37.52975141360847,
            55.6987444855028,
            283.0769230769231
          ],
          [
            37.52943686203242,
            55.698758612011034,
            283.0769230769231
          ],
          [
            37.529122310243444,
            55.69877273771215,
            283.0769230769231
          ],
          [
            37.52880775824158,
            55.69878686260616,
            283.0769230769231
          ],
          [
            37.52849320602682,
            55.69880098669306,
            283.0769230769231
          ],
          [
            37.52817865359921,
            55.698815109972834,
            283.0769230769231
          ],
          [
            37.52786410095875,
            55.69882923244548,
            283.0769230769231
          ],
          [
            37.52754954810546,
            55.69884335411104,
            283.0769230769231
          ],
          [
            37.52723499503935,
            55.69885747496946,
            283.0769230769231
          ],
          [
            37.526920441760446,
            55.69887159502076,
            283.0769230769231
          ],
          [
            37.52660588826874,
            55.69888571426494,
            283.0769230769231
          ],
          [
            37.52629133456428,
            55.698899832702004,
            283.0769230769231
          ],
          [
            37.52597678064705,
            55.698913950331935,
            283.0769230769231
          ],
          [
            37.52566222651709,
            55.698928067154746,
            283.0769230769231
          ],
          [
            37.525347672174405,
            55.69894218317042,
            283.0769230769231
          ],
          [
            37.52503311761902,
            55.698956298378995,
            283.0769230769231
          ],
          [
            37.52471856285093,
            55.69897041278042,
            283.0769230769231
          ],
          [
            37.524404007870174,
            55.69898452637472,
            283.0769230769231
          ],
          [
            37.52408945267675,
            55.69899863916188,
            283.0769230769231
          ],
          [
            37.52377489727069,
            55.69901275114192,
            283.0769230769231
          ],
          [
            37.523460341652,
            55.699026862314824,
            283.0769230769231
          ],
          [
            37.52314578582069,
            55.69904097268059,
            283.0769230769231
          ],
          [
            37.522831229776784,
            55.69905508223923,
            283.0769230769231
          ],
          [
            37.52251667352029,
            55.69906919099072,
            283.0769230769231
          ],
          [
            37.52220211705124,
            55.69908329893508,
            283.0769230769231
          ],
          [
            37.52188756036964,
            55.6990974060723,
            283.0769230769231
          ],
          [
            37.5215730034755,
            55.699111512402375,
            283.0769230769231
          ],
          [
            37.52125844636885,
            55.69912561792532,
            283.0769230769231
          ],
          [
            37.52094388904969,
            55.6991397226411,
            283.0769230769231
          ],
          [
            37.520629331518045,
            55.69915382654976,
            283.0769230769231
          ],
          [
            37.520314773773926,
            55.69916792965125,
            283.0769230769231
          ],
          [
            37.52000021581735,
            55.69918203194561,
            283.0769230769231
          ],
          [
            37.51968565764833,
            55.69919613343282,
            283.0769230769231
          ],
          [
            37.519371099266884,
            55.69921023411289,
            283.0769230769231
          ],
          [
            37.51905654067304,
            55.6992243339858,
            283.0769230769231
          ],
          [
            37.518741981866796,
            55.699238433051555,
            283.0769230769231
          ],
          [
            37.51842742284817,
            55.699252531310165,
            283.0769230769231
          ],
          [
            37.51811286361718,
            55.69926662876161,
            283.0769230769231
          ],
          [
            37.51779830417385,
            55.69928072540592,
            283.0769230769231
          ],
          [
            37.517483744518195,
            55.699294821243065,
            283.0769230769231
          ],
          [
            37.517169184650214,
            55.69930891627305,
            283.0769230769231
          ],
          [
            37.51685462456994,
            55.69932301049588,
            283.0769230769231
          ],
          [
            37.51654006427738,
            55.69933710391154,
            283.0769230769231
          ],
          [
            37.516225503772546,
            55.69935119652005,
            283.0769230769231
          ],
          [
            37.51591094305547,
            55.6993652883214,
            283.0769230769231
          ],
          [
            37.51559638212615,
            55.69937937931558,
            283.0769230769231
          ],
          [
            37.515281820984605,
            55.699393469502596,
            283.0769230769231
          ],
          [
            37.514967259630865,
            55.69940755888244,
            283.0769230769231
          ],
          [
            37.51465269806493,
            55.69942164745513,
            283.0769230769231
          ],
          [
            37.514338136286824,
            55.699435735220646,
            283.0769230769231
          ],
          [
            37.51402357429656,
            55.69944982217899,
            283.0769230769231
          ],
          [
            37.51370901209415,
            55.69946390833017,
            283.0769230769231
          ],
          [
            37.51339444967961,
            55.69947799367417,
            283.0769230769231
          ],
          [
            37.51307988705296,
            55.699492078211016,
            283.0769230769231
          ],
          [
            37.51276532421422,
            55.69950616194067,
            283.0769230769231
          ],
          [
            37.5124507611634,
            55.699520244863166,
            283.0769230769231
          ],
          [
            37.51213619790051,
            55.69953432697845,
            283.0769230769231
          ],
          [
            37.51182163442558,
            55.69954840828659,
            283.0769230769231
          ],
          [
            37.51150707073861,
            55.699562488787535,
            283.0769230769231
          ],
          [
            37.51119250683963,
            55.6995765684813,
            283.0769230769231
          ],
          [
            37.510877942728634,
            55.6995906473679,
            283.0769230769231
          ],
          [
            37.51056337840567,
            55.6996047254473,
            283.0769230769231
          ],
          [
            37.510248813870724,
            55.69961880271952,
            283.0769230769231
          ],
          [
            37.50993424912383,
            55.69963287918457,
            283.0769230769231
          ],
          [
            37.50961968416499,
            55.69964695484242,
            283.0769230769231
          ],
          [
            37.509305118994234,
            55.69966102969308,
            283.0769230769231
          ],
          [
            37.508990553611575,
            55.69967510373657,
            283.0769230769231
          ],
          [
            37.50867598801701,
            55.69968917697285,
            283.0769230769231
          ],
          [
            37.508361422210584,
            55.69970324940195,
            283.0769230769231
          ],
          [
            37.50804685619229,
            55.699717321023854,
            283.0769230769231
          ],
          [
            37.507732289962156,
            55.69973139183856,
            283.0769230769231
          ],
          [
            37.507732289962156,
            55.69973139183856,
            160.0
          ]
        ]
      },
      "properties": {
        "id": "U01_S1",
        "uav_id": "U01",
        "index": 1,
        "start_site": "WEST",
        "landing_site": "WEST",
        "t_start": "2026-06-15T08:30:00+03:00",
        "t_end": "2026-06-15T08:41:45.234111+03:00",
        "flight_time_s": 705.234111,
        "distance_m": 6734.809611262585
      }
    },
    {
      "type": "Feature",
      "geometry": {
        "type": "LineString",
        "coordinates": [
          [
            37.55226808383892,
            55.70026457151591,
            160.0
          ],
          [
            37.55226808383892,
            55.70026457151591,
            283.0769230769231
          ],
          [
            37.55195397653316,
            55.700245906956475,
            283.0769230769231
          ],
          [
            37.55163986954054,
            55.700227241595115,
            283.0769230769231
          ],
          [
            37.55132576286105,
            55.700208575431844,
            283.0769230769231
          ],
          [
            37.551011656494715,
            55.70018990846662,
            283.0769230769231
          ],
          [
            37.55069755044155,
            55.7001712406995,
            283.0769230769231
          ],
          [
            37.55038344470156,
            55.70015257213045,
            283.0769230769231
          ],
          [
            37.55006933927478,
            55.70013390275949,
            283.0769230769231
          ],
          [
            37.54975523416121,
            55.70011523258661,
            283.0769230769231
          ],
          [
            37.54944112936087,
            55.700096561611815,
            283.0769230769231
          ],
          [
            37.54912702487377,
            55.70007788983513,
            283.0769230769231
          ],
          [
            37.54881292069994,
            55.70005921725651,
            283.0769230769231
          ],
          [
            37.54849881683938,
            55.700040543876,
            283.0769230769231
          ],
          [
            37.548184713292116,
            55.70002186969356,
            283.0769230769231
          ],
          [
            37.547870610058155,
            55.70000319470923,
            283.0769230769231
          ],
          [
            37.547556507137514,
            55.69998451892299,
            283.0769230769231
          ],
          [
            37.54724240453021,
            55.69996584233487,
            283.0769230769231
          ],
          [
            37.54692830223626,
            55.699947164944824,
            283.0769230769231
          ],
          [
            37.54661420025568,
            55.69992848675291,
            283.0769230769231
          ],
          [
            37.54630009858848,
            55.69990980775907,
            283.0769230769231
          ],
          [
            37.54598599723468,
            55.699891127963355,
            283.0769230769231
          ],
          [
            37.54567189619429,
            55.699872447365735,
            283.0769230769231
          ],
          [
            37.54535779546733,
            55.69985376596623,
            283.0769230769231
          ],
          [
            37.54504369505383,
            55.69983508376483,
            283.0769230769231
          ],
          [
            37.544729594953765,
            55.699816400761556,
            283.0769230769231
          ],
          [
            37.544415495167186,
            55.699797716956404,
            283.0769230769231
          ],
          [
            37.5441013956941,
            55.69977903234935,
            283.0769230769231
          ],
          [
            37.54378729653452,
            55.69976034694043,
            283.0769230769231
          ],
          [
            37.543473197688456,
            55.699741660729615,
            283.0769230769231
          ],
          [
            37.543159099155936,
            55.69972297371693,
            283.0769230769231
          ],
          [
            37.54284500093696,
            55.69970428590236,
            283.0769230769231
          ],
          [
            37.54253090303155,
            55.699685597285914,
            283.0769230769231
          ],
          [
            37.54221680543973,
            55.69966690786761,
            283.0769230769231
          ],
          [
            37.5419027081615,
            55.69964821764743,
            283.0769230769231
          ],
          [
            37.54158861119688,
            55.69962952662538,
            283.0769230769231
          ],
          [
            37.5412745145459,
            55.699610834801454,
            283.0769230769231
          ],
          [
            37.540960418208556,
            55.699592142175675,
            283.0769230769231
          ],
          [
            37.54064632218488,
            55.69957344874801,
            283.0769230769231
          ],
          [
            37.54033222647487,
            55.699554754518495,
            283.0769230769231
          ],
          [
            37.54001813107854,
            55.69953605948714,
            283.0769230769231
          ],
          [
            37.539704035995925,
            55.699517363653904,
            283.0769230769231
          ],
          [
            37.53938994122703,
            55.6994986670188,
            283.0769230769231
          ],
          [
            37.53907584677187,
            55.69947996958187,
            283.0769230769231
          ],
          [
            37.538761752630464,
            55.69946127134306,
            283.0769230769231
          ],
          [
            37.53844765880282,
            55.69944257230241,
            283.0769230769231
          ],
          [
            37.53813356528896,
            55.6994238724599,
            283.0769230769231
          ],
          [
            37.5378194720889,
            55.699405171815556,
            283.0769230769231
          ],
          [
            37.53750537920264,
            55.69938647036937,
            283.0769230769231
          ],
          [
            37.53719128663022,
            55.69936776812131,
            283.0769230769231
          ],
          [
            37.536877194371634,
            55.69934906507145,
            283.0769230769231
          ],
          [
            37.53656310242691,
            55.69933036121971,
            283.0769230769231
          ],
          [
            37.536249010796055,
            55.69931165656614,
            283.0769230769231
          ],
          [
            37.535934919479104,
            55.69929295111074,
            283.0769230769231
          ],
          [
            37.53562082847604,
            55.6992742448535,
            283.0769230769231
          ],
          [
            37.535306737786904,
            55.699255537794436,
            283.0769230769231
          ],
          [
            37.5349926474117,
            55.69923682993353,
            283.0769230769231
          ],
          [
            37.53467855735044,
            55.69921812127079,
            283.0769230769231
          ],
          [
            37.534364467603154,
            55.699199411806205,
            283.0769230769231
          ],
          [
            37.534050378169844,
            55.699180701539824,
            283.0769230769231
          ],
          [
            37.53373628905053,
            55.699161990471595,
            283.0769230769231
          ],
          [
            37.53342220024523,
            55.699143278601554,
            283.0769230769231
          ],
          [
            37.533108111753954,
            55.6991245659297,
            283.0769230769231
          ],
          [
            37.53279402357672,
            55.69910585245601,
            283.0769230769231
          ],
          [
            37.532479935713546,
            55.699087138180495,
            283.0769230769231
          ],
          [
            37.532165848164446,
            55.69906842310318,
            283.0769230769231
          ],
          [
            37.53185176092942,
            55.699049707224034,
            283.0769230769231
          ],
          [
            37.53153767400851,
            55.69903099054307,
            283.0769230769231
          ],
          [
            37.53122358740172,
            55.699012273060326,
            283.0769230769231
          ],
          [
            37.53090950110906,
            55.698993554775754,
            283.0769230769231
          ],
          [
            37.53059541513054,
            55.69897483568937,
            283.0769230769231
          ],
          [
            37.5302813294662,
            55.69895611580118,
            283.0769230769231
          ],
          [
            37.52996724411603,
            55.69893739511119,
            283.0769230769231
          ],
          [
            37.529653159080056,
            55.69891867361939,
            283.0769230769231
          ],
          [
            37.5293390743583,
            55.6988999513258,
            283.0769230769231
          ],
          [
            37.529024989950756,
            55.698881228230405,
            283.0769230769231
          ],
          [
            37.528710905857466,
            55.698862504333206,
            283.0769230769231
          ],
          [
            37.52839682207843,
            55.69884377963421,
            283.0769230769231
          ],
          [
            37.528082738613655,
            55.698825054133444,
            283.0769230769231
          ],
          [
            37.52776865546318,
            55.69880632783086,
            283.0769230769231
          ],
          [
            37.527454572627,
            55.69878760072648,
            283.0769230769231
          ],
          [
            37.52714049010514,
            55.69876887282034,
            283.0769230769231
          ],
          [
            37.52682640789761,
            55.698750144112395,
            283.0769230769231
          ],
          [
            37.52651232600443,
            55.69873141460267,
            283.0769230769231
          ],
          [
            37.526198244425615,
            55.69871268429116,
            283.0769230769231
          ],
          [
            37.52588416316117,
            55.698693953177866,
            283.0769230769231
          ],
          [
            37.52557008221113,
            55.698675221262775,
            283.0769230769231
          ],
          [
            37.52525600157549,
            55.698656488545936,
            283.0769230769231
          ],
          [
            37.52494192125429,
            55.698637755027306,
            283.0769230769231
          ],
          [
            37.524627841247515,
            55.69861902070691,
            283.0769230769231
          ],
          [
            37.524313761555206,
            55.69860028558473,
            283.0769230769231
          ],
          [
            37.523999682177354,
            55.69858154966079,
            283.0769230769231
          ],
          [
            37.523685603114004,
            55.698562812935066,
            283.0769230769231
          ],
          [
            37.523371524365146,
            55.69854407540758,
            283.0769230769231
          ],
          [
            37.52305744593081,
            55.69852533707833,
            283.0769230769231
          ],
          [
            37.522743367810996,
            55.69850659794731,
            283.0769230769231
          ],
          [
            37.52242929000574,
            55.698487858014545,
            283.0769230769231
          ],
          [
            37.52211521251505,
            55.69846911727999,
            283.0769230769231
          ],
          [
            37.52180113533892,
            55.69845037574369,
            283.0769230769231
          ],
          [
            37.5214870584774,
            55.698431633405654,
            283.0769230769231
          ],
          [
            37.521172981930484,
            55.69841289026583,
            283.0769230769231
          ],
          [
            37.520858905698184,
            55.698394146324276,
            283.0769230769231
          ],
          [
            37.520544829780526,
            55.69837540158094,
            283.0769230769231
          ],
          [
            37.520230754177526,
            55.69835665603589,
            283.0769230769231
          ],
          [
            37.519916678889196,
            55.698337909689066,
            283.0769230769231
          ],
          [
            37.51960260391555,
            55.69831916254051,
            283.0769230769231
          ],
          [
            37.519288529256606,
            55.6983004145902,
            283.0769230769231
          ],
          [
            37.51897445491238,
            55.698281665838145,
            283.0769230769231
          ],
          [
            37.51866038088288,
            55.69826291628436,
            283.0769230769231
          ],
          [
            37.51834630716813,
            55.69824416592883,
            283.0769230769231
          ],
          [
            37.51803223376814,
            55.69822541477156,
            283.0769230769231
          ],
          [
            37.517718160682925,
            55.69820666281254,
            283.0769230769231
          ],
          [
            37.5174040879125,
            55.69818791005182,
            283.0769230769231
          ],
          [
            37.517090015456894,
            55.69816915648934,
            283.0769230769231
          ],
          [
            37.5167759433161,
            55.69815040212513,
            283.0769230769231
          ],
          [
            37.516461871490144,
            55.6981316469592,
            283.0769230769231
          ],
          [
            37.51614779997905,
            55.69811289099154,
            283.0769230769231
          ],
          [
            37.51645898041296,
            55.698116651248625,
            283.0769230769231
          ],
          [
            37.51677016092055,
            55.69812041071741,
            283.0769230769231
          ],
          [
            37.517081341501786,
            55.698124169397886,
            283.0769230769231
          ],
          [
            37.51739252215666,
            55.698127927290045,
            283.0769230769231
          ],
          [
            37.51770370288516,
            55.6981316843939,
            283.0769230769231
          ],
          [
            37.518014883687265,
            55.69813544070944,
            283.0769230769231
          ],
          [
            37.518326064562956,
            55.698139196236674,
            283.0769230769231
          ],
          [
            37.51863724551223,
            55.6981429509756,
            283.0769230769231
          ],
          [
            37.51894842653506,
            55.6981467049262,
            283.0769230769231
          ],
          [
            37.51925960763144,
            55.6981504580885,
            283.0769230769231
          ],
          [
            37.51957078880135,
            55.698154210462484,
            283.0769230769231
          ],
          [
            37.51988197004477,
            55.69815796204816,
            283.0769230769231
          ],
          [
            37.520193151361696,
            55.69816171284552,
            283.0769230769231
          ],
          [
            37.5205043327521,
            55.69816546285455,
            283.0769230769231
          ],
          [
            37.520815514215975,
            55.698169212075285,
            283.0769230769231
          ],
          [
            37.521126695753296,
            55.6981729605077,
            283.0769230769231
          ],
          [
            37.521437877364065,
            55.69817670815179,
            283.0769230769231
          ],
          [
            37.52174905904825,
            55.69818045500758,
            283.0769230769231
          ],
          [
            37.522060240805835,
            55.69818420107505,
            283.0769230769231
          ],
          [
            37.522371422636816,
            55.6981879463542,
            283.0769230769231
          ],
          [
            37.52268260454118,
            55.698191690845036,
            283.0769230769231
          ],
          [
            37.5229937865189,
            55.69819543454756,
            283.0769230769231
          ],
          [
            37.52330496856997,
            55.69819917746176,
            283.0769230769231
          ],
          [
            37.523298792787685,
            55.69836295914896,
            283.0769230769231
          ],
          [
            37.523292616941724,
            55.69852674083132,
            283.0769230769231
          ],
          [
            37.52328644103207,
            55.69869052250879,
            283.0769230769231
          ],
          [
            37.52297525508018,
            55.69868677952604,
            283.0769230769231
          ],
          [
            37.522664069201646,
            55.69868303575497,
            283.0769230769231
          ],
          [
            37.522352883396465,
            55.69867929119556,
            283.0769230769231
          ],
          [
            37.52204169766467,
            55.69867554584782,
            283.0769230769231
          ],
          [
            37.521730512006265,
            55.69867179971175,
            283.0769230769231
          ],
          [
            37.52141932642127,
            55.69866805278735,
            283.0769230769231
          ],
          [
            37.521108140909696,
            55.698664305074615,
            283.0769230769231
          ],
          [
            37.52079695547157,
            55.69866055657355,
            283.0769230769231
          ],
          [
            37.520485770106895,
            55.69865680728416,
            283.0769230769231
          ],
          [
            37.5201745848157,
            55.69865305720644,
            283.0769230769231
          ],
          [
            37.51986339959798,
            55.698649306340386,
            283.0769230769231
          ],
          [
            37.51955221445376,
            55.69864555468602,
            283.0769230769231
          ],
          [
            37.519241029383075,
            55.698641802243316,
            283.0769230769231
          ],
          [
            37.51892984438591,
            55.69863804901229,
            283.0769230769231
          ],
          [
            37.5186186594623,
            55.69863429499292,
            283.0769230769231
          ],
          [
            37.51830747461225,
            55.69863054018524,
            283.0769230769231
          ],
          [
            37.51799628983577,
            55.69862678458924,
            283.0769230769231
          ],
          [
            37.5176851051329,
            55.6986230282049,
            283.0769230769231
          ],
          [
            37.51737392050363,
            55.698619271032236,
            283.0769230769231
          ],
          [
            37.51706273594799,
            55.69861551307126,
            283.0769230769231
          ],
          [
            37.516751551465994,
            55.69861175432195,
            283.0769230769231
          ],
          [
            37.51644036705765,
            55.69860799478432,
            283.0769230769231
          ],
          [
            37.51612918272298,
            55.698604234458365,
            283.0769230769231
          ],
          [
            37.51612297684296,
            55.698768015604266,
            283.0769230769231
          ],
          [
            37.51611677089894,
            55.69893179674531,
            283.0769230769231
          ],
          [
            37.51611056489092,
            55.6990955778815,
            283.0769230769231
          ],
          [
            37.516421753126465,
            55.69909933827632,
            283.0769230769231
          ],
          [
            37.51673294143569,
            55.699103097882805,
            283.0769230769231
          ],
          [
            37.51704412981857,
            55.699106856700936,
            283.0769230769231
          ],
          [
            37.5173553182751,
            55.69911061473075,
            283.0769230769231
          ],
          [
            37.517666506805256,
            55.69911437197221,
            283.0769230769231
          ],
          [
            37.51797769540902,
            55.69911812842534,
            283.0769230769231
          ],
          [
            37.51828888408639,
            55.699121884090125,
            283.0769230769231
          ],
          [
            37.518600072837344,
            55.69912563896658,
            283.0769230769231
          ],
          [
            37.518911261661856,
            55.69912939305468,
            283.0769230769231
          ],
          [
            37.51922245055992,
            55.69913314635445,
            283.0769230769231
          ],
          [
            37.519533639531524,
            55.69913689886587,
            283.0769230769231
          ],
          [
            37.51984482857665,
            55.69914065058895,
            283.0769230769231
          ],
          [
            37.52015601769528,
            55.69914440152369,
            283.0769230769231
          ],
          [
            37.5204672068874,
            55.69914815167009,
            283.0769230769231
          ],
          [
            37.52077839615299,
            55.69915190102815,
            283.0769230769231
          ],
          [
            37.52108958549205,
            55.699155649597856,
            283.0769230769231
          ],
          [
            37.521400774904535,
            55.699159397379226,
            283.0769230769231
          ],
          [
            37.52171196439046,
            55.69916314437225,
            283.0769230769231
          ],
          [
            37.522023153949796,
            55.699166890576926,
            283.0769230769231
          ],
          [
            37.522334343582536,
            55.699170635993255,
            283.0769230769231
          ],
          [
            37.522645533288646,
            55.699174380621244,
            283.0769230769231
          ],
          [
            37.522956723068134,
            55.699178124460886,
            283.0769230769231
          ],
          [
            37.52326791292097,
            55.69918186751219,
            283.0769230769231
          ],
          [
            37.52326173675655,
            55.699345649170255,
            283.0769230769231
          ],
          [
            37.52325556052843,
            55.6995094308235,
            283.0769230769231
          ],
          [
            37.523249384236635,
            55.69967321247187,
            283.0769230769231
          ],
          [
            37.522938190482726,
            55.69966946935203,
            283.0769230769231
          ],
          [
            37.52262699680218,
            55.69966572544382,
            283.0769230769231
          ],
          [
            37.522315803195006,
            55.699661980747265,
            283.0769230769231
          ],
          [
            37.52200460966122,
            55.69965823526233,
            283.0769230769231
          ],
          [
            37.521693416200826,
            55.69965448898905,
            283.0769230769231
          ],
          [
            37.521382222813855,
            55.69965074192741,
            283.0769230769231
          ],
          [
            37.52107102950031,
            55.6996469940774,
            283.0769230769231
          ],
          [
            37.52075983626021,
            55.699643245439034,
            283.0769230769231
          ],
          [
            37.52044864309358,
            55.69963949601232,
            283.0769230769231
          ],
          [
            37.52013745000042,
            55.699635745797245,
            283.0769230769231
          ],
          [
            37.51982625698076,
            55.699631994793805,
            283.0769230769231
          ],
          [
            37.5195150640346,
            55.699628243002024,
            283.0769230769231
          ],
          [
            37.51920387116196,
            55.69962449042188,
            283.0769230769231
          ],
          [
            37.518892678362874,
            55.69962073705337,
            283.0769230769231
          ],
          [
            37.518581485637334,
            55.699616982896515,
            283.0769230769231
          ],
          [
            37.51827029298537,
            55.6996132279513,
            283.0769230769231
          ],
          [
            37.51795910040698,
            55.69960947221774,
            283.0769230769231
          ],
          [
            37.51764790790221,
            55.69960571569582,
            283.0769230769231
          ],
          [
            37.517336715471046,
            55.69960195838554,
            283.0769230769231
          ],
          [
            37.5170255231135,
            55.69959820028691,
            283.0769230769231
          ],
          [
            37.51671433082962,
            55.69959444139993,
            283.0769230769231
          ],
          [
            37.516403138619395,
            55.699590681724594,
            283.0769230769231
          ],
          [
            37.51609194648285,
            55.6995869212609,
            283.0769230769231
          ],
          [
            37.51608574021882,
            55.69975070237765,
            283.0769230769231
          ],
          [
            37.51607953389079,
            55.69991448348956,
            283.0769230769231
          ],
          [
            37.51607332749875,
            55.700078264596605,
            283.0769230769231
          ],
          [
            37.516384523536416,
            55.70008202512917,
            283.0769230769231
          ],
          [
            37.51669571964776,
            55.700085784873345,
            283.0769230769231
          ],
          [
            37.517006915832766,
            55.70008954382917,
            283.0769230769231
          ],
          [
            37.51731811209143,
            55.70009330199663,
            283.0769230769231
          ],
          [
            37.51762930842373,
            55.700097059375715,
            283.0769230769231
          ],
          [
            37.51794050482964,
            55.70010081596644,
            283.0769230769231
          ],
          [
            37.51825170130916,
            55.70010457176878,
            283.0769230769231
          ],
          [
            37.51856289786227,
            55.70010832678276,
            283.0769230769231
          ],
          [
            37.51887409448895,
            55.70011208100838,
            283.0769230769231
          ],
          [
            37.51918529118919,
            55.70011583444562,
            283.0769230769231
          ],
          [
            37.51949648796297,
            55.70011958709449,
            283.0769230769231
          ],
          [
            37.519807684810274,
            55.700123338954995,
            283.0769230769231
          ],
          [
            37.52011888173109,
            55.700127090027124,
            283.0769230769231
          ],
          [
            37.52043007872541,
            55.70013084031088,
            283.0769230769231
          ],
          [
            37.52074127579321,
            55.70013458980626,
            283.0769230769231
          ],
          [
            37.52105247293447,
            55.70013833851328,
            283.0769230769231
          ],
          [
            37.52136367014918,
            55.700142086431924,
            283.0769230769231
          ],
          [
            37.521674867437326,
            55.70014583356218,
            283.0769230769231
          ],
          [
            37.52198606479889,
            55.70014957990408,
            283.0769230769231
          ],
          [
            37.522297262233856,
            55.7001533254576,
            283.0769230769231
          ],
          [
            37.522608459742216,
            55.70015707022275,
            283.0769230769231
          ],
          [
            37.52291965732394,
            55.70016081419952,
            283.0769230769231
          ],
          [
            37.52323085497903,
            55.700164557387914,
            283.0769230769231
          ],
          [
            37.523224678432435,
            55.70032833901689,
            283.0769230769231
          ],
          [
            37.523218501822136,
            55.700492120641016,
            283.0769230769231
          ],
          [
            37.523212325148144,
            55.70065590226028,
            283.0769230769231
          ],
          [
            37.52290112359175,
            55.70065215900333,
            283.0769230769231
          ],
          [
            37.52258992210872,
            55.700648414958,
            283.0769230769231
          ],
          [
            37.52227872069906,
            55.70064467012426,
            283.0769230769231
          ],
          [
            37.521967519362796,
            55.700640924502146,
            283.0769230769231
          ],
          [
            37.521656318099936,
            55.70063717809164,
            283.0769230769231
          ],
          [
            37.521345116910496,
            55.70063343089275,
            283.0769230769231
          ],
          [
            37.521033915794504,
            55.700629682905465,
            283.0769230769231
          ],
          [
            37.520722714751955,
            55.700625934129796,
            283.0769230769231
          ],
          [
            37.520411513782875,
            55.70062218456575,
            283.0769230769231
          ],
          [
            37.52010031288728,
            55.70061843421331,
            283.0769230769231
          ],
          [
            37.51978911206518,
            55.70061468307247,
            283.0769230769231
          ],
          [
            37.519477911316606,
            55.70061093114327,
            283.0769230769231
          ],
          [
            37.51916671064155,
            55.70060717842567,
            283.0769230769231
          ],
          [
            37.51885551004005,
            55.700603424919684,
            283.0769230769231
          ],
          [
            37.5185443095121,
            55.70059967062532,
            283.0769230769231
          ],
          [
            37.51823310905774,
            55.70059591554257,
            283.0769230769231
          ],
          [
            37.51792190867696,
            55.70059215967144,
            283.0769230769231
          ],
          [
            37.51761070836979,
            55.70058840301192,
            283.0769230769231
          ],
          [
            37.51729950813625,
            55.70058464556402,
            283.0769230769231
          ],
          [
            37.516988307976334,
            55.70058088732774,
            283.0769230769231
          ],
          [
            37.51667710789008,
            55.70057712830308,
            283.0769230769231
          ],
          [
            37.51636590787749,
            55.700573368490026,
            283.0769230769231
          ],
          [
            37.51605470793859,
            55.7005696078886,
            283.0769230769231
          ],
          [
            37.51604850129052,
            55.700733388976225,
            283.0769230769231
          ],
          [
            37.51604229457845,
            55.700897170059,
            283.0769230769231
          ],
          [
            37.516036087802355,
            55.701060951136895,
            283.0769230769231
          ],
          [
            37.51634729164261,
            55.70106471180719,
            283.0769230769231
          ],
          [
            37.51665849555656,
            55.70106847168909,
            283.0769230769231
          ],
          [
            37.51696969954418,
            55.7010722307826,
            283.0769230769231
          ],
          [
            37.51728090360546,
            55.701075989087705,
            283.0769230769231
          ],
          [
            37.51759210774038,
            55.70107974660443,
            283.0769230769231
          ],
          [
            37.51790331194892,
            55.70108350333274,
            283.0769230769231
          ],
          [
            37.518214516231076,
            55.70108725927267,
            283.0769230769231
          ],
          [
            37.51852572058683,
            55.701091014424186,
            283.0769230769231
          ],
          [
            37.51883692501615,
            55.70109476878731,
            283.0769230769231
          ],
          [
            37.519148129519046,
            55.70109852236203,
            283.0769230769231
          ],
          [
            37.51945933409549,
            55.70110227514836,
            283.0769230769231
          ],
          [
            37.51977053874546,
            55.701106027146274,
            283.0769230769231
          ],
          [
            37.52008174346895,
            55.70110977835581,
            283.0769230769231
          ],
          [
            37.52039294826594,
            55.701113528776936,
            283.0769230769231
          ],
          [
            37.52070415313643,
            55.701117278409654,
            283.0769230769231
          ],
          [
            37.521015358080376,
            55.70112102725398,
            283.0769230769231
          ],
          [
            37.52132656309779,
            55.7011247753099,
            283.0769230769231
          ],
          [
            37.52163776818863,
            55.70112852257742,
            283.0769230769231
          ],
          [
            37.52194897335291,
            55.70113226905654,
            283.0769230769231
          ],
          [
            37.52226017859059,
            55.70113601474725,
            283.0769230769231
          ],
          [
            37.52257138390167,
            55.70113975964956,
            283.0769230769231
          ],
          [
            37.52288258928613,
            55.70114350376347,
            283.0769230769231
          ],
          [
            37.52319379474395,
            55.701147247088976,
            283.0769230769231
          ],
          [
            37.52318761781515,
            55.70131102868884,
            283.0769230769231
          ],
          [
            37.52318144082263,
            55.70147481028386,
            283.0769230769231
          ],
          [
            37.52317526376642,
            55.70163859187402,
            283.0769230769231
          ],
          [
            37.52286405440705,
            55.701634848479955,
            283.0769230769231
          ],
          [
            37.522552845121055,
            55.70163110429749,
            283.0769230769231
          ],
          [
            37.52224163590843,
            55.70162735932659,
            283.0769230769231
          ],
          [
            37.5219304267692,
            55.701623613567264,
            283.0769230769231
          ],
          [
            37.521619217703396,
            55.70161986701954,
            283.0769230769231
          ],
          [
            37.52130800871102,
            55.701616119683386,
            283.0769230769231
          ],
          [
            37.52099679979208,
            55.701612371558824,
            283.0769230769231
          ],
          [
            37.5206855909466,
            55.70160862264586,
            283.0769230769231
          ],
          [
            37.520374382174595,
            55.70160487294445,
            283.0769230769231
          ],
          [
            37.52006317347608,
            55.70160112245464,
            283.0769230769231
          ],
          [
            37.519751964851075,
            55.70159737117641,
            283.0769230769231
          ],
          [
            37.51944075629959,
            55.70159361910977,
            283.0769230769231
          ],
          [
            37.51912954782163,
            55.701589866254714,
            283.0769230769231
          ],
          [
            37.51881833941724,
            55.701586112611245,
            283.0769230769231
          ],
          [
            37.5185071310864,
            55.70158235817937,
            283.0769230769231
          ],
          [
            37.51819592282915,
            55.701578602959074,
            283.0769230769231
          ],
          [
            37.5178847146455,
            55.70157484695037,
            283.0769230769231
          ],
          [
            37.51757350653546,
            55.701571090153244,
            283.0769230769231
          ],
          [
            37.51726229849905,
            55.70156733256772,
            283.0769230769231
          ],
          [
            37.51695109053628,
            55.70156357419377,
            283.0769230769231
          ],
          [
            37.516639882647176,
            55.70155981503142,
            283.0769230769231
          ],
          [
            37.51632867483175,
            55.701556055080665,
            283.0769230769231
          ],
          [
            37.51601746709,
            55.70155229434149,
            283.0769230769231
          ],
          [
            37.51633269930173,
            55.701541142937124,
            283.0769230769231
          ],
          [
            37.51664793134813,
            55.701529990722456,
            283.0769230769231
          ],
          [
            37.5169631632292,
            55.70151883769748,
            283.0769230769231
          ],
          [
            37.51727839494491,
            55.70150768386221,
            283.0769230769231
          ],
          [
            37.517593626495255,
            55.70149652921664,
            283.0769230769231
          ],
          [
            37.517908857880215,
            55.70148537376076,
            283.0769230769231
          ],
          [
            37.51822408909978,
            55.70147421749459,
            283.0769230769231
          ],
          [
            37.51853932015393,
            55.7014630604181,
            283.0769230769231
          ],
          [
            37.518854551042644,
            55.70145190253133,
            283.0769230769231
          ],
          [
            37.5191697817659,
            55.70144074383425,
            283.0769230769231
          ],
          [
            37.51948501232371,
            55.701429584326874,
            283.0769230769231
          ],
          [
            37.51980024271603,
            55.70141842400919,
            283.0769230769231
          ],
          [
            37.52011547294287,
            55.70140726288122,
            283.0769230769231
          ],
          [
            37.52043070300419,
            55.701396100942965,
            283.0769230769231
          ],
          [
            37.52074593289998,
            55.701384938194415,
            283.0769230769231
          ],
          [
            37.521061162630225,
            55.701373774635556,
            283.0769230769231
          ],
          [
            37.52137639219491,
            55.70136261026641,
            283.0769230769231
          ],
          [
            37.52169162159404,
            55.701351445086985,
            283.0769230769231
          ],
          [
            37.52200685082756,
            55.70134027909726,
            283.0769230769231
          ],
          [
            37.522322079895474,
            55.70132911229724,
            283.0769230769231
          ],
          [
            37.52263730879777,
            55.70131794468695,
            283.0769230769231
          ],
          [
            37.52295253753443,
            55.70130677626636,
            283.0769230769231
          ],
          [
            37.523267766105434,
            55.70129560703547,
            283.0769230769231
          ],
          [
            37.52358299451077,
            55.70128443699432,
            283.0769230769231
          ],
          [
            37.52389822275042,
            55.70127326614287,
            283.0769230769231
          ],
          [
            37.52421345082436,
            55.701262094481145,
            283.0769230769231
          ],
          [
            37.524528678732594,
            55.701250922009145,
            283.0769230769231
          ],
          [
            37.52484390647509,
            55.701239748726856,
            283.0769230769231
          ],
          [
            37.52515913405183,
            55.701228574634264,
            283.0769230769231
          ],
          [
            37.52547436146281,
            55.701217399731426,
            283.0769230769231
          ],
          [
            37.525789588708015,
            55.701206224018286,
            283.0769230769231
          ],
          [
            37.52610481578742,
            55.70119504749488,
            283.0769230769231
          ],
          [
            37.526420042701005,
            55.70118387016119,
            283.0769230769231
          ],
          [
            37.526735269448764,
            55.701172692017224,
            283.0769230769231
          ],
          [
            37.527050496030675,
            55.70116151306299,
            283.0769230769231
          ],
          [
            37.52736572244673,
            55.701150333298486,
            283.0769230769231
          ],
          [
            37.52768094869691,
            55.70113915272369,
            283.0769230769231
          ],
          [
            37.527996174781194,
            55.70112797133863,
            283.0769230769231
          ],
          [
            37.52831140069957,
            55.70111678914332,
            283.0769230769231
          ],
          [
            37.528626626452024,
            55.7011056061377,
            283.0769230769231
          ],
          [
            37.528941852038535,
            55.70109442232184,
            283.0769230769231
          ],
          [
            37.52925707745909,
            55.701083237695705,
            283.0769230769231
          ],
          [
            37.52957230271368,
            55.701072052259306,
            283.0769230769231
          ],
          [
            37.52988752780227,
            55.701060866012625,
            283.0769230769231
          ],
          [
            37.53020275272486,
            55.70104967895568,
            283.0769230769231
          ],
          [
            37.53051797748144,
            55.70103849108849,
            283.0769230769231
          ],
          [
            37.53083320207198,
            55.70102730241102,
            283.0769230769231
          ],
          [
            37.531148426496465,
            55.701016112923284,
            283.0769230769231
          ],
          [
            37.53146365075488,
            55.701004922625295,
            283.0769230769231
          ],
          [
            37.53177887484721,
            55.700993731517045,
            283.0769230769231
          ],
          [
            37.532094098773456,
            55.700982539598535,
            283.0769230769231
          ],
          [
            37.532409322533574,
            55.700971346869764,
            283.0769230769231
          ],
          [
            37.53272454612756,
            55.70096015333074,
            283.0769230769231
          ],
          [
            37.5330397695554,
            55.70094895898145,
            283.0769230769231
          ],
          [
            37.53335499281708,
            55.70093776382191,
            283.0769230769231
          ],
          [
            37.533670215912586,
            55.700926567852115,
            283.0769230769231
          ],
          [
            37.533985438841896,
            55.70091537107205,
            283.0769230769231
          ],
          [
            37.53430066160499,
            55.700904173481746,
            283.0769230769231
          ],
          [
            37.534615884201855,
            55.70089297508119,
            283.0769230769231
          ],
          [
            37.534931106632484,
            55.70088177587037,
            283.0769230769231
          ],
          [
            37.53524632889686,
            55.700870575849315,
            283.0769230769231
          ],
          [
            37.535561550994956,
            55.700859375018005,
            283.0769230769231
          ],
          [
            37.53587677292676,
            55.70084817337645,
            283.0769230769231
          ],
          [
            37.53619199469226,
            55.70083697092465,
            283.0769230769231
          ],
          [
            37.53650721629144,
            55.70082576766259,
            283.0769230769231
          ],
          [
            37.53682243772428,
            55.700814563590285,
            283.0769230769231
          ],
          [
            37.53713765899076,
            55.700803358707745,
            283.0769230769231
          ],
          [
            37.53745288009088,
            55.700792153014966,
            283.0769230769231
          ],
          [
            37.53776810102461,
            55.70078094651193,
            283.0769230769231
          ],
          [
            37.538083321791945,
            55.70076973919865,
            283.0769230769231
          ],
          [
            37.53839854239286,
            55.70075853107514,
            283.0769230769231
          ],
          [
            37.538713762827335,
            55.70074732214138,
            283.0769230769231
          ],
          [
            37.53902898309537,
            55.70073611239737,
            283.0769230769231
          ],
          [
            37.53934420319694,
            55.70072490184315,
            283.0769230769231
          ],
          [
            37.53965942313202,
            55.70071369047867,
            283.0769230769231
          ],
          [
            37.53997464290062,
            55.70070247830397,
            283.0769230769231
          ],
          [
            37.540289862502696,
            55.70069126531903,
            283.0769230769231
          ],
          [
            37.540605081938246,
            55.700680051523854,
            283.0769230769231
          ],
          [
            37.54092030120725,
            55.700668836918425,
            283.0769230769231
          ],
          [
            37.5412355203097,
            55.700657621502785,
            283.0769230769231
          ],
          [
            37.541550739245565,
            55.70064640527692,
            283.0769230769231
          ],
          [
            37.541865958014846,
            55.700635188240796,
            283.0769230769231
          ],
          [
            37.54218117661751,
            55.700623970394474,
            283.0769230769231
          ],
          [
            37.542496395053554,
            55.70061275173789,
            283.0769230769231
          ],
          [
            37.54281161332296,
            55.70060153227111,
            283.0769230769231
          ],
          [
            37.54312683142572,
            55.7005903119941,
            283.0769230769231
          ],
          [
            37.54344204936179,
            55.700579090906835,
            283.0769230769231
          ],
          [
            37.54375726713119,
            55.70056786900936,
            283.0769230769231
          ],
          [
            37.544072484733874,
            55.70055664630168,
            283.0769230769231
          ],
          [
            37.54438770216985,
            55.70054542278375,
            283.0769230769231
          ],
          [
            37.54470291943908,
            55.70053419845561,
            283.0769230769231
          ],
          [
            37.545018136541565,
            55.70052297331725,
            283.0769230769231
          ],
          [
            37.54533335347728,
            55.700511747368665,
            283.0769230769231
          ],
          [
            37.545648570246215,
            55.70050052060984,
            283.0769230769231
          ],
          [
            37.545963786848354,
            55.70048929304084,
            283.0769230769231
          ],
          [
            37.54627900328367,
            55.70047806466159,
            283.0769230769231
          ],
          [
            37.54659421955217,
            55.70046683547213,
            283.0769230769231
          ],
          [
            37.54690943565381,
            55.70045560547246,
            283.0769230769231
          ],
          [
            37.54722465158859,
            55.70044437466257,
            283.0769230769231
          ],
          [
            37.5475398673565,
            55.70043314304247,
            283.0769230769231
          ],
          [
            37.54785508295751,
            55.70042191061215,
            283.0769230769231
          ],
          [
            37.54817029839162,
            55.70041067737162,
            283.0769230769231
          ],
          [
            37.54848551365879,
            55.70039944332088,
            283.0769230769231
          ],
          [
            37.548800728759026,
            55.700388208459934,
            283.0769230769231
          ],
          [
            37.5491159436923,
            55.70037697278878,
            283.0769230769231
          ],
          [
            37.54943115845861,
            55.70036573630742,
            283.0769230769231
          ],
          [
            37.54974637305792,
            55.700354499015845,
            283.0769230769231
          ],
          [
            37.55006158749023,
            55.70034326091407,
            283.0769230769231
          ],
          [
            37.55037680175552,
            55.70033202200208,
            283.0769230769231
          ],
          [
            37.55069201585377,
            55.70032078227989,
            283.0769230769231
          ],
          [
            37.551007229784965,
            55.7003095417475,
            283.0769230769231
          ],
          [
            37.5513224435491,
            55.70029830040491,
            283.0769230769231
          ],
          [
            37.55163765714614,
            55.70028705825211,
            283.0769230769231
          ],
          [
            37.55195287057609,
            55.70027581528912,
            283.0769230769231
          ],
          [
            37.55226808383892,
            55.70026457151591,
            283.0769230769231
          ],
          [
            37.55226808383892,
            55.70026457151591,
            160.0
          ]
        ]
      },
      "properties": {
        "id": "U02_S1",
        "uav_id": "U02",
        "index": 1,
        "start_site": "EAST",
        "landing_site": "EAST",
        "t_start": "2026-06-15T08:30:00+03:00",
        "t_end": "2026-06-15T08:45:32.988006+03:00",
        "flight_time_s": 932.988006,
        "distance_m": 8548.989314574692
      }
    }
  ]
}
