{
  "type": "FeatureCollection",
  "features": [
    {
      "type": "Feature",
      "geometry": {
        "type": "Polygon",
        "coordinates": [
          [
            [
              37.65187638562872,
              55.58445242826328
            ],
            [
              37.65002582787898,
              55.63835057127335
            ],
            [
              37.761200306928636,
              55.63952346730801
            ],
            [
              37.762898564683844,
              55.58562297318751
            ],
            [
              37.65187638562872,
              55.58445242826328
            ]
          ]
        ]
      },
      "properties": {
        "id": "ALLOWED"
      }
    }
  ]
}
