<?xml version='1.0' encoding='utf-8'?>
<kml xmlns="http://www.opengis.net/kml/2.2"><Document><Placemark><name>JOB_RGB</name><Polygon><outerBoundaryIs><LinearRing><coordinates>37.73867524156696,55.59885565299197,0 37.73780979367497,55.62580565663607,0 37.6743032934341,55.62513576629187,0 37.67521225561497,55.59818643439387,0 37.73867524156696,55.59885565299197,0</coordinates></LinearRing></outerBoundaryIs></Polygon></Placemark><Placemark><name>BASE</name><Point><coordinates>37.666822564921986,55.61157511240856</coordinates></Point></Placemark><Placemark><name>RESERVE</name><Point><coordinates>37.74776563884135,55.612428270554695</coordinates></Point></Placemark></Document></kml>