{
  "type": "FeatureCollection",
  "features": [
    {
      "type": "Feature",
      "geometry": {
        "type": "Polygon",
        "coordinates": [
          [
            [
              37.73867524156696,
              55.59885565299197
            ],
            [
              37.73780979367497,
              55.62580565663607
            ],
            [
              37.6743032934341,
              55.62513576629187
            ],
            [
              37.67521225561497,
              55.59818643439387
            ],
            [
              37.73867524156696,
              55.59885565299197
            ]
          ]
        ]
      },
      "properties": {
        "id": "JOB_RGB",
        "survey_type": "rgb",
        "payload_profile": "RGB"
      }
    }
  ]
}
