{
  "type": "FeatureCollection",
  "features": [
    {
      "type": "Feature",
      "geometry": {
        "type": "Polygon",
        "coordinates": [
          [
            [
              37.65187638562872,
              55.58445242826328
            ],
            [
              37.65002582787898,
              55.63835057127335
            ],
            [
              37.761200306928636,
              55.63952346730801
            ],
            [
              37.762898564683844,
              55.58562297318751
            ],
            [
              37.65187638562872,
              55.58445242826328
            ]
          ]
        ]
      },
      "properties": {
        "id": "MID_WINDOW_CLOSURE",
        "restriction_type": "prohibited",
        "min_alt_m": 0,
        "max_alt_m": 2000,
        "active_from": "2026-06-15T09:30:00+03:00",
        "active_to": "2026-06-15T10:30:00+03:00"
      }
    }
  ]
}
