{
  "type": "FeatureCollection",
  "features": [
    {
      "type": "Feature",
      "geometry": {
        "type": "LineString",
        "coordinates": [
          [
            37.52045664959698,
            55.69988537649114,
            160.0
          ],
          [
            37.52045664959698,
            55.69988537649114,
            283.0769230769231
          ],
          [
            37.52074803891703,
            55.699931454825176,
            283.0769230769231
          ],
          [
            37.52103942893403,
            55.69997753247122,
            283.0769230769231
          ],
          [
            37.52133081964797,
            55.700023609429294,
            283.0769230769231
          ],
          [
            37.52162221105885,
            55.70006968569936,
            283.0769230769231
          ],
          [
            37.52191360316665,
            55.70011576128144,
            283.0769230769231
          ],
          [
            37.522204995971364,
            55.7001618361755,
            283.0769230769231
          ],
          [
            37.522496389472984,
            55.700207910381565,
            283.0769230769231
          ],
          [
            37.5227877836715,
            55.700253983899614,
            283.0769230769231
          ],
          [
            37.523079178566896,
            55.70030005672965,
            283.0769230769231
          ],
          [
            37.523370574159166,
            55.70034612887167,
            283.0769230769231
          ],
          [
            37.52366197044831,
            55.70039220032567,
            283.0769230769231
          ],
          [
            37.52395336743431,
            55.70043827109165,
            283.0769230769231
          ],
          [
            37.52424476511715,
            55.7004843411696,
            283.0769230769231
          ],
          [
            37.52453616349684,
            55.70053041055953,
            283.0769230769231
          ],
          [
            37.52482756257334,
            55.700576479261414,
            283.0769230769231
          ],
          [
            37.525118962346674,
            55.700622547275266,
            283.0769230769231
          ],
          [
            37.52541036281681,
            55.70066861460107,
            283.0769230769231
          ],
          [
            37.52570176398374,
            55.70071468123883,
            283.0769230769231
          ],
          [
            37.52599316584746,
            55.700760747188546,
            283.0769230769231
          ],
          [
            37.526311284319235,
            55.70076456561584,
            283.0769230769231
          ],
          [
            37.526629402867485,
            55.70076838321932,
            283.0769230769231
          ],
          [
            37.5269475214922,
            55.70077219999897,
            283.0769230769231
          ],
          [
            37.527265640193356,
            55.7007760159548,
            283.0769230769231
          ],
          [
            37.527583758970955,
            55.7007798310868,
            283.0769230769231
          ],
          [
            37.52790187782496,
            55.700783645394964,
            283.0769230769231
          ],
          [
            37.52821999675537,
            55.70078745887931,
            283.0769230769231
          ],
          [
            37.52853811576215,
            55.70079127153983,
            283.0769230769231
          ],
          [
            37.528856234845314,
            55.70079508337652,
            283.0769230769231
          ],
          [
            37.52917435400481,
            55.70079889438938,
            283.0769230769231
          ],
          [
            37.52949247324065,
            55.70080270457841,
            283.0769230769231
          ],
          [
            37.5298105925528,
            55.700806513943604,
            283.0769230769231
          ],
          [
            37.530128711941245,
            55.70081032248498,
            283.0769230769231
          ],
          [
            37.53044683140598,
            55.700814130202524,
            283.0769230769231
          ],
          [
            37.53076495094698,
            55.70081793709623,
            283.0769230769231
          ],
          [
            37.531083070564236,
            55.70082174316611,
            283.0769230769231
          ],
          [
            37.53140119025772,
            55.70082554841216,
            283.0769230769231
          ],
          [
            37.53171931002742,
            55.70082935283438,
            283.0769230769231
          ],
          [
            37.53203742987332,
            55.700833156432765,
            283.0769230769231
          ],
          [
            37.532355549795405,
            55.700836959207315,
            283.0769230769231
          ],
          [
            37.53267366979366,
            55.700840761158034,
            283.0769230769231
          ],
          [
            37.53299178986806,
            55.70084456228492,
            283.0769230769231
          ],
          [
            37.53330991001861,
            55.70084836258797,
            283.0769230769231
          ],
          [
            37.53362803024526,
            55.70085216206719,
            283.0769230769231
          ],
          [
            37.533946150548026,
            55.70085596072257,
            283.0769230769231
          ],
          [
            37.53395220381972,
            55.70069427678205,
            283.0769230769231
          ],
          [
            37.533958257029795,
            55.700532592836815,
            283.0769230769231
          ],
          [
            37.533964310178234,
            55.70037090888684,
            283.0769230769231
          ],
          [
            37.53397036326505,
            55.70020922493215,
            283.0769230769231
          ],
          [
            37.533976416290244,
            55.70004754097275,
            283.0769230769231
          ],
          [
            37.533658302549135,
            55.70004374243183,
            283.0769230769231
          ],
          [
            37.533340188884125,
            55.700039943067104,
            283.0769230769231
          ],
          [
            37.53302207529523,
            55.70003614287855,
            283.0769230769231
          ],
          [
            37.53270396178247,
            55.70003234186621,
            283.0769230769231
          ],
          [
            37.53238584834584,
            55.700028540030054,
            283.0769230769231
          ],
          [
            37.53206773498538,
            55.700024737370086,
            283.0769230769231
          ],
          [
            37.5317496217011,
            55.70002093388631,
            283.0769230769231
          ],
          [
            37.53143150849302,
            55.70001712957873,
            283.0769230769231
          ],
          [
            37.531113395361146,
            55.70001332444734,
            283.0769230769231
          ],
          [
            37.5307952823055,
            55.700009518492145,
            283.0769230769231
          ],
          [
            37.530477169326105,
            55.70000571171314,
            283.0769230769231
          ],
          [
            37.53015905642296,
            55.70000190411033,
            283.0769230769231
          ],
          [
            37.529840943596106,
            55.69999809568372,
            283.0769230769231
          ],
          [
            37.52952283084554,
            55.6999942864333,
            283.0769230769231
          ],
          [
            37.529204718171286,
            55.699990476359076,
            283.0769230769231
          ],
          [
            37.528886605573355,
            55.69998666546105,
            283.0769230769231
          ],
          [
            37.528568493051765,
            55.699982853739215,
            283.0769230769231
          ],
          [
            37.52825038060655,
            55.699979041193586,
            283.0769230769231
          ],
          [
            37.5279322682377,
            55.69997522782415,
            283.0769230769231
          ],
          [
            37.527614155945244,
            55.69997141363091,
            283.0769230769231
          ],
          [
            37.5272960437292,
            55.69996759861386,
            283.0769230769231
          ],
          [
            37.52697793158957,
            55.699963782773025,
            283.0769230769231
          ],
          [
            37.5266598195264,
            55.69995996610837,
            283.0769230769231
          ],
          [
            37.52634170753968,
            55.699956148619926,
            283.0769230769231
          ],
          [
            37.52602359562944,
            55.69995233030768,
            283.0769230769231
          ],
          [
            37.526029681399955,
            55.69979064691732,
            283.0769230769231
          ],
          [
            37.52603576710852,
            55.69962896352226,
            283.0769230769231
          ],
          [
            37.526041852755114,
            55.69946728012244,
            283.0769230769231
          ],
          [
            37.52604793833976,
            55.69930559671792,
            283.0769230769231
          ],
          [
            37.52605402386245,
            55.69914391330866,
            283.0769230769231
          ],
          [
            37.5263721292115,
            55.69914773150585,
            283.0769230769231
          ],
          [
            37.52669023463702,
            55.69915154887927,
            283.0769230769231
          ],
          [
            37.527008340139,
            55.69915536542892,
            283.0769230769231
          ],
          [
            37.52732644571741,
            55.69915918115478,
            283.0769230769231
          ],
          [
            37.52764455137224,
            55.69916299605688,
            283.0769230769231
          ],
          [
            37.52796265710348,
            55.69916681013519,
            283.0769230769231
          ],
          [
            37.528280762911095,
            55.699170623389726,
            283.0769230769231
          ],
          [
            37.52859886879509,
            55.69917443582049,
            283.0769230769231
          ],
          [
            37.52891697475544,
            55.699178247427454,
            283.0769230769231
          ],
          [
            37.52923508079213,
            55.69918205821067,
            283.0769230769231
          ],
          [
            37.52955318690514,
            55.699185868170076,
            283.0769230769231
          ],
          [
            37.52987129309445,
            55.699189677305725,
            283.0769230769231
          ],
          [
            37.53018939936006,
            55.69919348561759,
            283.0769230769231
          ],
          [
            37.530507505701934,
            55.69919729310566,
            283.0769230769231
          ],
          [
            37.53082561212007,
            55.699201099769965,
            283.0769230769231
          ],
          [
            37.53114371861444,
            55.699204905610486,
            283.0769230769231
          ],
          [
            37.53146182518503,
            55.69920871062722,
            283.0769230769231
          ],
          [
            37.531779931831835,
            55.69921251482016,
            283.0769230769231
          ],
          [
            37.53209803855482,
            55.699216318189336,
            283.0769230769231
          ],
          [
            37.532416145353984,
            55.69922012073473,
            283.0769230769231
          ],
          [
            37.53273425222931,
            55.69922392245633,
            283.0769230769231
          ],
          [
            37.53305235918077,
            55.699227723354156,
            283.0769230769231
          ],
          [
            37.53337046620835,
            55.69923152342819,
            283.0769230769231
          ],
          [
            37.53368857331205,
            55.69923532267844,
            283.0769230769231
          ],
          [
            37.534006680491835,
            55.699239121104895,
            283.0769230769231
          ],
          [
            37.53401273314729,
            55.699077437117154,
            283.0769230769231
          ],
          [
            37.534018785741125,
            55.6989157531247,
            283.0769230769231
          ],
          [
            37.53402483827334,
            55.698754069127524,
            283.0769230769231
          ],
          [
            37.53403089074394,
            55.69859238512562,
            283.0769230769231
          ],
          [
            37.53403694315293,
            55.69843070111898,
            283.0769230769231
          ],
          [
            37.53371884253413,
            55.69842690280697,
            283.0769230769231
          ],
          [
            37.533400741991414,
            55.69842310367119,
            283.0769230769231
          ],
          [
            37.5330826415248,
            55.69841930371166,
            283.0769230769231
          ],
          [
            37.532764541134306,
            55.69841550292837,
            283.0769230769231
          ],
          [
            37.53244644081995,
            55.698411701321305,
            283.0769230769231
          ],
          [
            37.53212834058175,
            55.6984078988905,
            283.0769230769231
          ],
          [
            37.531810240419716,
            55.69840409563593,
            283.0769230769231
          ],
          [
            37.53149214033386,
            55.6984002915576,
            283.0769230769231
          ],
          [
            37.53117404032421,
            55.698396486655525,
            283.0769230769231
          ],
          [
            37.53085594039078,
            55.69839268092968,
            283.0769230769231
          ],
          [
            37.53053784053358,
            55.698388874380065,
            283.0769230769231
          ],
          [
            37.530219740752635,
            55.69838506700672,
            283.0769230769231
          ],
          [
            37.52990164104796,
            55.698381258809604,
            283.0769230769231
          ],
          [
            37.529583541419555,
            55.698377449788744,
            283.0769230769231
          ],
          [
            37.52926544186746,
            55.69837363994411,
            283.0769230769231
          ],
          [
            37.528947342391675,
            55.69836982927574,
            283.0769230769231
          ],
          [
            37.52862924299223,
            55.69836601778361,
            283.0769230769231
          ],
          [
            37.52831114366913,
            55.69836220546772,
            283.0769230769231
          ],
          [
            37.5279930444224,
            55.698358392328075,
            283.0769230769231
          ],
          [
            37.52767494525205,
            55.6983545783647,
            283.0769230769231
          ],
          [
            37.5273568461581,
            55.698350763577544,
            283.0769230769231
          ],
          [
            37.527038747140566,
            55.698346947966655,
            283.0769230769231
          ],
          [
            37.526720648199465,
            55.69834313153201,
            283.0769230769231
          ],
          [
            37.526402549334804,
            55.6983393142736,
            283.0769230769231
          ],
          [
            37.52608445054661,
            55.698335496191454,
            283.0769230769231
          ],
          [
            37.52607768919509,
            55.69851514444993,
            283.0769230769231
          ],
          [
            37.52607092776708,
            55.69869479270258,
            283.0769230769231
          ],
          [
            37.52606416626259,
            55.69887444094939,
            283.0769230769231
          ],
          [
            37.52605740468162,
            55.69905408919035,
            283.0769230769231
          ],
          [
            37.52605064302416,
            55.699233737425494,
            283.0769230769231
          ],
          [
            37.526043881290214,
            55.69941338565479,
            283.0769230769231
          ],
          [
            37.52603711947978,
            55.699593033878266,
            283.0769230769231
          ],
          [
            37.52603035759286,
            55.69977268209589,
            283.0769230769231
          ],
          [
            37.52602359562944,
            55.69995233030768,
            283.0769230769231
          ],
          [
            37.52601683358953,
            55.700131978513646,
            283.0769230769231
          ],
          [
            37.52601007147313,
            55.70031162671376,
            283.0769230769231
          ],
          [
            37.526003309280235,
            55.70049127490806,
            283.0769230769231
          ],
          [
            37.52599654701085,
            55.7006709230965,
            283.0769230769231
          ],
          [
            37.52598978466496,
            55.70085057127911,
            283.0769230769231
          ],
          [
            37.52598302224257,
            55.701030219455895,
            283.0769230769231
          ],
          [
            37.525976259743686,
            55.70120986762684,
            283.0769230769231
          ],
          [
            37.525969497168305,
            55.701389515791945,
            283.0769230769231
          ],
          [
            37.52596273451642,
            55.70156916395123,
            283.0769230769231
          ],
          [
            37.52628085955005,
            55.70157298249359,
            283.0769230769231
          ],
          [
            37.52659898466017,
            55.7015768002121,
            283.0769230769231
          ],
          [
            37.52691710984675,
            55.70158061710677,
            283.0769230769231
          ],
          [
            37.52723523510979,
            55.70158443317757,
            283.0769230769231
          ],
          [
            37.52755336044927,
            55.701588248424535,
            283.0769230769231
          ],
          [
            37.527871485865155,
            55.70159206284765,
            283.0769230769231
          ],
          [
            37.528189611357455,
            55.701595876446895,
            283.0769230769231
          ],
          [
            37.528507736926144,
            55.701599689222306,
            283.0769230769231
          ],
          [
            37.528825862571196,
            55.70160350117386,
            283.0769230769231
          ],
          [
            37.52914398829261,
            55.70160731230155,
            283.0769230769231
          ],
          [
            37.529462114090364,
            55.70161112260541,
            283.0769230769231
          ],
          [
            37.52978023996443,
            55.70161493208539,
            283.0769230769231
          ],
          [
            37.53009836591481,
            55.701618740741516,
            283.0769230769231
          ],
          [
            37.530416491941466,
            55.70162254857381,
            283.0769230769231
          ],
          [
            37.5307346180444,
            55.70162635558222,
            283.0769230769231
          ],
          [
            37.531052744223594,
            55.701630161766786,
            283.0769230769231
          ],
          [
            37.53137087047902,
            55.701633967127506,
            283.0769230769231
          ],
          [
            37.53168899681067,
            55.70163777166436,
            283.0769230769231
          ],
          [
            37.532007123218534,
            55.70164157537736,
            283.0769230769231
          ],
          [
            37.53232524970257,
            55.7016453782665,
            283.0769230769231
          ],
          [
            37.5326433762628,
            55.701649180331785,
            283.0769230769231
          ],
          [
            37.53296150289918,
            55.701652981573204,
            283.0769230769231
          ],
          [
            37.53327962961169,
            55.70165678199077,
            283.0769230769231
          ],
          [
            37.53359775640033,
            55.70166058158448,
            283.0769230769231
          ],
          [
            37.53391588326508,
            55.70166438035432,
            283.0769230769231
          ],
          [
            37.533609977740234,
            55.70162396476224,
            283.0769230769231
          ],
          [
            37.53330407285942,
            55.701583548411335,
            283.0769230769231
          ],
          [
            37.53299816862267,
            55.7015431313016,
            283.0769230769231
          ],
          [
            37.532692265029986,
            55.701502713433015,
            283.0769230769231
          ],
          [
            37.532386362081375,
            55.70146229480562,
            283.0769230769231
          ],
          [
            37.532080459776864,
            55.7014218754194,
            283.0769230769231
          ],
          [
            37.53177455811645,
            55.701381455274365,
            283.0769230769231
          ],
          [
            37.53146865710015,
            55.701341034370515,
            283.0769230769231
          ],
          [
            37.53116275672798,
            55.70130061270786,
            283.0769230769231
          ],
          [
            37.53085685699995,
            55.70126019028639,
            283.0769230769231
          ],
          [
            37.53055095791607,
            55.70121976710612,
            283.0769230769231
          ],
          [
            37.53024505947636,
            55.701179343167034,
            283.0769230769231
          ],
          [
            37.529939161680815,
            55.70113891846918,
            283.0769230769231
          ],
          [
            37.52963326452946,
            55.701098493012516,
            283.0769230769231
          ],
          [
            37.52932736802231,
            55.70105806679707,
            283.0769230769231
          ],
          [
            37.52902147215938,
            55.70101763982282,
            283.0769230769231
          ],
          [
            37.52871557694066,
            55.700977212089796,
            283.0769230769231
          ],
          [
            37.52840968236619,
            55.700936783598,
            283.0769230769231
          ],
          [
            37.52810378843596,
            55.70089635434743,
            283.0769230769231
          ],
          [
            37.52779789515,
            55.70085592433806,
            283.0769230769231
          ],
          [
            37.5274920025083,
            55.70081549356995,
            283.0769230769231
          ],
          [
            37.527186110510904,
            55.70077506204307,
            283.0769230769231
          ],
          [
            37.526880219157796,
            55.70073462975743,
            283.0769230769231
          ],
          [
            37.526574328449,
            55.70069419671302,
            283.0769230769231
          ],
          [
            37.52626843838453,
            55.70065376290987,
            283.0769230769231
          ],
          [
            37.52596254896439,
            55.70061332834796,
            283.0769230769231
          ],
          [
            37.525656660188595,
            55.7005728930273,
            283.0769230769231
          ],
          [
            37.52535077205716,
            55.7005324569479,
            283.0769230769231
          ],
          [
            37.52504488457009,
            55.70049202010974,
            283.0769230769231
          ],
          [
            37.52473899772742,
            55.700451582512876,
            283.0769230769231
          ],
          [
            37.52443311152913,
            55.700411144157265,
            283.0769230769231
          ],
          [
            37.524127225975256,
            55.700370705042914,
            283.0769230769231
          ],
          [
            37.523821341065805,
            55.70033026516985,
            283.0769230769231
          ],
          [
            37.52351545680078,
            55.70028982453806,
            283.0769230769231
          ],
          [
            37.5232095731802,
            55.70024938314756,
            283.0769230769231
          ],
          [
            37.522903690204075,
            55.700208940998316,
            283.0769230769231
          ],
          [
            37.522597807872415,
            55.70016849809038,
            283.0769230769231
          ],
          [
            37.52229192618525,
            55.700128054423736,
            283.0769230769231
          ],
          [
            37.52198604514256,
            55.70008760999837,
            283.0769230769231
          ],
          [
            37.52168016474439,
            55.70004716481431,
            283.0769230769231
          ],
          [
            37.52137428499073,
            55.700006718871556,
            283.0769230769231
          ],
          [
            37.5210684058816,
            55.69996627217011,
            283.0769230769231
          ],
          [
            37.52076252741701,
            55.69992582470998,
            283.0769230769231
          ],
          [
            37.52045664959698,
            55.69988537649114,
            283.0769230769231
          ],
          [
            37.52045664959698,
            55.69988537649114,
            160.0
          ]
        ]
      },
      "properties": {
        "id": "U01_S1",
        "uav_id": "U01",
        "index": 1,
        "start_site": "NEAR",
        "landing_site": "NEAR",
        "t_start": "2026-06-15T08:30:00+03:00",
        "t_end": "2026-06-15T08:38:21.353050+03:00",
        "flight_time_s": 501.35305,
        "distance_m": 4360.236034401278
      }
    }
  ]
}
