{
  "type": "FeatureCollection",
  "features": [
    {
      "type": "Feature",
      "geometry": {
        "type": "Polygon",
        "coordinates": [
          [
            [
              37.58270841901803,
              55.732338418659
            ],
            [
              37.581731104489386,
              55.75928611507591
            ],
            [
              37.581829557645136,
              55.76122503754384
            ],
            [
              37.582264618859774,
              55.7631491809421
            ],
            [
              37.58303214684504,
              55.76504001145781
            ],
            [
              37.58412479519189,
              55.76687931349865
            ],
            [
              37.58553208137697,
              55.76864936534336
            ],
            [
              37.58724048616394,
              55.77033311012761
            ],
            [
              37.58923358250238,
              55.77191432050639
            ],
            [
              37.59149219273295,
              55.77337775539187
            ],
            [
              37.59399457262368,
              55.77470930723965
            ],
            [
              37.596716620490334,
              55.77589613844565
            ],
            [
              37.5996321093984,
              55.776926805519174
            ],
            [
              37.602712940207205,
              55.77779136981571
            ],
            [
              37.60592941300149,
              55.7784814937428
            ],
            [
              37.60925051426489,
              55.77899052149337
            ],
            [
              37.61264421698554,
              55.779313543512075
            ],
            [
              37.61607779074856,
              55.779447444059855
            ],
            [
              37.67983353928996,
              55.78014867791357
            ],
            [
              37.68327386388477,
              55.780090380805156
            ],
            [
              37.68668744951513,
              55.77984222753573
            ],
            [
              37.69004137287526,
              55.779406611280706
            ],
            [
              37.693303288577944,
              55.77878773318707
            ],
            [
              37.696441742401234,
              55.77799156168566
            ],
            [
              37.69942647575645,
              55.77702577469237
            ],
            [
              37.70222871838598,
              55.7758996852669
            ],
            [
              37.70482146642213,
              55.77462415146065
            ],
            [
              37.70717974309128,
              55.77321147123973
            ],
            [
              37.70928083952816,
              55.77167526351476
            ],
            [
              37.7111045333706,
              55.77003033644342
            ],
            [
              37.71263328303388,
              55.76829254429548
            ],
            [
              37.713852395812445,
              55.76647863427843
            ],
            [
              37.71475016822226,
              55.76460608481785
            ],
            [
              37.71531799727726,
              55.762692936866856
            ],
            [
              37.71555046168347,
              55.760757619882746
            ],
            [
              37.71643562762171,
              55.733808445209085
            ],
            [
              37.71633054630959,
              55.73186959203403
            ],
            [
              37.715889205512376,
              55.7299458852648
            ],
            [
              37.71511590400315,
              55.72805584791693
            ],
            [
              37.714018134176435,
              55.72621767616158
            ],
            [
              37.71260650816247,
              55.72444906431466
            ],
            [
              37.71089465409236,
              55.72276703474981
            ],
            [
              37.708899083571914,
              55.7211877743607
            ],
            [
              37.70663903168929,
              55.71972647913246
            ],
            [
              37.704136271134296,
              55.71839720830128
            ],
            [
              37.7014149022439,
              55.71721274948748
            ],
            [
              37.69850112100579,
              55.716184496080395
            ],
            [
              37.695422967250316,
              55.71532233803539
            ],
            [
              37.692210055437286,
              55.71463456711475
            ],
            [
              37.68889329059869,
              55.71412779746644
            ],
            [
              37.68550457212896,
              55.71380690228901
            ],
            [
              37.68207648822087,
              55.713674967178655
            ],
            [
              37.61842897790449,
              55.71297546969358
            ],
            [
              37.61499449025371,
              55.71303198307019
            ],
            [
              37.611586319409874,
              55.71327817632071
            ],
            [
              37.60823723952193,
              55.71371168173826
            ],
            [
              37.60497945894828,
              55.714328330287174
            ],
            [
              37.60184431180329,
              55.71512219152862
            ],
            [
              37.59886195773113,
              55.71608563041873
            ],
            [
              37.59606109273953,
              55.71720938044436
            ],
            [
              37.593468673828774,
              55.71848263240717
            ],
            [
              37.59110966003008,
              55.71989313801857
            ],
            [
              37.58900677232221,
              55.72142732732702
            ],
            [
              37.5871802747273,
              55.72307043886712
            ],
            [
              37.58564777869724,
              55.7248066612977
            ],
            [
              37.58442407269183,
              55.72661928518499
            ],
            [
              37.58352097862088,
              55.72849086348766
            ],
            [
              37.58294723657629,
              55.7304033792152
            ],
            [
              37.58270841901803,
              55.732338418659
            ]
          ]
        ]
      },
      "properties": {
        "id": "ALLOWED",
        "layer": "allowed_airspace"
      }
    }
  ]
}