<?xml version="1.0" encoding="UTF-8"?>
<kml xmlns="http://www.opengis.net/kml/2.2"><Document>
<Style id="survey"><PolyStyle><color>5522aa22</color></PolyStyle></Style>
<Style id="nfz"><PolyStyle><color>55aa2222</color></PolyStyle></Style>
<Style id="allowed"><PolyStyle><color>222222aa</color></PolyStyle></Style>
<Placemark><name>RGB_CROSS</name><styleUrl>#survey</styleUrl><Polygon><outerBoundaryIs><LinearRing><coordinates>37.61773100,55.73273749,0 37.68141065,55.73343750,0 37.68050134,55.76038631,0 37.61677782,55.75968559,0 37.61773100,55.73273749,0</coordinates></LinearRing></outerBoundaryIs></Polygon></Placemark>
<Placemark><name>ALLOWED_AIRSPACE</name><styleUrl>#allowed</styleUrl><Polygon><outerBoundaryIs><LinearRing><coordinates>37.58270842,55.73233842,0 37.58173110,55.75928612,0 37.58182956,55.76122504,0 37.58226462,55.76314918,0 37.58303215,55.76504001,0 37.58412480,55.76687931,0 37.58553208,55.76864937,0 37.58724049,55.77033311,0 37.58923358,55.77191432,0 37.59149219,55.77337776,0 37.59399457,55.77470931,0 37.59671662,55.77589614,0 37.59963211,55.77692681,0 37.60271294,55.77779137,0 37.60592941,55.77848149,0 37.60925051,55.77899052,0 37.61264422,55.77931354,0 37.61607779,55.77944744,0 37.67983354,55.78014868,0 37.68327386,55.78009038,0 37.68668745,55.77984223,0 37.69004137,55.77940661,0 37.69330329,55.77878773,0 37.69644174,55.77799156,0 37.69942648,55.77702577,0 37.70222872,55.77589969,0 37.70482147,55.77462415,0 37.70717974,55.77321147,0 37.70928084,55.77167526,0 37.71110453,55.77003034,0 37.71263328,55.76829254,0 37.71385240,55.76647863,0 37.71475017,55.76460608,0 37.71531800,55.76269294,0 37.71555046,55.76075762,0 37.71643563,55.73380845,0 37.71633055,55.73186959,0 37.71588921,55.72994589,0 37.71511590,55.72805585,0 37.71401813,55.72621768,0 37.71260651,55.72444906,0 37.71089465,55.72276703,0 37.70889908,55.72118777,0 37.70663903,55.71972648,0 37.70413627,55.71839721,0 37.70141490,55.71721275,0 37.69850112,55.71618450,0 37.69542297,55.71532234,0 37.69221006,55.71463457,0 37.68889329,55.71412780,0 37.68550457,55.71380690,0 37.68207649,55.71367497,0 37.61842898,55.71297547,0 37.61499449,55.71303198,0 37.61158632,55.71327818,0 37.60823724,55.71371168,0 37.60497946,55.71432833,0 37.60184431,55.71512219,0 37.59886196,55.71608563,0 37.59606109,55.71720938,0 37.59346867,55.71848263,0 37.59110966,55.71989314,0 37.58900677,55.72142733,0 37.58718027,55.72307044,0 37.58564778,55.72480666,0 37.58442407,55.72661929,0 37.58352098,55.72849086,0 37.58294724,55.73040338,0 37.58270842,55.73233842,0</coordinates></LinearRing></outerBoundaryIs></Polygon></Placemark>
<Placemark><name>BASE_W</name><description>both</description><Point><coordinates>37.58540490,55.74584899,0</coordinates></Point></Placemark>
<Placemark><name>BASE_E</name><description>both</description><Point><coordinates>37.71280801,55.74724972,0</coordinates></Point></Placemark>
<Placemark><name>RES</name><description>reserve</description><Point><coordinates>37.64820411,55.77261598,0</coordinates></Point></Placemark>
</Document></kml>