{
  "type": "FeatureCollection",
  "features": [
    {
      "type": "Feature",
      "geometry": {
        "type": "Polygon",
        "coordinates": [
          [
            [
              37.617731004992066,
              55.73273749050382
            ],
            [
              37.68141064692634,
              55.73343750359167
            ],
            [
              37.68050134406692,
              55.76038630523643
            ],
            [
              37.61677782180781,
              55.75968558821584
            ],
            [
              37.617731004992066,
              55.73273749050382
            ]
          ]
        ]
      },
      "properties": {
        "id": "RGB_CROSS",
        "survey_type": "rgb",
        "payload_profile": "RGB_STD"
      }
    }
  ]
}