{
  "type": "FeatureCollection",
  "features": [
    {
      "type": "Feature",
      "geometry": {
        "type": "Polygon",
        "coordinates": [
          [
            [
              37.48781846238484,
              55.67971736630536
            ],
            [
              37.48629152821429,
              55.719239274047496
            ],
            [
              37.57222531025579,
              55.720268306652784
            ],
            [
              37.57366563365135,
              55.68074488413638
            ],
            [
              37.48781846238484,
              55.67971736630536
            ]
          ]
        ]
      },
      "properties": {
        "id": "ALLOWED"
      }
    }
  ]
}
