<?xml version='1.0' encoding='utf-8'?>
<kml xmlns="http://www.opengis.net/kml/2.2"><Document><Placemark><name>JOB_RGB</name><Polygon><outerBoundaryIs><LinearRing><coordinates>37.549319830295396,55.693939267480154,0 37.548853890131795,55.706514770856145,0 37.510674226888874,55.70605765257064,0 37.5111524150422,55.69348236340523,0 37.549319830295396,55.693939267480154,0</coordinates></LinearRing></outerBoundaryIs></Polygon></Placemark><Placemark><name>BASE</name><Point><coordinates>37.502960686986135,55.699673307785076</coordinates></Point></Placemark><Placemark><name>RESERVE</name><Point><coordinates>37.55863046137362,55.70033942193259</coordinates></Point></Placemark></Document></kml>