{
  "type": "FeatureCollection",
  "features": [
    {
      "type": "Feature",
      "geometry": {
        "type": "Polygon",
        "coordinates": [
          [
            [
              37.549319830295396,
              55.693939267480154
            ],
            [
              37.548853890131795,
              55.706514770856145
            ],
            [
              37.510674226888874,
              55.70605765257064
            ],
            [
              37.5111524150422,
              55.69348236340523
            ],
            [
              37.549319830295396,
              55.693939267480154
            ]
          ]
        ]
      },
      "properties": {
        "id": "JOB_RGB",
        "survey_type": "rgb",
        "payload_profile": "RGB"
      }
    }
  ]
}
