{
  "type": "FeatureCollection",
  "features": [
    {
      "type": "Feature",
      "geometry": {
        "type": "Polygon",
        "coordinates": [
          [
            [
              37.60977124919945,
              55.73264766878803
            ],
            [
              37.609132318324534,
              55.75061302148129
            ],
            [
              37.60918221642335,
              55.75158247662531
            ],
            [
              37.60940036629735,
              55.752544504834546
            ],
            [
              37.609784679179626,
              55.753489840432906
            ],
            [
              37.610331465238694,
              55.75440937785376
            ],
            [
              37.61103546867856,
              55.75529425938784
            ],
            [
              37.611889917968185,
              55.75613596056701
            ],
            [
              37.612886590731506,
              55.75692637235838
            ],
            [
              37.61401589268552,
              55.7576578793738
            ],
            [
              37.615266949875796,
              55.75832343333657
            ],
            [
              37.61662771332744,
              55.75891662109346
            ],
            [
              37.61808507510648,
              55.7594317265116
            ],
            [
              37.619624994672925,
              55.75986378565919
            ],
            [
              37.62123263430445,
              55.76020863473341
            ],
            [
              37.622892502278255,
              55.760462950269236
            ],
            [
              37.624588602421525,
              55.76062428123777
            ],
            [
              37.62630458857625,
              55.76069107272151
            ],
            [
              37.71233453982878,
              55.761622579415366
            ],
            [
              37.7140538698678,
              55.761592983957435
            ],
            [
              37.71575976754944,
              55.761468487093815
            ],
            [
              37.71743579201378,
              55.76125028863168
            ],
            [
              37.71906579093149,
              55.76094049142475
            ],
            [
              37.72063405649422,
              55.76054208106462
            ],
            [
              37.72212547707498,
              55.76005889704797
            ],
            [
              37.72352568308331,
              55.759495595700606
            ],
            [
              37.72482118559798,
              55.75885760521915
            ],
            [
              37.72599950643293,
              55.758151073267626
            ],
            [
              37.72704929837745,
              55.757382807638855
            ],
            [
              37.7279604544502,
              55.75656021055687
            ],
            [
              37.72872420511574,
              55.75569120725859
            ],
            [
              37.72933320253221,
              55.75478416954734
            ],
            [
              37.729781591026466,
              55.753847835059105
            ],
            [
              37.73006506312946,
              55.75289122302353
            ],
            [
              37.73018090064575,
              55.75192354733403
            ],
            [
              37.73076426287144,
              55.7339573168448
            ],
            [
              37.73071136572272,
              55.732987894792615
            ],
            [
              37.73049033016449,
              55.7320260659397
            ],
            [
              37.730103296995566,
              55.73108109238846
            ],
            [
              37.729554004827044,
              55.73016207326807
            ],
            [
              37.72884775364468,
              55.72927785716199
            ],
            [
              37.72799135338313,
              55.728436956970924
            ],
            [
              37.72699305802218,
              55.72764746802838
            ],
            [
              37.72586248585182,
              55.726916990253166
            ],
            [
              37.72461052668344,
              55.726252555084585
            ],
            [
              37.72324923690693,
              55.72566055789861
            ],
            [
              37.7217917234067,
              55.725146696551406
            ],
            [
              37.72025201745387,
              55.72471591663631
            ],
            [
              37.71864493978424,
              55.72437236397694
            ],
            [
              37.71698595815365,
              55.72411934480888
            ],
            [
              37.71529103873145,
              55.7239592940297
            ],
            [
              37.71357649274964,
              55.72389375181911
            ],
            [
              37.627629455834985,
              55.72296355489044
            ],
            [
              37.62591177914493,
              55.72299194994234
            ],
            [
              37.62420729649719,
              55.72311520762071
            ],
            [
              37.62253241088297,
              55.72333214170625
            ],
            [
              37.62090324108205,
              55.72364066447263
            ],
            [
              37.619335466863426,
              55.72403780673617
            ],
            [
              37.61784417836561,
              55.72451974637166
            ],
            [
              37.61644373109236,
              55.72508184502277
            ],
            [
              37.6151476079081,
              55.72571869265737
            ],
            [
              37.613968289352336,
              55.726424159542944
            ],
            [
              37.612917133516085,
              55.72719145514648
            ],
            [
              37.612004266634244,
              55.72801319339668
            ],
            [
              37.611238485448396,
              55.728881463684914
            ],
            [
              37.61062717228489,
              55.729787906926745
            ],
            [
              37.61017622367379,
              55.730723795955406
            ],
            [
              37.60988999320696,
              55.73168011947786
            ],
            [
              37.60977124919945,
              55.73264766878803
            ]
          ]
        ]
      },
      "properties": {
        "id": "ALLOWED",
        "layer": "allowed_airspace"
      }
    }
  ]
}