<?xml version="1.0" encoding="UTF-8"?>
<kml xmlns="http://www.opengis.net/kml/2.2"><Document>
<Style id="survey"><PolyStyle><color>5522aa22</color></PolyStyle></Style>
<Style id="nfz"><PolyStyle><color>55aa2222</color></PolyStyle></Style>
<Style id="allowed"><PolyStyle><color>222222aa</color></PolyStyle></Style>
<Placemark><name>RGB_POINT_TO_POINT</name><styleUrl>#survey</styleUrl><Polygon><outerBoundaryIs><LinearRing><coordinates>37.62728277,55.73284460,0 37.71325150,55.73377514,0 37.71266010,55.75174124,0 37.62665188,55.75081008,0 37.62728277,55.73284460,0</coordinates></LinearRing></outerBoundaryIs></Polygon></Placemark>
<Placemark><name>ALLOWED_AIRSPACE</name><styleUrl>#allowed</styleUrl><Polygon><outerBoundaryIs><LinearRing><coordinates>37.60977125,55.73264767,0 37.60913232,55.75061302,0 37.60918222,55.75158248,0 37.60940037,55.75254450,0 37.60978468,55.75348984,0 37.61033147,55.75440938,0 37.61103547,55.75529426,0 37.61188992,55.75613596,0 37.61288659,55.75692637,0 37.61401589,55.75765788,0 37.61526695,55.75832343,0 37.61662771,55.75891662,0 37.61808508,55.75943173,0 37.61962499,55.75986379,0 37.62123263,55.76020863,0 37.62289250,55.76046295,0 37.62458860,55.76062428,0 37.62630459,55.76069107,0 37.71233454,55.76162258,0 37.71405387,55.76159298,0 37.71575977,55.76146849,0 37.71743579,55.76125029,0 37.71906579,55.76094049,0 37.72063406,55.76054208,0 37.72212548,55.76005890,0 37.72352568,55.75949560,0 37.72482119,55.75885761,0 37.72599951,55.75815107,0 37.72704930,55.75738281,0 37.72796045,55.75656021,0 37.72872421,55.75569121,0 37.72933320,55.75478417,0 37.72978159,55.75384784,0 37.73006506,55.75289122,0 37.73018090,55.75192355,0 37.73076426,55.73395732,0 37.73071137,55.73298789,0 37.73049033,55.73202607,0 37.73010330,55.73108109,0 37.72955400,55.73016207,0 37.72884775,55.72927786,0 37.72799135,55.72843696,0 37.72699306,55.72764747,0 37.72586249,55.72691699,0 37.72461053,55.72625256,0 37.72324924,55.72566056,0 37.72179172,55.72514670,0 37.72025202,55.72471592,0 37.71864494,55.72437236,0 37.71698596,55.72411934,0 37.71529104,55.72395929,0 37.71357649,55.72389375,0 37.62762946,55.72296355,0 37.62591178,55.72299195,0 37.62420730,55.72311521,0 37.62253241,55.72333214,0 37.62090324,55.72364066,0 37.61933547,55.72403781,0 37.61784418,55.72451975,0 37.61644373,55.72508185,0 37.61514761,55.72571869,0 37.61396829,55.72642416,0 37.61291713,55.72719146,0 37.61200427,55.72801319,0 37.61123849,55.72888146,0 37.61062717,55.72978791,0 37.61017622,55.73072380,0 37.60988999,55.73168012,0 37.60977125,55.73264767,0</coordinates></LinearRing></outerBoundaryIs></Polygon></Placemark>
<Placemark><name>START_W</name><description>start</description><Point><coordinates>37.60945187,55.74163035,0</coordinates></Point></Placemark>
<Placemark><name>LAND_E</name><description>landing</description><Point><coordinates>37.73047266,55.74294044,0</coordinates></Point></Placemark>
<Placemark><name>RES</name><description>reserve</description><Point><coordinates>37.67097319,55.75938502,0</coordinates></Point></Placemark>
</Document></kml>