{
  "type": "FeatureCollection",
  "features": [
    {
      "type": "Feature",
      "geometry": {
        "type": "Polygon",
        "coordinates": [
          [
            [
              37.627282771221054,
              55.73284459602453
            ],
            [
              37.713251504759576,
              55.73377513574334
            ],
            [
              37.71266009875434,
              55.75174124412155
            ],
            [
              37.6266518822076,
              55.750810080705165
            ],
            [
              37.627282771221054,
              55.73284459602453
            ]
          ]
        ]
      },
      "properties": {
        "id": "RGB_POINT_TO_POINT",
        "survey_type": "rgb",
        "payload_profile": "RGB_STD"
      }
    }
  ]
}