{
  "type": "FeatureCollection",
  "features": [
    {
      "type": "Feature",
      "geometry": {
        "type": "Polygon",
        "coordinates": [
          [
            [
              37.58309888031958,
              55.72155930359753
            ],
            [
              37.581959293065424,
              55.7529983309027
            ],
            [
              37.58200404382472,
              55.75387966016045
            ],
            [
              37.58220176331249,
              55.754754271592745
            ],
            [
              37.582550557415246,
              55.755613741540074
            ],
            [
              37.583047076409,
              55.75644979162668
            ],
            [
              37.583686546859326,
              55.75725436853226
            ],
            [
              37.58446281727223,
              55.75801972161519
            ],
            [
              37.58536841706879,
              55.758738477637074
            ],
            [
              37.58639462832569,
              55.75940371186607
            ],
            [
              37.58753156959884,
              55.760009014870256
            ],
            [
              37.58876829102791,
              55.76054855435396
            ],
            [
              37.59009287980825,
              55.761017131437555
            ],
            [
              37.59149257501367,
              55.76141023083373
            ],
            [
              37.59295389066062,
              55.76172406443363
            ],
            [
              37.59446274582218,
              55.76195560787861
            ],
            [
              37.596004600529525,
              55.76210262976227
            ],
            [
              37.59756459614087,
              55.76216371317846
            ],
            [
              37.67722386664988,
              55.763046923507474
            ],
            [
              37.6787869681182,
              55.76302046648915
            ],
            [
              37.680337936438654,
              55.76290773434691
            ],
            [
              37.68186182490745,
              55.762709813438235
            ],
            [
              37.68334394830248,
              55.76242861107164
            ],
            [
              37.68477002466933,
              55.76206683709112
            ],
            [
              37.68612631318335,
              55.76162797771316
            ],
            [
              37.687399746747744,
              55.76111626187029
            ],
            [
              37.68857805804037,
              55.760536620388955
            ],
            [
              37.68964989778768,
              55.75989463839826
            ],
            [
              37.69060494412158,
              55.7591965014318
            ],
            [
              37.69143400196378,
              55.75844893574642
            ],
            [
              37.69212909148148,
              55.757659143436285
            ],
            [
              37.692683524766316,
              55.75683473297186
            ],
            [
              37.69309197000448,
              55.75598364583626
            ],
            [
              37.693350502529505,
              55.75511407996922
            ],
            [
              37.693456642277276,
              55.75423441075859
            ],
            [
              37.694506691059644,
              55.722793935042766
            ],
            [
              37.69445942940839,
              55.721912630679384
            ],
            [
              37.694259351694264,
              55.72103818434083
            ],
            [
              37.69390839477605,
              55.72017901673768
            ],
            [
              37.6934099478743,
              55.71934340090278
            ],
            [
              37.692768819573665,
              55.718539382564366
            ],
            [
              37.69199119119608,
              55.71777470272702
            ],
            [
              37.69108455700629,
              55.717056723203605
            ],
            [
              37.69005765183546,
              55.716392355811834
            ],
            [
              37.6889203668278,
              55.71578799591421
            ],
            [
              37.68768365412667,
              55.71524946093697
            ],
            [
              37.68635942142021,
              55.71478193445602
            ],
            [
              37.6849604173611,
              55.714389916384256
            ],
            [
              37.68350010896056,
              55.71407717973561
            ],
            [
              37.68199255213033,
              55.71384673437846
            ],
            [
              37.680452256610714,
              55.7137007981241
            ],
            [
              37.678894046573824,
              55.71364077542569
            ],
            [
              37.59933527850811,
              55.712759190865164
            ],
            [
              37.5977741489659,
              55.71278464794856
            ],
            [
              37.596224949743124,
              55.712896348301165
            ],
            [
              37.59470259047193,
              55.713093216861225
            ],
            [
              37.593221722979926,
              55.71337335888619
            ],
            [
              37.59179660054316,
              55.713734078153685
            ],
            [
              37.590440940937526,
              55.714171902862475
            ],
            [
              37.58916779459537,
              55.71468261898627
            ],
            [
              37.58798941912678,
              55.71526131076249
            ],
            [
              37.58691716140616,
              55.71590240792962
            ],
            [
              37.58596134835441,
              55.71659973926207
            ],
            [
              37.585131187466374,
              55.71734659189157
            ],
            [
              37.58443467804219,
              55.71813577584749
            ],
            [
              37.583878533981064,
              55.718959693199395
            ],
            [
              37.58346811888743,
              55.71981041113902
            ],
            [
              37.58320739412346,
              55.72067973830215
            ],
            [
              37.58309888031958,
              55.72155930359753
            ]
          ]
        ]
      },
      "properties": {
        "id": "ALLOWED",
        "layer": "allowed_airspace"
      }
    }
  ]
}