<?xml version="1.0" encoding="UTF-8"?>
<kml xmlns="http://www.opengis.net/kml/2.2"><Document>
<Style id="survey"><PolyStyle><color>5522aa22</color></PolyStyle></Style>
<Style id="nfz"><PolyStyle><color>55aa2222</color></PolyStyle></Style>
<Style id="allowed"><PolyStyle><color>222222aa</color></PolyStyle></Style>
<Placemark><name>RGB_T</name><styleUrl>#survey</styleUrl><Polygon><outerBoundaryIs><LinearRing><coordinates>37.59901375,55.72174186,0 37.67859076,55.72262374,0 37.67752792,55.75406402,0 37.59788695,55.75318111,0 37.59901375,55.72174186,0</coordinates></LinearRing></outerBoundaryIs></Polygon></Placemark>
<Placemark><name>ALLOWED_AIRSPACE</name><styleUrl>#allowed</styleUrl><Polygon><outerBoundaryIs><LinearRing><coordinates>37.58309888,55.72155930,0 37.58195929,55.75299833,0 37.58200404,55.75387966,0 37.58220176,55.75475427,0 37.58255056,55.75561374,0 37.58304708,55.75644979,0 37.58368655,55.75725437,0 37.58446282,55.75801972,0 37.58536842,55.75873848,0 37.58639463,55.75940371,0 37.58753157,55.76000901,0 37.58876829,55.76054855,0 37.59009288,55.76101713,0 37.59149258,55.76141023,0 37.59295389,55.76172406,0 37.59446275,55.76195561,0 37.59600460,55.76210263,0 37.59756460,55.76216371,0 37.67722387,55.76304692,0 37.67878697,55.76302047,0 37.68033794,55.76290773,0 37.68186182,55.76270981,0 37.68334395,55.76242861,0 37.68477002,55.76206684,0 37.68612631,55.76162798,0 37.68739975,55.76111626,0 37.68857806,55.76053662,0 37.68964990,55.75989464,0 37.69060494,55.75919650,0 37.69143400,55.75844894,0 37.69212909,55.75765914,0 37.69268352,55.75683473,0 37.69309197,55.75598365,0 37.69335050,55.75511408,0 37.69345664,55.75423441,0 37.69450669,55.72279394,0 37.69445943,55.72191263,0 37.69425935,55.72103818,0 37.69390839,55.72017902,0 37.69340995,55.71934340,0 37.69276882,55.71853938,0 37.69199119,55.71777470,0 37.69108456,55.71705672,0 37.69005765,55.71639236,0 37.68892037,55.71578800,0 37.68768365,55.71524946,0 37.68635942,55.71478193,0 37.68496042,55.71438992,0 37.68350011,55.71407718,0 37.68199255,55.71384673,0 37.68045226,55.71370080,0 37.67889405,55.71364078,0 37.59933528,55.71275919,0 37.59777415,55.71278465,0 37.59622495,55.71289635,0 37.59470259,55.71309322,0 37.59322172,55.71337336,0 37.59179660,55.71373408,0 37.59044094,55.71417190,0 37.58916779,55.71468262,0 37.58798942,55.71526131,0 37.58691716,55.71590241,0 37.58596135,55.71659974,0 37.58513119,55.71734659,0 37.58443468,55.71813578,0 37.58387853,55.71895969,0 37.58346812,55.71981041,0 37.58320739,55.72067974,0 37.58309888,55.72155930,0</coordinates></LinearRing></outerBoundaryIs></Polygon></Placemark>
<Placemark><name>BASE_W</name><description>both</description><Point><coordinates>37.59047379,55.73781956,0</coordinates></Point></Placemark>
<Placemark><name>BASE_E</name><description>both</description><Point><coordinates>37.68600565,55.73887846,0</coordinates></Point></Placemark>
</Document></kml>