{
  "type": "FeatureCollection",
  "features": [
    {
      "type": "Feature",
      "geometry": {
        "type": "Polygon",
        "coordinates": [
          [
            [
              37.59901374614922,
              55.7217418638082
            ],
            [
              37.67859076414216,
              55.7226237436584
            ],
            [
              37.677527922722206,
              55.75406401970837
            ],
            [
              37.597886948649986,
              55.753181105278514
            ],
            [
              37.59901374614922,
              55.7217418638082
            ]
          ]
        ]
      },
      "properties": {
        "id": "RGB_T",
        "survey_type": "rgb",
        "payload_profile": "RGB_STD"
      }
    }
  ]
}