{
  "type": "FeatureCollection",
  "features": [
    {
      "type": "Feature",
      "geometry": {
        "type": "Polygon",
        "coordinates": [
          [
            [
              37.63259251046981,
              55.71762713277365
            ],
            [
              37.64532337482371,
              55.71776820996381
            ],
            [
              37.64392232606087,
              55.758190872817025
            ],
            [
              37.63117830502003,
              55.75804958279888
            ],
            [
              37.63259251046981,
              55.71762713277365
            ]
          ]
        ]
      },
      "properties": {
        "id": "TIME_GATE",
        "layer": "airspace_constraint",
        "min_alt_m": 0,
        "max_alt_m": 700,
        "active_from": "2026-06-15T10:30:00+03:00",
        "active_to": "2026-06-15T12:00:00+03:00"
      }
    }
  ]
}