{
  "type": "FeatureCollection",
  "features": [
    {
      "type": "Feature",
      "properties": {
        "id": "JOB_mug9jv49",
        "survey_type": "rgb",
        "payload_profile": "RGB"
      },
      "geometry": {
        "coordinates": [
          [
            [
              37.461405569886296,
              55.7462605992022
            ],
            [
              37.46426393520767,
              55.71769294795794
            ],
            [
              37.53893872923598,
              55.72051040596105
            ],
            [
              37.5314355202666,
              55.75028253260396
            ],
            [
              37.49606324941138,
              55.7508857868537
            ],
            [
              37.461405569886296,
              55.7462605992022
            ]
          ]
        ],
        "type": "Polygon"
      }
    },
    {
      "type": "Feature",
      "properties": {
        "id": "JOB_mug9k0vy",
        "survey_type": "rgb",
        "payload_profile": "RGB"
      },
      "geometry": {
        "coordinates": [
          [
            [
              37.4639066395427,
              55.706421083372646
            ],
            [
              37.46426393520767,
              55.68709031963593
            ],
            [
              37.528934450610194,
              55.68870158175142
            ],
            [
              37.52750526794881,
              55.7086354563086
            ],
            [
              37.4639066395427,
              55.706421083372646
            ]
          ]
        ],
        "type": "Polygon"
      }
    },
    {
      "type": "Feature",
      "properties": {
        "id": "JOB_mug9kanh",
        "survey_type": "rgb",
        "payload_profile": "RGB"
      },
      "geometry": {
        "coordinates": [
          [
            [
              37.55144407751689,
              55.74988035792177
            ],
            [
              37.543940868548816,
              55.68165181980552
            ],
            [
              37.46569311786911,
              55.67802573306864
            ],
            [
              37.463549343877645,
              55.654649553980306
            ],
            [
              37.60753949695368,
              55.65525428623769
            ],
            [
              37.59503414867277,
              55.75028253260396
            ],
            [
              37.55144407751689,
              55.74988035792177
            ]
          ]
        ],
        "type": "Polygon"
      }
    }
  ]
}
