{
  "type": "FeatureCollection",
  "features": [
    {
      "type": "Feature",
      "geometry": {
        "type": "LineString",
        "coordinates": [
          [
            37.51409445435762,
            55.699808548921624,
            160.0
          ],
          [
            37.51409445435762,
            55.699808548921624,
            283.0769230769231
          ],
          [
            37.514355967081926,
            55.699906071463886,
            283.0769230769231
          ],
          [
            37.514617481114314,
            55.70000359345502,
            283.0769230769231
          ],
          [
            37.51487899645478,
            55.70010111489502,
            283.0769230769231
          ],
          [
            37.51514051310333,
            55.70019863578386,
            283.0769230769231
          ],
          [
            37.51540203105998,
            55.70029615612156,
            283.0769230769231
          ],
          [
            37.5156635503247,
            55.700393675908096,
            283.0769230769231
          ],
          [
            37.51592507089753,
            55.70049119514346,
            283.0769230769231
          ],
          [
            37.516186592778446,
            55.700588713827656,
            283.0769230769231
          ],
          [
            37.516448115967464,
            55.70068623196068,
            283.0769230769231
          ],
          [
            37.51670964046458,
            55.70078374954251,
            283.0769230769231
          ],
          [
            37.516971166269805,
            55.70088126657316,
            283.0769230769231
          ],
          [
            37.51723269338314,
            55.70097878305261,
            283.0769230769231
          ],
          [
            37.51749422180459,
            55.70107629898086,
            283.0769230769231
          ],
          [
            37.517755751534146,
            55.70117381435791,
            283.0769230769231
          ],
          [
            37.51801728257182,
            55.701271329183726,
            283.0769230769231
          ],
          [
            37.518278814917615,
            55.70136884345835,
            283.0769230769231
          ],
          [
            37.518540348571534,
            55.70146635718174,
            283.0769230769231
          ],
          [
            37.51880188353358,
            55.70156387035388,
            283.0769230769231
          ],
          [
            37.51906341980374,
            55.70166138297479,
            283.0769230769231
          ],
          [
            37.51932495738205,
            55.70175889504447,
            283.0769230769231
          ],
          [
            37.51958649626849,
            55.70185640656288,
            283.0769230769231
          ],
          [
            37.51984803646306,
            55.70195391753003,
            283.0769230769231
          ],
          [
            37.52010957796577,
            55.702051427945946,
            283.0769230769231
          ],
          [
            37.52037112077663,
            55.70214893781057,
            283.0769230769231
          ],
          [
            37.520632664895636,
            55.702246447123926,
            283.0769230769231
          ],
          [
            37.52089421032279,
            55.702343955886,
            283.0769230769231
          ],
          [
            37.5211557570581,
            55.70244146409678,
            283.0769230769231
          ],
          [
            37.52141730510156,
            55.70253897175627,
            283.0769230769231
          ],
          [
            37.52167885445317,
            55.70263647886448,
            283.0769230769231
          ],
          [
            37.52194040511296,
            55.702733985421354,
            283.0769230769231
          ],
          [
            37.522252301111706,
            55.70273773936409,
            283.0769230769231
          ],
          [
            37.52256419718418,
            55.702741492514946,
            283.0769230769231
          ],
          [
            37.52287609333036,
            55.702745244873896,
            283.0769230769231
          ],
          [
            37.52318798955023,
            55.702748996440974,
            283.0769230769231
          ],
          [
            37.523499885843776,
            55.70275274721614,
            283.0769230769231
          ],
          [
            37.523811782210984,
            55.70275649719944,
            283.0769230769231
          ],
          [
            37.52412367865183,
            55.70276024639083,
            283.0769230769231
          ],
          [
            37.524435575166315,
            55.702763994790324,
            283.0769230769231
          ],
          [
            37.52474747175441,
            55.70276774239794,
            283.0769230769231
          ],
          [
            37.5250593684161,
            55.70277148921367,
            283.0769230769231
          ],
          [
            37.52537126515137,
            55.70277523523748,
            283.0769230769231
          ],
          [
            37.52568316196022,
            55.70277898046942,
            283.0769230769231
          ],
          [
            37.525995058842604,
            55.70278272490945,
            283.0769230769231
          ],
          [
            37.52630695579854,
            55.70278646855759,
            283.0769230769231
          ],
          [
            37.52661885282798,
            55.70279021141385,
            283.0769230769231
          ],
          [
            37.52693074993093,
            55.7027939534782,
            283.0769230769231
          ],
          [
            37.52724264710737,
            55.702797694750664,
            283.0769230769231
          ],
          [
            37.52755454435729,
            55.70280143523123,
            283.0769230769231
          ],
          [
            37.527866441680665,
            55.70280517491988,
            283.0769230769231
          ],
          [
            37.52817833907748,
            55.702808913816654,
            283.0769230769231
          ],
          [
            37.52849023654772,
            55.702812651921526,
            283.0769230769231
          ],
          [
            37.52880213409137,
            55.7028163892345,
            283.0769230769231
          ],
          [
            37.529114031708424,
            55.70282012575557,
            283.0769230769231
          ],
          [
            37.52942592939885,
            55.70282386148475,
            283.0769230769231
          ],
          [
            37.52973782716264,
            55.70282759642204,
            283.0769230769231
          ],
          [
            37.53004972499979,
            55.702831330567406,
            283.0769230769231
          ],
          [
            37.53036162291026,
            55.7028350639209,
            283.0769230769231
          ],
          [
            37.53067352089406,
            55.702838796482474,
            283.0769230769231
          ],
          [
            37.53098541895116,
            55.702842528252155,
            283.0769230769231
          ],
          [
            37.531297317081545,
            55.702846259229936,
            283.0769230769231
          ],
          [
            37.5316092152852,
            55.70284998941581,
            283.0769230769231
          ],
          [
            37.53192111356212,
            55.70285371880979,
            283.0769230769231
          ],
          [
            37.53223301191227,
            55.70285744741187,
            283.0769230769231
          ],
          [
            37.532544910335645,
            55.70286117522204,
            283.0769230769231
          ],
          [
            37.532856808832236,
            55.70286490224031,
            283.0769230769231
          ],
          [
            37.53316870740202,
            55.702868628466675,
            283.0769230769231
          ],
          [
            37.53348060604498,
            55.70287235390113,
            283.0769230769231
          ],
          [
            37.53379250476111,
            55.702876078543696,
            283.0769230769231
          ],
          [
            37.53410440355038,
            55.70287980239436,
            283.0769230769231
          ],
          [
            37.53441630241278,
            55.70288352545311,
            283.0769230769231
          ],
          [
            37.5347282013483,
            55.70288724771995,
            283.0769230769231
          ],
          [
            37.53504010035692,
            55.70289096919489,
            283.0769230769231
          ],
          [
            37.53535199943863,
            55.70289468987792,
            283.0769230769231
          ],
          [
            37.535663898593405,
            55.702898409769055,
            283.0769230769231
          ],
          [
            37.53597579782123,
            55.702902128868274,
            283.0769230769231
          ],
          [
            37.536287697122106,
            55.70290584717558,
            283.0769230769231
          ],
          [
            37.536599596495996,
            55.702909564691,
            283.0769230769231
          ],
          [
            37.536911495942896,
            55.702913281414496,
            283.0769230769231
          ],
          [
            37.53722339546279,
            55.70291699734608,
            283.0769230769231
          ],
          [
            37.537535295055655,
            55.70292071248576,
            283.0769230769231
          ],
          [
            37.537847194721486,
            55.70292442683353,
            283.0769230769231
          ],
          [
            37.537853232356966,
            55.70276274266627,
            283.0769230769231
          ],
          [
            37.537859269930976,
            55.702601058494295,
            283.0769230769231
          ],
          [
            37.53786530744351,
            55.7024393743176,
            283.0769230769231
          ],
          [
            37.537871344894576,
            55.702277690136185,
            283.0769230769231
          ],
          [
            37.53787738228417,
            55.70211600595004,
            283.0769230769231
          ],
          [
            37.53756548905222,
            55.7021122917142,
            283.0769230769231
          ],
          [
            37.53725359589322,
            55.702108576686456,
            283.0769230769231
          ],
          [
            37.5369417028072,
            55.70210486086685,
            283.0769230769231
          ],
          [
            37.536629809794164,
            55.702101144255344,
            283.0769230769231
          ],
          [
            37.536317916854124,
            55.70209742685195,
            283.0769230769231
          ],
          [
            37.536006023987106,
            55.70209370865669,
            283.0769230769231
          ],
          [
            37.535694131193125,
            55.70208998966953,
            283.0769230769231
          ],
          [
            37.53538223847219,
            55.70208626989049,
            283.0769230769231
          ],
          [
            37.535070345824316,
            55.70208254931958,
            283.0769230769231
          ],
          [
            37.53475845324953,
            55.70207882795677,
            283.0769230769231
          ],
          [
            37.53444656074784,
            55.70207510580209,
            283.0769230769231
          ],
          [
            37.534134668319254,
            55.702071382855515,
            283.0769230769231
          ],
          [
            37.5338227759638,
            55.70206765911708,
            283.0769230769231
          ],
          [
            37.53351088368148,
            55.70206393458675,
            283.0769230769231
          ],
          [
            37.533198991472325,
            55.70206020926454,
            283.0769230769231
          ],
          [
            37.53288709933635,
            55.70205648315046,
            283.0769230769231
          ],
          [
            37.53257520727355,
            55.702052756244484,
            283.0769230769231
          ],
          [
            37.53226331528396,
            55.70204902854664,
            283.0769230769231
          ],
          [
            37.531951423367595,
            55.702045300056916,
            283.0769230769231
          ],
          [
            37.53163953152446,
            55.70204157077532,
            283.0769230769231
          ],
          [
            37.53132763975458,
            55.70203784070184,
            283.0769230769231
          ],
          [
            37.53101574805796,
            55.70203410983648,
            283.0769230769231
          ],
          [
            37.530703856434634,
            55.70203037817926,
            283.0769230769231
          ],
          [
            37.53039196488459,
            55.70202664573015,
            283.0769230769231
          ],
          [
            37.530080073407866,
            55.70202291248916,
            283.0769230769231
          ],
          [
            37.529768182004474,
            55.702019178456304,
            283.0769230769231
          ],
          [
            37.52945629067443,
            55.70201544363157,
            283.0769230769231
          ],
          [
            37.52914439941773,
            55.70201170801496,
            283.0769230769231
          ],
          [
            37.52883250823442,
            55.70200797160647,
            283.0769230769231
          ],
          [
            37.52852061712449,
            55.702004234406104,
            283.0769230769231
          ],
          [
            37.528208726087975,
            55.70200049641387,
            283.0769230769231
          ],
          [
            37.527896835124885,
            55.701996757629765,
            283.0769230769231
          ],
          [
            37.52758494423522,
            55.70199301805379,
            283.0769230769231
          ],
          [
            37.527273053419016,
            55.70198927768594,
            283.0769230769231
          ],
          [
            37.52696116267628,
            55.70198553652621,
            283.0769230769231
          ],
          [
            37.52664927200703,
            55.70198179457462,
            283.0769230769231
          ],
          [
            37.526337381411274,
            55.701978051831155,
            283.0769230769231
          ],
          [
            37.52602549088904,
            55.70197430829582,
            283.0769230769231
          ],
          [
            37.525713600440326,
            55.70197056396861,
            283.0769230769231
          ],
          [
            37.52540171006516,
            55.70196681884952,
            283.0769230769231
          ],
          [
            37.525089819763565,
            55.701963072938575,
            283.0769230769231
          ],
          [
            37.524777929535546,
            55.70195932623576,
            283.0769230769231
          ],
          [
            37.52446603938111,
            55.70195557874107,
            283.0769230769231
          ],
          [
            37.52415414930029,
            55.701951830454526,
            283.0769230769231
          ],
          [
            37.52384225929309,
            55.7019480813761,
            283.0769230769231
          ],
          [
            37.52353036935953,
            55.70194433150581,
            283.0769230769231
          ],
          [
            37.523218479499626,
            55.701940580843655,
            283.0769230769231
          ],
          [
            37.522906589713386,
            55.70193682938963,
            283.0769230769231
          ],
          [
            37.52259470000084,
            55.70193307714374,
            283.0769230769231
          ],
          [
            37.52228281036199,
            55.70192932410598,
            283.0769230769231
          ],
          [
            37.52197092079686,
            55.70192557027635,
            283.0769230769231
          ],
          [
            37.52197702374723,
            55.70176388723318,
            283.0769230769231
          ],
          [
            37.52198312663546,
            55.701602204185264,
            283.0769230769231
          ],
          [
            37.52198922946157,
            55.70144052113261,
            283.0769230769231
          ],
          [
            37.521995332225536,
            55.70127883807524,
            283.0769230769231
          ],
          [
            37.52200143492737,
            55.701117155013144,
            283.0769230769231
          ],
          [
            37.522313318059204,
            55.70112090872965,
            283.0769230769231
          ],
          [
            37.522625201264745,
            55.701124661654326,
            283.0769230769231
          ],
          [
            37.522937084544,
            55.701128413787146,
            283.0769230769231
          ],
          [
            37.52324896789692,
            55.701132165128136,
            283.0769230769231
          ],
          [
            37.52356085132351,
            55.70113591567728,
            283.0769230769231
          ],
          [
            37.52387273482375,
            55.701139665434575,
            283.0769230769231
          ],
          [
            37.524184618397626,
            55.70114341440003,
            283.0769230769231
          ],
          [
            37.52449650204512,
            55.70114716257364,
            283.0769230769231
          ],
          [
            37.524808385766214,
            55.7011509099554,
            283.0769230769231
          ],
          [
            37.525120269560894,
            55.70115465654533,
            283.0769230769231
          ],
          [
            37.52543215342915,
            55.701158402343395,
            283.0769230769231
          ],
          [
            37.52574403737096,
            55.70116214734962,
            283.0769230769231
          ],
          [
            37.526055921386316,
            55.70116589156402,
            283.0769230769231
          ],
          [
            37.52636780547519,
            55.70116963498655,
            283.0769230769231
          ],
          [
            37.526679689637575,
            55.701173377617245,
            283.0769230769231
          ],
          [
            37.52699157387346,
            55.701177119456084,
            283.0769230769231
          ],
          [
            37.52730345818282,
            55.70118086050307,
            283.0769230769231
          ],
          [
            37.527615342565646,
            55.70118460075822,
            283.0769230769231
          ],
          [
            37.52792722702192,
            55.70118834022153,
            283.0769230769231
          ],
          [
            37.52823911155162,
            55.701192078892966,
            283.0769230769231
          ],
          [
            37.52855099615474,
            55.70119581677257,
            283.0769230769231
          ],
          [
            37.52886288083126,
            55.70119955386031,
            283.0769230769231
          ],
          [
            37.529174765581175,
            55.70120329015622,
            283.0769230769231
          ],
          [
            37.52948665040445,
            55.70120702566027,
            283.0769230769231
          ],
          [
            37.52979853530108,
            55.70121076037247,
            283.0769230769231
          ],
          [
            37.53011042027106,
            55.7012144942928,
            283.0769230769231
          ],
          [
            37.53042230531435,
            55.7012182274213,
            283.0769230769231
          ],
          [
            37.530734190430955,
            55.701221959757945,
            283.0769230769231
          ],
          [
            37.53104607562085,
            55.70122569130274,
            283.0769230769231
          ],
          [
            37.53135796088402,
            55.70122942205567,
            283.0769230769231
          ],
          [
            37.53166984622046,
            55.70123315201676,
            283.0769230769231
          ],
          [
            37.53198173163014,
            55.701236881185984,
            283.0769230769231
          ],
          [
            37.532293617113055,
            55.701240609563364,
            283.0769230769231
          ],
          [
            37.53260550266918,
            55.70124433714888,
            283.0769230769231
          ],
          [
            37.5329173882985,
            55.701248063942536,
            283.0769230769231
          ],
          [
            37.53322927400101,
            55.701251789944344,
            283.0769230769231
          ],
          [
            37.53354115977668,
            55.7012555151543,
            283.0769230769231
          ],
          [
            37.53385304562551,
            55.7012592395724,
            283.0769230769231
          ],
          [
            37.53416493154749,
            55.701262963198644,
            283.0769230769231
          ],
          [
            37.53447681754257,
            55.70126668603302,
            283.0769230769231
          ],
          [
            37.534788703610765,
            55.70127040807555,
            283.0769230769231
          ],
          [
            37.53510058975205,
            55.70127412932622,
            283.0769230769231
          ],
          [
            37.53541247596642,
            55.70127784978503,
            283.0769230769231
          ],
          [
            37.53572436225383,
            55.70128156945199,
            283.0769230769231
          ],
          [
            37.536036248614295,
            55.70128528832708,
            283.0769230769231
          ],
          [
            37.53634813504779,
            55.701289006410306,
            283.0769230769231
          ],
          [
            37.53666002155429,
            55.701292723701684,
            283.0769230769231
          ],
          [
            37.5369719081338,
            55.701296440201205,
            283.0769230769231
          ],
          [
            37.53728379478628,
            55.70130015590885,
            283.0769230769231
          ],
          [
            37.53759568151174,
            55.70130387082464,
            283.0769230769231
          ],
          [
            37.53790756831014,
            55.701307584948566,
            283.0769230769231
          ],
          [
            37.537913605330935,
            55.70114590073411,
            283.0769230769231
          ],
          [
            37.53791964229027,
            55.70098421651495,
            283.0769230769231
          ],
          [
            37.53792567918814,
            55.700822532291035,
            283.0769230769231
          ],
          [
            37.537931716024545,
            55.70066084806242,
            283.0769230769231
          ],
          [
            37.5379377527995,
            55.70049916382909,
            283.0769230769231
          ],
          [
            37.53762587243432,
            55.70049544981707,
            283.0769230769231
          ],
          [
            37.53731399214209,
            55.70049173501322,
            283.0769230769231
          ],
          [
            37.53700211192281,
            55.700488019417534,
            283.0769230769231
          ],
          [
            37.53669023177651,
            55.70048430303002,
            283.0769230769231
          ],
          [
            37.53637835170321,
            55.70048058585065,
            283.0769230769231
          ],
          [
            37.53606647170292,
            55.700476867879445,
            283.0769230769231
          ],
          [
            37.53575459177564,
            55.70047314911641,
            283.0769230769231
          ],
          [
            37.535442711921405,
            55.70046942956154,
            283.0769230769231
          ],
          [
            37.53513083214023,
            55.70046570921484,
            283.0769230769231
          ],
          [
            37.534818952432126,
            55.7004619880763,
            283.0769230769231
          ],
          [
            37.5345070727971,
            55.70045826614592,
            283.0769230769231
          ],
          [
            37.53419519323518,
            55.70045454342371,
            283.0769230769231
          ],
          [
            37.53388331374637,
            55.700450819909676,
            283.0769230769231
          ],
          [
            37.533571434330696,
            55.70044709560379,
            283.0769230769231
          ],
          [
            37.53325955498817,
            55.700443370506086,
            283.0769230769231
          ],
          [
            37.53294767571881,
            55.70043964461656,
            283.0769230769231
          ],
          [
            37.53263579652263,
            55.70043591793518,
            283.0769230769231
          ],
          [
            37.53232391739964,
            55.70043219046199,
            283.0769230769231
          ],
          [
            37.53201203834986,
            55.70042846219695,
            283.0769230769231
          ],
          [
            37.53170015937331,
            55.700424733140096,
            283.0769230769231
          ],
          [
            37.53138828046999,
            55.700421003291396,
            283.0769230769231
          ],
          [
            37.531076401639936,
            55.70041727265088,
            283.0769230769231
          ],
          [
            37.53076452288315,
            55.70041354121853,
            283.0769230769231
          ],
          [
            37.530452644199656,
            55.700409808994344,
            283.0769230769231
          ],
          [
            37.53014076558945,
            55.70040607597835,
            283.0769230769231
          ],
          [
            37.52982888705258,
            55.700402342170506,
            283.0769230769231
          ],
          [
            37.52951700858904,
            55.70039860757084,
            283.0769230769231
          ],
          [
            37.52920513019884,
            55.70039487217936,
            283.0769230769231
          ],
          [
            37.52889325188202,
            55.700391135996036,
            283.0769230769231
          ],
          [
            37.528581373638566,
            55.70038739902089,
            283.0769230769231
          ],
          [
            37.528269495468514,
            55.700383661253916,
            283.0769230769231
          ],
          [
            37.527957617371875,
            55.700379922695134,
            283.0769230769231
          ],
          [
            37.527645739348664,
            55.70037618334451,
            283.0769230769231
          ],
          [
            37.527333861398894,
            55.700372443202056,
            283.0769230769231
          ],
          [
            37.52702198352258,
            55.70036870226779,
            283.0769230769231
          ],
          [
            37.526710105719744,
            55.7003649605417,
            283.0769230769231
          ],
          [
            37.5263982279904,
            55.70036121802379,
            283.0769230769231
          ],
          [
            37.52608635033455,
            55.70035747471404,
            283.0769230769231
          ],
          [
            37.52577447275223,
            55.70035373061248,
            283.0769230769231
          ],
          [
            37.52546259524344,
            55.70034998571909,
            283.0769230769231
          ],
          [
            37.5251507178082,
            55.70034624003388,
            283.0769230769231
          ],
          [
            37.524838840446535,
            55.700342493556846,
            283.0769230769231
          ],
          [
            37.52452696315844,
            55.700338746288,
            283.0769230769231
          ],
          [
            37.52421508594396,
            55.70033499822733,
            283.0769230769231
          ],
          [
            37.52390320880308,
            55.70033124937484,
            283.0769230769231
          ],
          [
            37.52359133173584,
            55.70032749973053,
            283.0769230769231
          ],
          [
            37.52327945474223,
            55.70032374929439,
            283.0769230769231
          ],
          [
            37.522967577822286,
            55.700319998066455,
            283.0769230769231
          ],
          [
            37.522655700976024,
            55.70031624604667,
            283.0769230769231
          ],
          [
            37.522343824203446,
            55.70031249323509,
            283.0769230769231
          ],
          [
            37.52203194750458,
            55.70030873963169,
            283.0769230769231
          ],
          [
            37.52203804983364,
            55.70014705654121,
            283.0769230769231
          ],
          [
            37.52204415210057,
            55.69998537344598,
            283.0769230769231
          ],
          [
            37.52205025430537,
            55.699823690346065,
            283.0769230769231
          ],
          [
            37.52205635644805,
            55.69966200724139,
            283.0769230769231
          ],
          [
            37.5220624585286,
            55.69950032413199,
            283.0769230769231
          ],
          [
            37.52237432879483,
            55.6995040776223,
            283.0769230769231
          ],
          [
            37.52268619913476,
            55.699507830320805,
            283.0769230769231
          ],
          [
            37.52299806954838,
            55.69951158222753,
            283.0769230769231
          ],
          [
            37.52330994003567,
            55.69951533334245,
            283.0769230769231
          ],
          [
            37.52362181059661,
            55.69951908366558,
            283.0769230769231
          ],
          [
            37.523933681231185,
            55.6995228331969,
            283.0769230769231
          ],
          [
            37.524245551939394,
            55.69952658193643,
            283.0769230769231
          ],
          [
            37.52455742272121,
            55.69953032988417,
            283.0769230769231
          ],
          [
            37.524869293576614,
            55.699534077040106,
            283.0769230769231
          ],
          [
            37.525181164505604,
            55.699537823404256,
            283.0769230769231
          ],
          [
            37.52549303550814,
            55.6995415689766,
            283.0769230769231
          ],
          [
            37.525804906584234,
            55.69954531375714,
            283.0769230769231
          ],
          [
            37.52611677773386,
            55.6995490577459,
            283.0769230769231
          ],
          [
            37.526428648956994,
            55.69955280094284,
            283.0769230769231
          ],
          [
            37.52674052025363,
            55.69955654334799,
            283.0769230769231
          ],
          [
            37.52705239162375,
            55.699560284961336,
            283.0769230769231
          ],
          [
            37.52736426306734,
            55.6995640257829,
            283.0769230769231
          ],
          [
            37.52767613458438,
            55.69956776581264,
            283.0769230769231
          ],
          [
            37.527988006174866,
            55.69957150505059,
            283.0769230769231
          ],
          [
            37.52829987783876,
            55.69957524349673,
            283.0769230769231
          ],
          [
            37.52861174957608,
            55.69957898115108,
            283.0769230769231
          ],
          [
            37.528923621386774,
            55.69958271801362,
            283.0769230769231
          ],
          [
            37.529235493270846,
            55.699586454084354,
            283.0769230769231
          ],
          [
            37.52954736522829,
            55.6995901893633,
            283.0769230769231
          ],
          [
            37.52985923725906,
            55.699593923850436,
            283.0769230769231
          ],
          [
            37.530171109363174,
            55.69959765754576,
            283.0769230769231
          ],
          [
            37.530482981540594,
            55.69960139044929,
            283.0769230769231
          ],
          [
            37.53079485379131,
            55.69960512256101,
            283.0769230769231
          ],
          [
            37.53110672611532,
            55.69960885388093,
            283.0769230769231
          ],
          [
            37.53141859851259,
            55.69961258440904,
            283.0769230769231
          ],
          [
            37.531730470983106,
            55.699616314145345,
            283.0769230769231
          ],
          [
            37.53204234352686,
            55.699620043089844,
            283.0769230769231
          ],
          [
            37.53235421614384,
            55.699623771242535,
            283.0769230769231
          ],
          [
            37.53266608883402,
            55.69962749860343,
            283.0769230769231
          ],
          [
            37.53297796159739,
            55.699631225172496,
            283.0769230769231
          ],
          [
            37.53328983443393,
            55.69963495094977,
            283.0769230769231
          ],
          [
            37.533601707343635,
            55.69963867593523,
            283.0769230769231
          ],
          [
            37.53391358032648,
            55.69964240012889,
            283.0769230769231
          ],
          [
            37.53422545338245,
            55.69964612353073,
            283.0769230769231
          ],
          [
            37.534537326511526,
            55.69964984614076,
            283.0769230769231
          ],
          [
            37.53484919971371,
            55.699653567959,
            283.0769230769231
          ],
          [
            37.53516107298896,
            55.69965728898541,
            283.0769230769231
          ],
          [
            37.535472946337286,
            55.699661009220016,
            283.0769230769231
          ],
          [
            37.53578481975866,
            55.6996647286628,
            283.0769230769231
          ],
          [
            37.53609669325307,
            55.69966844731379,
            283.0769230769231
          ],
          [
            37.53640856682049,
            55.69967216517296,
            283.0769230769231
          ],
          [
            37.536720440460925,
            55.69967588224032,
            283.0769230769231
          ],
          [
            37.53703231417434,
            55.699679598515864,
            283.0769230769231
          ],
          [
            37.53734418796073,
            55.69968331399959,
            283.0769230769231
          ],
          [
            37.53765606182007,
            55.699687028691514,
            283.0769230769231
          ],
          [
            37.537967935752356,
            55.69969074259162,
            283.0769230769231
          ],
          [
            37.537973972158554,
            55.699529058329986,
            283.0769230769231
          ],
          [
            37.5379800085033,
            55.6993673740636,
            283.0769230769231
          ],
          [
            37.53798604478659,
            55.699205689792514,
            283.0769230769231
          ],
          [
            37.537992081008426,
            55.699044005516704,
            283.0769230769231
          ],
          [
            37.53799811716881,
            55.69888232123616,
            283.0769230769231
          ],
          [
            37.5376862496691,
            55.69887860744797,
            283.0769230769231
          ],
          [
            37.53737438224232,
            55.69887489286797,
            283.0769230769231
          ],
          [
            37.53706251488849,
            55.69887117749619,
            283.0769230769231
          ],
          [
            37.536750647607626,
            55.69886746133263,
            283.0769230769231
          ],
          [
            37.53643878039974,
            55.69886374437727,
            283.0769230769231
          ],
          [
            37.536126913264866,
            55.698860026630115,
            283.0769230769231
          ],
          [
            37.53581504620299,
            55.69885630809119,
            283.0769230769231
          ],
          [
            37.53550317921415,
            55.69885258876047,
            283.0769230769231
          ],
          [
            37.53519131229836,
            55.69884886863795,
            283.0769230769231
          ],
          [
            37.53487944545562,
            55.69884514772366,
            283.0769230769231
          ],
          [
            37.534567578685966,
            55.69884142601759,
            283.0769230769231
          ],
          [
            37.53425571198939,
            55.69883770351971,
            283.0769230769231
          ],
          [
            37.533943845365926,
            55.698833980230056,
            283.0769230769231
          ],
          [
            37.53363197881559,
            55.69883025614862,
            283.0769230769231
          ],
          [
            37.53332011233839,
            55.69882653127539,
            283.0769230769231
          ],
          [
            37.53300824593433,
            55.69882280561039,
            283.0769230769231
          ],
          [
            37.53269637960345,
            55.698819079153594,
            283.0769230769231
          ],
          [
            37.53238451334575,
            55.69881535190502,
            283.0769230769231
          ],
          [
            37.53207264716125,
            55.698811623864664,
            283.0769230769231
          ],
          [
            37.53176078104997,
            55.698807895032516,
            283.0769230769231
          ],
          [
            37.531448915011914,
            55.6988041654086,
            283.0769230769231
          ],
          [
            37.53113704904711,
            55.69880043499289,
            283.0769230769231
          ],
          [
            37.530825183155564,
            55.698796703785405,
            283.0769230769231
          ],
          [
            37.530513317337295,
            55.69879297178613,
            283.0769230769231
          ],
          [
            37.53020145159232,
            55.69878923899508,
            283.0769230769231
          ],
          [
            37.52988958592065,
            55.69878550541226,
            283.0769230769231
          ],
          [
            37.52957772032231,
            55.698781771037645,
            283.0769230769231
          ],
          [
            37.5292658547973,
            55.69877803587126,
            283.0769230769231
          ],
          [
            37.52895398934566,
            55.69877429991309,
            283.0769230769231
          ],
          [
            37.52864212396737,
            55.69877056316313,
            283.0769230769231
          ],
          [
            37.528330258662486,
            55.69876682562142,
            283.0769230769231
          ],
          [
            37.52801839343099,
            55.698763087287915,
            283.0769230769231
          ],
          [
            37.527706528272915,
            55.69875934816264,
            283.0769230769231
          ],
          [
            37.52739466318827,
            55.69875560824558,
            283.0769230769231
          ],
          [
            37.52708279817708,
            55.69875186753674,
            283.0769230769231
          ],
          [
            37.52677093323935,
            55.69874812603613,
            283.0769230769231
          ],
          [
            37.5264590683751,
            55.698744383743744,
            283.0769230769231
          ],
          [
            37.52614720358434,
            55.69874064065959,
            283.0769230769231
          ],
          [
            37.52583533886709,
            55.69873689678364,
            283.0769230769231
          ],
          [
            37.52552347422337,
            55.69873315211593,
            283.0769230769231
          ],
          [
            37.52521160965319,
            55.69872940665645,
            283.0769230769231
          ],
          [
            37.52489974515656,
            55.69872566040519,
            283.0769230769231
          ],
          [
            37.52458788073351,
            55.69872191336216,
            283.0769230769231
          ],
          [
            37.52427601638405,
            55.69871816552734,
            283.0769230769231
          ],
          [
            37.523964152108185,
            55.69871441690076,
            283.0769230769231
          ],
          [
            37.52365228790594,
            55.698710667482416,
            283.0769230769231
          ],
          [
            37.523340423777334,
            55.6987069172723,
            283.0769230769231
          ],
          [
            37.52302855972237,
            55.6987031662704,
            283.0769230769231
          ],
          [
            37.52271669574108,
            55.69869941447673,
            283.0769230769231
          ],
          [
            37.52240483183347,
            55.69869566189129,
            283.0769230769231
          ],
          [
            37.522092967999555,
            55.698691908514085,
            283.0769230769231
          ],
          [
            37.52209906970738,
            55.69853022537632,
            283.0769230769231
          ],
          [
            37.52210517135309,
            55.698368542233816,
            283.0769230769231
          ],
          [
            37.52211127293669,
            55.69820685908659,
            283.0769230769231
          ],
          [
            37.52211737445817,
            55.69804517593463,
            283.0769230769231
          ],
          [
            37.52212347591753,
            55.69788349277795,
            283.0769230769231
          ],
          [
            37.522435333319464,
            55.697887246042065,
            283.0769230769231
          ],
          [
            37.52274719079509,
            55.697890998514424,
            283.0769230769231
          ],
          [
            37.523059048344386,
            55.697894750195054,
            283.0769230769231
          ],
          [
            37.52337090596733,
            55.69789850108393,
            283.0769230769231
          ],
          [
            37.523682763663935,
            55.697902251181056,
            283.0769230769231
          ],
          [
            37.52399462143417,
            55.697906000486434,
            283.0769230769231
          ],
          [
            37.52430647927802,
            55.69790974900007,
            283.0769230769231
          ],
          [
            37.524618337195456,
            55.69791349672195,
            283.0769230769231
          ],
          [
            37.524930195186485,
            55.69791724365208,
            283.0769230769231
          ],
          [
            37.52524205325108,
            55.69792098979046,
            283.0769230769231
          ],
          [
            37.525553911389224,
            55.69792473513709,
            283.0769230769231
          ],
          [
            37.5258657696009,
            55.697928479691974,
            283.0769230769231
          ],
          [
            37.5261776278861,
            55.697932223455105,
            283.0769230769231
          ],
          [
            37.5264894862448,
            55.69793596642648,
            283.0769230769231
          ],
          [
            37.526801344677,
            55.697939708606114,
            283.0769230769231
          ],
          [
            37.527113203182665,
            55.69794344999399,
            283.0769230769231
          ],
          [
            37.5274250617618,
            55.69794719059011,
            283.0769230769231
          ],
          [
            37.52773692041436,
            55.697950930394484,
            283.0769230769231
          ],
          [
            37.528048779140356,
            55.69795466940709,
            283.0769230769231
          ],
          [
            37.52836063793976,
            55.69795840762796,
            283.0769230769231
          ],
          [
            37.528672496812575,
            55.69796214505707,
            283.0769230769231
          ],
          [
            37.52898435575876,
            55.69796588169444,
            283.0769230769231
          ],
          [
            37.529296214778306,
            55.697969617540025,
            283.0769230769231
          ],
          [
            37.52960807387121,
            55.69797335259387,
            283.0769230769231
          ],
          [
            37.52991993303744,
            55.69797708685596,
            283.0769230769231
          ],
          [
            37.53023179227699,
            55.69798082032629,
            283.0769230769231
          ],
          [
            37.53054365158985,
            55.697984553004865,
            283.0769230769231
          ],
          [
            37.530855510976,
            55.697988284891686,
            283.0769230769231
          ],
          [
            37.53116737043541,
            55.697992015986756,
            283.0769230769231
          ],
          [
            37.531479229968085,
            55.69799574629006,
            283.0769230769231
          ],
          [
            37.531791089574,
            55.6979994758016,
            283.0769230769231
          ],
          [
            37.53210294925314,
            55.698003204521385,
            283.0769230769231
          ],
          [
            37.532414809005495,
            55.69800693244942,
            283.0769230769231
          ],
          [
            37.53272666883104,
            55.698010659585684,
            283.0769230769231
          ],
          [
            37.533038528729755,
            55.6980143859302,
            283.0769230769231
          ],
          [
            37.53335038870164,
            55.69801811148295,
            283.0769230769231
          ],
          [
            37.53366224874667,
            55.69802183624394,
            283.0769230769231
          ],
          [
            37.53397410886484,
            55.69802556021317,
            283.0769230769231
          ],
          [
            37.53428596905612,
            55.69802928339064,
            283.0769230769231
          ],
          [
            37.53459782932051,
            55.69803300577634,
            283.0769230769231
          ],
          [
            37.53490968965798,
            55.69803672737029,
            283.0769230769231
          ],
          [
            37.53522155006852,
            55.69804044817247,
            283.0769230769231
          ],
          [
            37.53553341055212,
            55.69804416818289,
            283.0769230769231
          ],
          [
            37.535845271108755,
            55.69804788740153,
            283.0769230769231
          ],
          [
            37.53615713173841,
            55.69805160582843,
            283.0769230769231
          ],
          [
            37.53646899244107,
            55.69805532346355,
            283.0769230769231
          ],
          [
            37.53678085321673,
            55.69805904030692,
            283.0769230769231
          ],
          [
            37.53709271406537,
            55.698062756358524,
            283.0769230769231
          ],
          [
            37.537404574986965,
            55.69806647161835,
            283.0769230769231
          ],
          [
            37.537716435981515,
            55.69807018608642,
            283.0769230769231
          ],
          [
            37.53802829704899,
            55.69807389976271,
            283.0769230769231
          ],
          [
            37.538034332840674,
            55.697912215453854,
            283.0769230769231
          ],
          [
            37.53804036857092,
            55.6977505311403,
            283.0769230769231
          ],
          [
            37.538046404239715,
            55.697588846822,
            283.0769230769231
          ],
          [
            37.53805243984707,
            55.697427162499004,
            283.0769230769231
          ],
          [
            37.53805847539298,
            55.69726547817127,
            283.0769230769231
          ],
          [
            37.53774662075742,
            55.69726176460686,
            283.0769230769231
          ],
          [
            37.537434766194785,
            55.69725805025072,
            283.0769230769231
          ],
          [
            37.53712291170509,
            55.697254335102826,
            283.0769230769231
          ],
          [
            37.536811057288354,
            55.697250619163185,
            283.0769230769231
          ],
          [
            37.53649920294459,
            55.69724690243182,
            283.0769230769231
          ],
          [
            37.536187348673806,
            55.69724318490871,
            283.0769230769231
          ],
          [
            37.53587549447603,
            55.69723946659386,
            283.0769230769231
          ],
          [
            37.53556364035128,
            55.69723574748727,
            283.0769230769231
          ],
          [
            37.53525178629956,
            55.69723202758894,
            283.0769230769231
          ],
          [
            37.53493993232089,
            55.697228306898865,
            283.0769230769231
          ],
          [
            37.534628078415274,
            55.697224585417054,
            283.0769230769231
          ],
          [
            37.53431622458275,
            55.69722086314351,
            283.0769230769231
          ],
          [
            37.534004370823325,
            55.697217140078216,
            283.0769230769231
          ],
          [
            37.533692517137,
            55.6972134162212,
            283.0769230769231
          ],
          [
            37.533380663523815,
            55.69720969157243,
            283.0769230769231
          ],
          [
            37.53306880998376,
            55.697205966131946,
            283.0769230769231
          ],
          [
            37.53275695651687,
            55.6972022398997,
            283.0769230769231
          ],
          [
            37.53244510312316,
            55.69719851287574,
            283.0769230769231
          ],
          [
            37.532133249802634,
            55.697194785060034,
            283.0769230769231
          ],
          [
            37.53182139655531,
            55.697191056452596,
            283.0769230769231
          ],
          [
            37.53150954338121,
            55.69718732705341,
            283.0769230769231
          ],
          [
            37.531197690280344,
            55.697183596862516,
            283.0769230769231
          ],
          [
            37.53088583725273,
            55.69717986587987,
            283.0769230769231
          ],
          [
            37.530573984298385,
            55.69717613410549,
            283.0769230769231
          ],
          [
            37.53026213141732,
            55.69717240153938,
            283.0769230769231
          ],
          [
            37.529950278609554,
            55.69716866818154,
            283.0769230769231
          ],
          [
            37.5296384258751,
            55.69716493403197,
            283.0769230769231
          ],
          [
            37.52932657321397,
            55.697161199090665,
            283.0769230769231
          ],
          [
            37.52901472062619,
            55.69715746335763,
            283.0769230769231
          ],
          [
            37.52870286811178,
            55.69715372683286,
            283.0769230769231
          ],
          [
            37.528391015670735,
            55.69714998951637,
            283.0769230769231
          ],
          [
            37.52807916330308,
            55.69714625140813,
            283.0769230769231
          ],
          [
            37.52776731100884,
            55.69714251250818,
            283.0769230769231
          ],
          [
            37.52745545878801,
            55.69713877281649,
            283.0769230769231
          ],
          [
            37.52714360664063,
            55.697135032333065,
            283.0769230769231
          ],
          [
            37.52683175456669,
            55.697131291057914,
            283.0769230769231
          ],
          [
            37.526519902566235,
            55.697127548991055,
            283.0769230769231
          ],
          [
            37.526208050639255,
            55.697123806132446,
            283.0769230769231
          ],
          [
            37.52589619878577,
            55.69712006248212,
            283.0769230769231
          ],
          [
            37.525584347005804,
            55.69711631804006,
            283.0769230769231
          ],
          [
            37.52527249529937,
            55.697112572806276,
            283.0769230769231
          ],
          [
            37.52496064366648,
            55.69710882678077,
            283.0769230769231
          ],
          [
            37.524648792107165,
            55.697105079963535,
            283.0769230769231
          ],
          [
            37.52433694062142,
            55.69710133235457,
            283.0769230769231
          ],
          [
            37.52402508920926,
            55.697097583953884,
            283.0769230769231
          ],
          [
            37.523713237870716,
            55.69709383476147,
            283.0769230769231
          ],
          [
            37.52340138660579,
            55.697090084777344,
            283.0769230769231
          ],
          [
            37.523089535414506,
            55.69708633400148,
            283.0769230769231
          ],
          [
            37.522777684296884,
            55.69708258243389,
            283.0769230769231
          ],
          [
            37.52246583325292,
            55.697078830074595,
            283.0769230769231
          ],
          [
            37.52215398228265,
            55.697075076923575,
            283.0769230769231
          ],
          [
            37.52188534938216,
            55.69716620130058,
            283.0769230769231
          ],
          [
            37.5216167152382,
            55.697257325081544,
            283.0769230769231
          ],
          [
            37.521348079850775,
            55.697348448266425,
            283.0769230769231
          ],
          [
            37.52107944321989,
            55.69743957085524,
            283.0769230769231
          ],
          [
            37.520810805345526,
            55.69753069284797,
            283.0769230769231
          ],
          [
            37.5205421662277,
            55.6976218142446,
            283.0769230769231
          ],
          [
            37.5202735258664,
            55.69771293504514,
            283.0769230769231
          ],
          [
            37.52000488426164,
            55.69780405524958,
            283.0769230769231
          ],
          [
            37.5197362414134,
            55.697895174857905,
            283.0769230769231
          ],
          [
            37.5194675973217,
            55.69798629387012,
            283.0769230769231
          ],
          [
            37.51919895198652,
            55.69807741228623,
            283.0769230769231
          ],
          [
            37.518930305407864,
            55.698168530106194,
            283.0769230769231
          ],
          [
            37.518661657585746,
            55.69825964733004,
            283.0769230769231
          ],
          [
            37.51839300852015,
            55.69835076395775,
            283.0769230769231
          ],
          [
            37.518124358211075,
            55.69844187998931,
            283.0769230769231
          ],
          [
            37.51785570665853,
            55.69853299542473,
            283.0769230769231
          ],
          [
            37.51758705386251,
            55.69862411026401,
            283.0769230769231
          ],
          [
            37.51731839982301,
            55.6987152245071,
            283.0769230769231
          ],
          [
            37.51704974454003,
            55.69880633815402,
            283.0769230769231
          ],
          [
            37.51678108801358,
            55.698897451204786,
            283.0769230769231
          ],
          [
            37.51651243024365,
            55.69898856365937,
            283.0769230769231
          ],
          [
            37.516243771230236,
            55.69907967551778,
            283.0769230769231
          ],
          [
            37.51597511097334,
            55.69917078677998,
            283.0769230769231
          ],
          [
            37.51570644947298,
            55.69926189744599,
            283.0769230769231
          ],
          [
            37.51543778672912,
            55.6993530075158,
            283.0769230769231
          ],
          [
            37.515169122741796,
            55.69944411698942,
            283.0769230769231
          ],
          [
            37.51490045751097,
            55.6995352258668,
            283.0769230769231
          ],
          [
            37.51463179103667,
            55.699626334147965,
            283.0769230769231
          ],
          [
            37.51436312331889,
            55.69971744183291,
            283.0769230769231
          ],
          [
            37.51409445435762,
            55.699808548921624,
            283.0769230769231
          ],
          [
            37.51409445435762,
            55.699808548921624,
            160.0
          ]
        ]
      },
      "properties": {
        "id": "U01_S1",
        "uav_id": "U01",
        "index": 1,
        "start_site": "BASE",
        "landing_site": "BASE",
        "t_start": "2026-06-15T08:30:00+03:00",
        "t_end": "2026-06-15T08:49:25.875177+03:00",
        "flight_time_s": 1165.875177,
        "distance_m": 9811.90524155063
      }
    }
  ]
}
