{
  "type": "FeatureCollection",
  "features": [
    {
      "type": "Feature",
      "geometry": {
        "type": "Polygon",
        "coordinates": [
          [
            [
              37.46307250455571,
              55.68210599996538
            ],
            [
              37.46173232143763,
              55.71623816704626
            ],
            [
              37.59698912223932,
              55.71785777705618
            ],
            [
              37.59821156438148,
              55.6837235507517
            ],
            [
              37.46307250455571,
              55.68210599996538
            ]
          ]
        ]
      },
      "properties": {
        "id": "ALLOWED"
      }
    }
  ]
}
