{
  "type": "FeatureCollection",
  "features": [
    {
      "type": "Feature",
      "geometry": {
        "type": "Polygon",
        "coordinates": [
          [
            [
              37.49760802887873,
              55.69817008775249
            ],
            [
              37.49749774895873,
              55.701044422124895
            ],
            [
              37.49240789296219,
              55.700982034101514
            ],
            [
              37.492518546120635,
              55.69810770641262
            ],
            [
              37.49760802887873,
              55.69817008775249
            ]
          ]
        ]
      },
      "properties": {
        "id": "JOB_RGB",
        "survey_type": "rgb",
        "payload_profile": "RGB"
      }
    },
    {
      "type": "Feature",
      "geometry": {
        "type": "Polygon",
        "coordinates": [
          [
            [
              37.51510327765215,
              55.698382915289216
            ],
            [
              37.51499428077688,
              55.701257272464034
            ],
            [
              37.509904356444146,
              55.70119560939692
            ],
            [
              37.510013726574776,
              55.69832125882803
            ],
            [
              37.51510327765215,
              55.698382915289216
            ]
          ]
        ]
      },
      "properties": {
        "id": "JOB_MULTISPECTRAL",
        "survey_type": "multispectral",
        "payload_profile": "MULTISPECTRAL"
      }
    },
    {
      "type": "Feature",
      "geometry": {
        "type": "Polygon",
        "coordinates": [
          [
            [
              37.5325987595041,
              55.69859325100928
            ],
            [
              37.53249104573131,
              55.70146763071978
            ],
            [
              37.52740105385986,
              55.701406692629746
            ],
            [
              37.52750914090474,
              55.698532319447565
            ],
            [
              37.5325987595041,
              55.69859325100928
            ]
          ]
        ]
      },
      "properties": {
        "id": "JOB_THERMAL",
        "survey_type": "thermal",
        "payload_profile": "THERMAL"
      }
    },
    {
      "type": "Feature",
      "geometry": {
        "type": "Polygon",
        "coordinates": [
          [
            [
              37.550094471693725,
              55.69880109484162
            ],
            [
              37.549988041080496,
              55.70167549682106
            ],
            [
              37.54489798246789,
              55.70161528372869
            ],
            [
              37.54500478636975,
              55.69874088819998
            ],
            [
              37.550094471693725,
              55.69880109484162
            ]
          ]
        ]
      },
      "properties": {
        "id": "JOB_LIDAR",
        "survey_type": "lidar",
        "payload_profile": "LIDAR"
      }
    },
    {
      "type": "Feature",
      "geometry": {
        "type": "Polygon",
        "coordinates": [
          [
            [
              37.567590411479976,
              55.699006446716034
            ],
            [
              37.56748526408269,
              55.701880870697636
            ],
            [
              37.56239513952655,
              55.70182138262329
            ],
            [
              37.5625006602288,
              55.69894696501479
            ],
            [
              37.567590411479976,
              55.699006446716034
            ]
          ]
        ]
      },
      "properties": {
        "id": "JOB_GEOPHYSICS",
        "survey_type": "geophysics",
        "payload_profile": "GEOPHYSICS"
      }
    }
  ]
}
