<?xml version='1.0' encoding='utf-8'?>
<kml xmlns="http://www.opengis.net/kml/2.2"><Document><Placemark><name>U01_S1</name><LineString><altitudeMode>absolute</altitudeMode><coordinates>37.50932282816219,55.69975071200104,160.0 37.50932282816219,55.69975071200104,283.0769230769231 37.50960410592977,55.69982633941322,283.0769230769231 37.50988538479261,55.69990196618629,283.0769230769231 37.51016666475072,55.69997759232025,283.0769230769231 37.51044794580408,55.70005321781509,283.0769230769231 37.51072922795271,55.70012884267081,283.0769230769231 37.51101051119659,55.700204466887385,283.0769230769231 37.51129179553571,55.70028009046485,283.0769230769231 37.51157308097008,55.70035571340317,283.0769230769231 37.511854367499694,55.700431335702326,283.0769230769231 37.512135655124546,55.70050695736234,283.0769230769231 37.512416943844634,55.70058257838323,283.0769230769231 37.512698233659954,55.70065819876492,283.0769230769231 37.5129795245705,55.70073381850745,283.0769230769231 37.51326081657627,55.70080943761081,283.0769230769231 37.51354210967726,55.70088505607501,283.0769230769231 37.513823403873474,55.70096067390001,283.0769230769231 37.514104699164896,55.70103629108581,283.0769230769231 37.51438599555153,55.701111907632445,283.0769230769231 37.51466729303336,55.70118752353986,283.0769230769231 37.514948591610406,55.70126313880809,283.0769230769231 37.51522989128266,55.70133875343708,283.0769230769231 37.5155111920501,55.70141436742686,283.0769230769231 37.51579249391273,55.70148998077744,283.0769230769231 37.51607379687054,55.701565593488766,283.0769230769231 37.516355100923555,55.701641205560875,283.0769230769231 37.51663640607175,55.70171681699375,283.0769230769231 37.51691771231512,55.70179242778737,283.0769230769231 37.51719901965366,55.70186803794174,283.0769230769231 37.51751321837396,55.7018718317798,283.0769230769231 37.51782741716933,55.70187562481421,283.0769230769231 37.51814161603973,55.70187941704499,283.0769230769231 37.51845581498515,55.70188320847215,283.0769230769231 37.518770014005575,55.70188699909565,283.0769230769231 37.519084213100996,55.70189078891552,283.0769230769231 37.51939841227139,55.70189457793177,283.0769230769231 37.519712611516745,55.70189836614438,283.0769230769231 37.52002681083704,55.70190215355334,283.0769230769231 37.520341010232265,55.70190594015868,283.0769230769231 37.5206552097024,55.701909725960356,283.0769230769231 37.52096940924743,55.701913510958406,283.0769230769231 37.521283608867336,55.701917295152825,283.0769230769231 37.521597808562106,55.701921078543606,283.0769230769231 37.521912008331725,55.70192486113074,283.0769230769231 37.52222620817618,55.70192864291423,283.0769230769231 37.522540408095445,55.70193242389409,283.0769230769231 37.52285460808951,55.7019362040703,283.0769230769231 37.52316880815836,55.70193998344288,283.0769230769231 37.52348300830199,55.70194376201181,283.0769230769231 37.52379720852036,55.7019475397771,283.0769230769231 37.52411140881346,55.70195131673874,283.0769230769231 37.52442560918129,55.701955092896746,283.0769230769231 37.52473980962383,55.70195886825111,283.0769230769231 37.52505401014105,55.70196264280183,283.0769230769231 37.52536821073295,55.701966416548906,283.0769230769231 37.5256824113995,55.701970189492336,283.0769230769231 37.525996612140695,55.70197396163211,283.0769230769231 37.52631081295652,55.70197773296825,283.0769230769231 37.526625013846946,55.70198150350075,283.0769230769231 37.52693921481197,55.701985273229596,283.0769230769231 37.52725341585157,55.70198904215479,283.0769230769231 37.52756761696573,55.70199281027635,283.0769230769231 37.527881818154434,55.70199657759426,283.0769230769231 37.52819601941768,55.70200034410852,283.0769230769231 37.52851022075543,55.70200410981912,283.0769230769231 37.52882442216768,55.702007874726085,283.0769230769231 37.52913862365442,55.702011638829404,283.0769230769231 37.529452825215614,55.702015402129064,283.0769230769231 37.52976702685127,55.70201916462508,283.0769230769231 37.53008122856135,55.70202292631744,283.0769230769231 37.530395430345855,55.70202668720615,283.0769230769231 37.53070963220477,55.702030447291214,283.0769230769231 37.53102383413806,55.70203420657262,283.0769230769231 37.53133803614573,55.70203796505039,283.0769230769231 37.53165223822775,55.70204172272449,283.0769230769231 37.53196644038411,55.70204547959494,283.0769230769231 37.53228064261479,55.70204923566175,283.0769230769231 37.53259484491979,55.70205299092489,283.0769230769231 37.53290904729907,55.702056745384375,283.0769230769231 37.53322324975264,55.70206049904022,283.0769230769231 37.533537452280456,55.7020642518924,283.0769230769231 37.533851654882525,55.702068003940944,283.0769230769231 37.53416585755882,55.70207175518581,283.0769230769231 37.53448006030933,55.70207550562703,283.0769230769231 37.53479426313403,55.70207925526459,283.0769230769231 37.53510846603291,55.70208300409849,283.0769230769231 37.53542266900597,55.70208675212874,283.0769230769231 37.535736872053164,55.70209049935533,283.0769230769231 37.5360510751745,55.70209424577827,283.0769230769231 37.53636527836995,55.70209799139754,283.0769230769231 37.536679481639496,55.70210173621316,283.0769230769231 37.53699368498314,55.70210548022511,283.0769230769231 37.53730788840083,55.7021092234334,283.0769230769231 37.537622091892594,55.70211296583803,283.0769230769231 37.537936295458394,55.70211670743901,283.0769230769231 37.53825049909821,55.70212044823633,283.0769230769231 37.538564702812046,55.70212418822997,283.0769230769231 37.538878906599855,55.70212792741997,283.0769230769231 37.539193110461646,55.7021316658063,283.0769230769231 37.5395073143974,55.70213540338897,283.0769230769231 37.53982151840709,55.70213914016797,283.0769230769231 37.54013572249071,55.70214287614331,283.0769230769231 37.540449926648236,55.70214661131499,283.0769230769231 37.540764130879666,55.70215034568301,283.0769230769231 37.54107833518497,55.70215407924735,283.0769230769231 37.54139253956413,55.702157812008025,283.0769230769231 37.54170674401715,55.702161543965055,283.0769230769231 37.54202094854399,55.7021652751184,283.0769230769231 37.542335153144656,55.702169005468086,283.0769230769231 37.54264935781912,55.70217273501411,283.0769230769231 37.54265537546006,55.702011050481374,283.0769230769231 37.54266139303973,55.70184936594392,283.0769230769231 37.54266741055813,55.70168768140174,283.0769230769231 37.54267342801527,55.701525996854855,283.0769230769231 37.542679445411146,55.701364312303255,283.0769230769231 37.542365247217965,55.701360582869604,283.0769230769231 37.54205104909858,55.70135685263232,283.0769230769231 37.54173685105301,55.7013531215914,283.0769230769231 37.54142265308126,55.701349389746845,283.0769230769231 37.541108455183355,55.701345657098635,283.0769230769231 37.54079425735931,55.70134192364678,283.0769230769231 37.540480059609145,55.7013381893913,283.0769230769231 37.54016586193286,55.70133445433217,283.0769230769231 37.539851664330484,55.7013307184694,283.0769230769231 37.53953746680203,55.701326981803,283.0769230769231 37.53922326934751,55.701323244332954,283.0769230769231 37.53890907196695,55.70131950605927,283.0769230769231 37.538594874660355,55.70131576698195,283.0769230769231 37.53828067742774,55.701312027101,283.0769230769231 37.537966480269134,55.7013082864164,283.0769230769231 37.53765228318454,55.70130454492817,283.0769230769231 37.53733808617399,55.7013008026363,283.0769230769231 37.537023889237474,55.70129705954079,283.0769230769231 37.536709692375034,55.70129331564166,283.0769230769231 37.536395495586675,55.701289570938876,283.0769230769231 37.5360812988724,55.70128582543247,283.0769230769231 37.53576710223224,55.70128207912242,283.0769230769231 37.53545290566621,55.70127833200875,283.0769230769231 37.53513870917433,55.70127458409144,283.0769230769231 37.53482451275661,55.7012708353705,283.0769230769231 37.534510316413055,55.70126708584592,283.0769230769231 37.5341961201437,55.701263335517716,283.0769230769231 37.53388192394855,55.70125958438588,283.0769230769231 37.533567727827624,55.7012558324504,283.0769230769231 37.533253531780936,55.70125207971131,283.0769230769231 37.5329393358085,55.70124832616857,283.0769230769231 37.53262513991034,55.7012445718222,283.0769230769231 37.53231094408647,55.70124081667222,283.0769230769231 37.531996748336894,55.70123706071859,283.0769230769231 37.53168255266164,55.70123330396134,283.0769230769231 37.53136835706072,55.70122954640047,283.0769230769231 37.53105416153416,55.701225788035956,283.0769230769231 37.53073996608195,55.70122202886782,283.0769230769231 37.530425770704134,55.70121826889606,283.0769230769231 37.53011157540071,55.70121450812067,283.0769230769231 37.5297973801717,55.70121074654166,283.0769230769231 37.52948318501713,55.701206984159015,283.0769230769231 37.52916898993699,55.70120322097275,283.0769230769231 37.52885479493132,55.701199456982856,283.0769230769231 37.52854060000013,55.701195692189344,283.0769230769231 37.52822640514342,55.7011919265922,283.0769230769231 37.52791221036123,55.701188160191435,283.0769230769231 37.52759801565357,55.701184392987045,283.0769230769231 37.52728382102043,55.70118062497903,283.0769230769231 37.52696962646186,55.7011768561674,283.0769230769231 37.526655431977865,55.701173086552146,283.0769230769231 37.52634123756847,55.70116931613326,283.0769230769231 37.52602704323366,55.701165544910765,283.0769230769231 37.52571284897347,55.70116177288464,283.0769230769231 37.52539865478792,55.70115800005489,283.0769230769231 37.52508446067703,55.70115422642154,283.0769230769231 37.5247702666408,55.701150451984546,283.0769230769231 37.52445607267926,55.70114667674395,283.0769230769231 37.524141878792406,55.70114290069973,283.0769230769231 37.523827684980276,55.70113912385189,283.0769230769231 37.52351349124288,55.70113534620043,283.0769230769231 37.52319929758023,55.701131567745364,283.0769230769231 37.522885103992344,55.701127788486666,283.0769230769231 37.52257091047923,55.70112400842436,283.0769230769231 37.52225671704092,55.70112022755843,283.0769230769231 37.52194252367741,55.701116445888886,283.0769230769231 37.52162833038873,55.70111266341573,283.0769230769231 37.5213141371749,55.70110888013895,283.0769230769231 37.52099994403592,55.70110509605857,283.0769230769231 37.52068575097182,55.70110131117456,283.0769230769231 37.52037155798261,55.701097525486944,283.0769230769231 37.5200573650683,55.701093738995716,283.0769230769231 37.519743172228914,55.70108995170087,283.0769230769231 37.519428979464465,55.70108616360241,283.0769230769231 37.51911478677497,55.70108237470034,283.0769230769231 37.518800594160446,55.70107858499467,283.0769230769231 37.51848640162091,55.70107479448537,283.0769230769231 37.518172209156376,55.701071003172466,283.0769230769231 37.51785801676685,55.701067211055936,283.0769230769231 37.51754382445237,55.701063418135824,283.0769230769231 37.517229632212924,55.70105962441208,283.0769230769231 37.51723575453778,55.70089794169196,283.0769230769231 37.517241876800306,55.7007362589671,283.0769230769231 37.517247999000496,55.70057457623751,283.0769230769231 37.51725412113836,55.70041289350319,283.0769230769231 37.51726024321389,55.70025121076413,283.0769230769231 37.51757442897279,55.70025500437355,283.0769230769231 37.517888614806736,55.70025879717939,283.0769230769231 37.518202800715706,55.70026258918165,283.0769230769231 37.518516986699694,55.70026638038031,283.0769230769231 37.51883117275867,55.70027017077538,283.0769230769231 37.51914535889262,55.70027396036688,283.0769230769231 37.519459545101554,55.70027774915478,283.0769230769231 37.51977373138542,55.700281537139105,283.0769230769231 37.52008791774423,55.700285324319836,283.0769230769231 37.52040210417794,55.70028911069696,283.0769230769231 37.520716290686565,55.700292896270504,283.0769230769231 37.52103047727007,55.70029668104046,283.0769230769231 37.521344663928446,55.70030046500683,283.0769230769231 37.521658850661666,55.70030424816962,283.0769230769231 37.521973037469735,55.700308030528795,283.0769230769231 37.522287224352624,55.700311812084394,283.0769230769231 37.52260141131032,55.70031559283639,283.0769230769231 37.5229155983428,55.700319372784804,283.0769230769231 37.523229785450056,55.700323151929624,283.0769230769231 37.52354397263206,55.70032693027084,283.0769230769231 37.52385815988882,55.700330707808476,283.0769230769231 37.5241723472203,55.70033448454251,283.0769230769231 37.52448653462649,55.70033826047295,283.0769230769231 37.52480072210738,55.700342035599796,283.0769230769231 37.52511490966294,55.70034580992305,283.0769230769231 37.52542909729316,55.70034958344271,283.0769230769231 37.52574328499804,55.70035335615877,283.0769230769231 37.526057472777545,55.70035712807123,283.0769230769231 37.52637166063167,55.70036089918009,283.0769230769231 37.52668584856038,55.70036466948537,283.0769230769231 37.527000036563685,55.70036843898704,283.0769230769231 37.52731422464156,55.700372207685106,283.0769230769231 37.52762841279397,55.70037597557959,283.0769230769231 37.52794260102093,55.700379742670464,283.0769230769231 37.528256789322405,55.700383508957735,283.0769230769231 37.52857097769838,55.70038727444142,283.0769230769231 37.52888516614885,55.70039103912149,283.0769230769231 37.52919935467379,55.70039480299797,283.0769230769231 37.52951354327319,55.700398566070845,283.0769230769231 37.52982773194702,55.70040232834012,283.0769230769231 37.53014192069528,55.70040608980579,283.0769230769231 37.53045610951795,55.70040985046785,283.0769230769231 37.530770298415014,55.700413610326315,283.0769230769231 37.53108448738646,55.70041736938119,283.0769230769231 37.531398676432254,55.70042112763245,283.0769230769231 37.5317128655524,55.700424885080096,283.0769230769231 37.53202705474688,55.70042864172416,283.0769230769231 37.53234124401566,55.700432397564605,283.0769230769231 37.53265543335875,55.70043615260145,283.0769230769231 37.532969622776115,55.70043990683468,283.0769230769231 37.53328381226775,55.70044366026431,283.0769230769231 37.53359800183363,55.70044741289033,283.0769230769231 37.533912191473746,55.70045116471275,283.0769230769231 37.53422638118808,55.70045491573156,283.0769230769231 37.53454057097662,55.70045866594677,283.0769230769231 37.534854760839345,55.700462415358366,283.0769230769231 37.53516895077623,55.70046616396635,283.0769230769231 37.53548314078728,55.70046991177073,283.0769230769231 37.53579733087247,55.70047365877149,283.0769230769231 37.53611152103178,55.70047740496866,283.0769230769231 37.536425711265196,55.70048115036221,283.0769230769231 37.53673990157271,55.70048489495215,283.0769230769231 37.53705409195429,55.70048863873847,283.0769230769231 37.53736828240993,55.70049238172119,283.0769230769231 37.537682472939615,55.700496123900294,283.0769230769231 37.53799666354333,55.70049986527579,283.0769230769231 37.53831085422106,55.700503605847665,283.0769230769231 37.538625044972775,55.70050734561594,283.0769230769231 37.53893923579848,55.70051108458059,283.0769230769231 37.539253426698146,55.700514822741624,283.0769230769231 37.53956761767176,55.700518560099056,283.0769230769231 37.53988180871931,55.70052229665286,283.0769230769231 37.54019599984077,55.70052603240307,283.0769230769231 37.54051019103613,55.70052976734965,283.0769230769231 37.54082438230538,55.700533501492615,283.0769230769231 37.541138573648496,55.70053723483196,283.0769230769231 37.541452765065465,55.7005409673677,283.0769230769231 37.54176695655628,55.70054469909981,283.0769230769231 37.5420811481209,55.70054843002831,283.0769230769231 37.54239533975934,55.70055216015319,283.0769230769231 37.54270953147156,55.700555889474465,283.0769230769231 37.542715548499864,55.70039420489454,283.0769230769231 37.5427215654669,55.700232520309925,283.0769230769231 37.542727582372684,55.70007083572058,283.0769230769231 37.542733599217215,55.69990915112652,283.0769230769231 37.54273961600048,55.69974746652775,283.0769230769231 37.54242543076888,55.69974373731885,283.0769230769231 37.542111245611075,55.69974000730636,283.0769230769231 37.54179706052705,55.69973627649029,283.0769230769231 37.54148287551686,55.69973254487061,283.0769230769231 37.54116869058049,55.699728812447354,283.0769230769231 37.540854505717974,55.699725079220485,283.0769230769231 37.54054032092932,55.69972134519004,283.0769230769231 37.54022613621455,55.699717610356004,283.0769230769231 37.539911951573664,55.69971387471837,283.0769230769231 37.5395977670067,55.699710138277155,283.0769230769231 37.539283582513654,55.69970640103233,283.0769230769231 37.53896939809456,55.699702662983924,283.0769230769231 37.538655213749415,55.699698924131944,283.0769230769231 37.538341029478254,55.69969518447635,283.0769230769231 37.53802684528109,55.69969144401718,283.0769230769231 37.53771266115792,55.69968770275442,283.0769230769231 37.53739847710877,55.69968396068808,283.0769230769231 37.53708429313367,55.699680217818155,283.0769230769231 37.53677010923261,55.69967647414462,283.0769230769231 37.53645592540564,55.69967272966751,283.0769230769231 37.53614174165274,55.69966898438682,283.0769230769231 37.535827557973946,55.699665238302536,283.0769230769231 37.53551337436927,55.69966149141468,283.0769230769231 37.53519919083873,55.69965774372322,283.0769230769231 37.534885007382336,55.69965399522818,283.0769230769231 37.534570824000106,55.69965024592957,283.0769230769231 37.534256640692064,55.69964649582737,283.0769230769231 37.53394245745822,55.699642744921576,283.0769230769231 37.53362827429858,55.69963899321221,283.0769230769231 37.53331409121317,55.69963524069926,283.0769230769231 37.53299990820201,55.69963148738273,283.0769230769231 37.53268572526511,55.699627733262616,283.0769230769231 37.53237154240248,55.69962397833891,283.0769230769231 37.53205735961414,55.69962022261163,283.0769230769231 37.53174317690013,55.699616466080776,283.0769230769231 37.53142899426042,55.699612708746336,283.0769230769231 37.53111481169506,55.69960895060832,283.0769230769231 37.53080062920406,55.69960519166673,283.0769230769231 37.53048644678742,55.69960143192155,283.0769230769231 37.53017226444518,55.6995976713728,283.0769230769231 37.529858082177334,55.699593910020454,283.0769230769231 37.52954389998391,55.69959014786455,283.0769230769231 37.52922971786492,55.69958638490507,283.0769230769231 37.52891553582039,55.699582621142,283.0769230769231 37.52860135385032,55.69957885657535,283.0769230769231 37.52828717195473,55.69957509120513,283.0769230769231 37.52797299013364,55.69957132503135,283.0769230769231 37.527658808387066,55.69956755805398,283.0769230769231 37.52734462671503,55.69956379027304,283.0769230769231 37.527030445117525,55.69956002168853,283.0769230769231 37.526716263594594,55.699556252300425,283.0769230769231 37.526402082146234,55.69955248210877,283.0769230769231 37.526087900772474,55.69954871111353,283.0769230769231 37.525773719473314,55.69954493931471,283.0769230769231 37.52545953824879,55.699541166712336,283.0769230769231 37.5251453570989,55.69953739330639,283.0769230769231 37.524831176023675,55.69953361909686,283.0769230769231 37.52451699502312,55.699529844083756,283.0769230769231 37.52420281409725,55.6995260682671,283.0769230769231 37.52388863324609,55.69952229164686,283.0769230769231 37.52357445246965,55.699518514223044,283.0769230769231 37.52326027176795,55.69951473599567,283.0769230769231 37.522946091140994,55.69951095696472,283.0769230769231 37.522631910588814,55.69950717713021,283.0769230769231 37.52231773011142,55.699503396492126,283.0769230769231 37.52200354970881,55.69949961505048,283.0769230769231 37.521689369381036,55.69949583280526,283.0769230769231 37.52137518912808,55.69949204975647,283.0769230769231 37.521061008949985,55.69948826590412,283.0769230769231 37.52074682884675,55.699484481248206,283.0769230769231 37.520432648818385,55.69948069578873,283.0769230769231 37.52011846886492,55.69947690952568,283.0769230769231 37.51980428898637,55.69947312245906,283.0769230769231 37.51949010918275,55.69946933458888,283.0769230769231 37.51917592945407,55.69946554591515,283.0769230769231 37.51886174980035,55.699461756437834,283.0769230769231 37.5185475702216,55.69945796615697,283.0769230769231 37.51823339071784,55.69945417507254,283.0769230769231 37.51791921128909,55.69945038318454,283.0769230769231 37.51760503193536,55.69944659049299,283.0769230769231 37.51729085265667,55.69944279699787,283.0769230769231 37.51729697435825,55.69928111423043,283.0769230769231 37.51730309599752,55.699119431458236,283.0769230769231 37.51730921757445,55.69895774868133,283.0769230769231 37.51731533908907,55.69879606589969,283.0769230769231 37.517321460541375,55.698634383113315,283.0769230769231 37.51763563334018,55.698638176494136,283.0769230769231 37.51794980621402,55.69864196907141,283.0769230769231 37.51826397916288,55.698645760845146,283.0769230769231 37.51857815218674,55.69864955181535,283.0769230769231 37.518892325285584,55.69865334198201,283.0769230769231 37.519206498459404,55.698657131345136,283.0769230769231 37.51952067170817,55.69866091990472,283.0769230769231 37.51983484503188,55.69866470766077,283.0769230769231 37.52014901843051,55.69866849461327,283.0769230769231 37.52046319190404,55.69867228076224,283.0769230769231 37.52077736545247,55.69867606610766,283.0769230769231 37.52109153907577,55.69867985064955,283.0769230769231 37.52140571277393,55.69868363438789,283.0769230769231 37.52171988654693,55.69868741732268,283.0769230769231 37.52203406039476,55.69869119945393,283.0769230769231 37.5223482343174,55.698694980781646,283.0769230769231 37.52266240831483,55.69869876130581,283.0769230769231 37.522976582387045,55.698702541026435,283.0769230769231 37.523290756534024,55.69870631994352,283.0769230769231 37.523604930755745,55.69871009805705,283.0769230769231 37.5239191050522,55.698713875367034,283.0769230769231 37.52423327942337,55.69871765187349,283.0769230769231 37.52454745386924,55.69872142757639,283.0769230769231 37.5248616283898,55.698725202475735,283.0769230769231 37.52517580298502,55.698728976571545,283.0769230769231 37.5254899776549,55.698732749863794,283.0769230769231 37.52580415239941,55.698736522352505,283.0769230769231 37.52611832721854,55.69874029403767,283.0769230769231 37.52643250211228,55.698744064919275,283.0769230769231 37.5267466770806,55.69874783499734,283.0769230769231 37.527060852123505,55.698751604271855,283.0769230769231 37.52737502724096,55.69875537274282,283.0769230769231 37.52768920243295,55.69875914041023,283.0769230769231 37.52800337769947,55.6987629072741,283.0769230769231 37.5283175530405,55.698766673334404,283.0769230769231 37.52863172845603,55.698770438591175,283.0769230769231 37.52894590394603,55.69877420304439,283.0769230769231 37.52926007951049,55.698777966694045,283.0769230769231 37.529574255149406,55.698781729540144,283.0769230769231 37.52988843086274,55.69878549158269,283.0769230769231 37.5302026066505,55.6987892528217,283.0769230769231 37.53051678251265,55.698793013257145,283.0769230769231 37.53083095844919,55.69879677288904,283.0769230769231 37.53114513446008,55.69880053171737,283.0769230769231 37.53145931054534,55.69880428974214,283.0769230769231 37.53177348670492,55.69880804696337,283.0769230769231 37.53208766293883,55.69881180338104,283.0769230769231 37.532401839247036,55.69881555899516,283.0769230769231 37.53271601562953,55.69881931380571,283.0769230769231 37.533030192086294,55.69882306781271,283.0769230769231 37.533344368617314,55.69882682101614,283.0769230769231 37.533658545222586,55.69883057341603,283.0769230769231 37.53397272190207,55.69883432501236,283.0769230769231 37.53428689865576,55.69883807580513,283.0769230769231 37.53460107548364,55.69884182579433,283.0769230769231 37.5349152523857,55.698845574979984,283.0769230769231 37.53522942936193,55.69884932336206,283.0769230769231 37.5355436064123,55.698853070940594,283.0769230769231 37.535857783536784,55.69885681771556,283.0769230769231 37.536171960735395,55.69886056368697,283.0769230769231 37.536486138008094,55.69886430885481,283.0769230769231 37.536800315354874,55.6988680532191,283.0769230769231 37.53711449277573,55.69887179677982,283.0769230769231 37.53742867027062,55.69887553953698,283.0769230769231 37.53774284783955,55.698879281490555,283.0769230769231 37.5380570254825,55.698883022640594,283.0769230769231 37.53837120319945,55.698886762987044,283.0769230769231 37.538685380990394,55.69889050252995,283.0769230769231 37.538999558855295,55.69889424126929,283.0769230769231 37.539313736794156,55.69889797920506,283.0769230769231 37.53962791480695,55.69890171633727,283.0769230769231 37.53994209289367,55.698905452665905,283.0769230769231 37.5402562710543,55.698909188190974,283.0769230769231 37.54057044928881,55.69891292291248,283.0769230769231 37.5408846275972,55.69891665683043,283.0769230769231 37.54119880597945,55.698920389944796,283.0769230769231 37.541512984435535,55.6989241222556,283.0769230769231 37.541827162965454,55.698927853762825,283.0769230769231 37.542141341569184,55.69893158446649,283.0769230769231 37.542455520246705,55.69893531436659,283.0769230769231 37.542769698998015,55.69893904346311,283.0769230769231 37.54277571541376,55.69877735883603,283.0769230769231 37.54278173176826,55.69861567420424,283.0769230769231 37.54278774806151,55.698453989567724,283.0769230769231 37.542793764293506,55.6982923049265,283.0769230769231 37.54279978046426,55.69813062028056,283.0769230769231 37.54248560819292,55.6981268912964,283.0769230769231 37.542171435995364,55.69812316150868,283.0769230769231 37.541857263871584,55.69811943091743,283.0769230769231 37.541543091821616,55.69811569952263,283.0769230769231 37.54122891984547,55.69811196732429,283.0769230769231 37.54091474794316,55.6981082343224,283.0769230769231 37.540600576114706,55.69810450051697,283.0769230769231 37.540286404360124,55.698100765908,283.0769230769231 37.539972232679425,55.69809703049548,283.0769230769231 37.53965806107262,55.698093294279424,283.0769230769231 37.53934388953974,55.69808955725983,283.0769230769231 37.53902971808079,55.69808581943668,283.0769230769231 37.53871554669579,55.698082080809996,283.0769230769231 37.53840137538475,55.69807834137977,283.0769230769231 37.5380872041477,55.698074601146004,283.0769230769231 37.53777303298463,55.69807086010871,283.0769230769231 37.537458861895594,55.69806711826785,283.0769230769231 37.53714469088057,55.69806337562348,283.0769230769231 37.5368305199396,55.69805963217554,283.0769230769231 37.53651634907268,55.69805588792409,283.0769230769231 37.53620217827984,55.698052142869095,283.0769230769231 37.53588800756109,55.69804839701056,283.0769230769231 37.53557383691645,55.698044650348486,283.0769230769231 37.53525966634593,55.69804090288287,283.0769230769231 37.53494549584955,55.69803715461373,283.0769230769231 37.53463132542733,55.69803340554105,283.0769230769231 37.53431715507927,55.69802965566483,283.0769230769231 37.534002984805404,55.69802590498509,283.0769230769231 37.53368881460574,55.698022153501796,283.0769230769231 37.5333746444803,55.69801840121499,283.0769230769231 37.533060474429085,55.69801464812463,283.0769230769231 37.532746304452125,55.698010894230734,283.0769230769231 37.53243213454943,55.69800713953332,283.0769230769231 37.53211796472102,55.69800338403237,283.0769230769231 37.531803794966905,55.69799962772788,283.0769230769231 37.53148962528711,55.69799587061987,283.0769230769231 37.531175455681634,55.69799211270832,283.0769230769231 37.530861286150504,55.69798835399323,283.0769230769231 37.53054711669375,55.69798459447463,283.0769230769231 37.530232947311355,55.69798083415249,283.0769230769231 37.52991877800336,55.69797707302682,283.0769230769231 37.52960460876977,55.69797331109763,283.0769230769231 37.52929043961061,55.69796954836489,283.0769230769231 37.528976270525895,55.69796578482864,283.0769230769231 37.52866210151563,55.69796202048885,283.0769230769231 37.528347932579834,55.69795825534554,283.0769230769231 37.52803376371854,55.697954489398704,283.0769230769231 37.52771959493174,55.69795072264834,283.0769230769231 37.52740542621946,55.69794695509445,283.0769230769231 37.527091257581716,55.69794318673703,283.0769230769231 37.52677708901852,55.69793941757609,283.0769230769231 37.5264629205299,55.697935647611615,283.0769230769231 37.526148752115866,55.69793187684363,283.0769230769231 37.52583458377642,55.697928105272105,283.0769230769231 37.52552041551159,55.697924332897074,283.0769230769231 37.5252062473214,55.697920559718504,283.0769230769231 37.524892079205856,55.697916785736425,283.0769230769231 37.524577911164975,55.697913010950806,283.0769230769231 37.524263743198766,55.69790923536168,283.0769230769231 37.523949575307256,55.697905458969025,283.0769230769231 37.52363540749045,55.69790168177285,283.0769230769231 37.523321239748384,55.69789790377315,283.0769230769231 37.52300707208105,55.69789412496992,283.0769230769231 37.52269290448848,55.69789034536319,283.0769230769231 37.52237873697068,55.69788656495294,283.0769230769231 37.522064569527664,55.69788278373916,283.0769230769231 37.52175040215947,55.697879001721866,283.0769230769231 37.52143623486608,55.697875218901046,283.0769230769231 37.52112206764754,55.69787143527672,283.0769230769231 37.52080790050385,55.697867650848856,283.0769230769231 37.520493733435025,55.6978638656175,283.0769230769231 37.52017956644109,55.697860079582604,283.0769230769231 37.519865399522054,55.69785629274422,283.0769230769231 37.519551232677934,55.69785250510229,283.0769230769231 37.51923706590875,55.69784871665686,283.0769230769231 37.5189228992145,55.69784492740791,283.0769230769231 37.51860873259523,55.697841137355454,283.0769230769231 37.51829456605093,55.697837346499476,283.0769230769231 37.51798039958164,55.69783355483998,283.0769230769231 37.517666233187356,55.697829762376976,283.0769230769231 37.5173520668681,55.69782596911047,283.0769230769231 37.51766643770922,55.69784883993081,283.0769230769231 37.517980808931476,55.69787170994827,283.0769230769231 37.51829518053485,55.6978945791628,283.0769230769231 37.518609552519344,55.69791744757441,283.0769230769231 37.518923924884916,55.69794031518308,283.0769230769231 37.519238297631574,55.69796318198884,283.0769230769231 37.519552670759296,55.69798604799167,283.0769230769231 37.51986704426806,55.698008913191586,283.0769230769231 37.52018141815786,55.69803177758855,283.0769230769231 37.520495792428676,55.698054641182566,283.0769230769231 37.52081016708049,55.698077503973664,283.0769230769231 37.5211245421133,55.69810036596182,283.0769230769231 37.52143891752707,55.69812322714703,283.0769230769231 37.5217532933218,55.6981460875293,283.0769230769231 37.522067669497474,55.69816894710863,283.0769230769231 37.52238204605408,55.69819180588501,283.0769230769231 37.52269642299159,55.698214663858444,283.0769230769231 37.52301080030999,55.69823752102892,283.0769230769231 37.52332517800928,55.698260377396444,283.0769230769231 37.523639556089435,55.69828323296101,283.0769230769231 37.523953934550434,55.698306087722635,283.0769230769231 37.52426831339228,55.698328941681275,283.0769230769231 37.524582692614935,55.69835179483696,283.0769230769231 37.52489707221841,55.69837464718969,283.0769230769231 37.52521145220266,55.69839749873944,283.0769230769231 37.525525832567695,55.69842034948623,283.0769230769231 37.52584021331349,55.69844319943003,283.0769230769231 37.52615459444002,55.698466048570886,283.0769230769231 37.52646897594729,55.69848889690875,283.0769230769231 37.52678335783528,55.698511744443636,283.0769230769231 37.52709774010396,55.69853459117554,283.0769230769231 37.527412122753326,55.69855743710447,283.0769230769231 37.52772650578337,55.698580282230424,283.0769230769231 37.52804088919406,55.69860312655338,283.0769230769231 37.52835527298539,55.69862597007336,283.0769230769231 37.528669657157344,55.69864881279034,283.0769230769231 37.52898404170991,55.69867165470433,283.0769230769231 37.52929842664307,55.69869449581533,283.0769230769231 37.52961281195681,55.69871733612332,283.0769230769231 37.52992719765111,55.698740175628316,283.0769230769231 37.53024158372597,55.698763014330325,283.0769230769231 37.530555970181354,55.698785852229314,283.0769230769231 37.530870357017264,55.698808689325304,283.0769230769231 37.53118474423367,55.69883152561829,283.0769230769231 37.531499131830564,55.69885436110827,283.0769230769231 37.53181351980793,55.69887719579522,283.0769230769231 37.53212790816577,55.69890002967917,283.0769230769231 37.532442296904044,55.698922862760114,283.0769230769231 37.53275668602274,55.69894569503803,283.0769230769231 37.53307107552186,55.69896852651294,283.0769230769231 37.533385465401366,55.698991357184795,283.0769230769231 37.53369985566126,55.69901418705365,283.0769230769231 37.534014246301524,55.69903701611948,283.0769230769231 37.53432863732215,55.69905984438229,283.0769230769231 37.5346430287231,55.69908267184205,283.0769230769231 37.53495742050438,55.69910549849878,283.0769230769231 37.53527181266596,55.69912832435248,283.0769230769231 37.535586205207835,55.69915114940314,283.0769230769231 37.53590059812999,55.699173973650765,283.0769230769231 37.53621499143241,55.699196797095354,283.0769230769231 37.53652938511507,55.699219619736894,283.0769230769231 37.536843779177964,55.69924244157537,283.0769230769231 37.53715817362107,55.69926526261084,283.0769230769231 37.53747256844439,55.69928808284321,283.0769230769231 37.53778696364789,55.69931090227257,283.0769230769231 37.53810135923156,55.699333720898856,283.0769230769231 37.538415755195395,55.69935653872209,283.0769230769231 37.53873015153936,55.699379355742266,283.0769230769231 37.53904454826346,55.699402171959385,283.0769230769231 37.53935894536767,55.69942498737344,283.0769230769231 37.53967334285198,55.69944780198443,283.0769230769231 37.539987740716356,55.69947061579234,283.0769230769231 37.540302138960804,55.699493428797204,283.0769230769231 37.54061653758531,55.69951624099899,283.0769230769231 37.540930936589845,55.6995390523977,283.0769230769231 37.54124533597441,55.699561862993335,283.0769230769231 37.54155973573897,55.69958467278588,283.0769230769231 37.541874135883525,55.69960748177537,283.0769230769231 37.542188536408055,55.69963028996177,283.0769230769231 37.54250293731254,55.69965309734507,283.0769230769231 37.542817338596976,55.69967590392531,283.0769230769231 37.543131740261344,55.69969870970244,283.0769230769231 37.543446142305626,55.69972151467649,283.0769230769231 37.54376054472981,55.69974431884744,283.0769230769231 37.544074947533865,55.69976712221532,283.0769230769231 37.54438935071781,55.69978992478007,283.0769230769231 37.54470375428159,55.69981272654175,283.0769230769231 37.545018158225226,55.699835527500326,283.0769230769231 37.54533256254867,55.69985832765578,283.0769230769231 37.54564696725193,55.699881127008155,283.0769230769231 37.54596137233499,55.69990392555741,283.0769230769231 37.546275777797824,55.699926723303555,283.0769230769231 37.546590183640426,55.69994952024658,283.0769230769231 37.54690458986277,55.6999723163865,283.0769230769231 37.547218996464856,55.69999511172331,283.0769230769231 37.54753340344666,55.700017906256996,283.0769230769231 37.54784781080816,55.70004069998756,283.0769230769231 37.54816221854936,55.70006349291501,283.0769230769231 37.54847662667022,55.70008628503933,283.0769230769231 37.548791035170744,55.70010907636053,283.0769230769231 37.54910544405091,55.70013186687859,283.0769230769231 37.54941985331071,55.700154656593526,283.0769230769231 37.54973426295012,55.700177445505325,283.0769230769231 37.550048672969126,55.700200233614005,283.0769230769231 37.550363083367714,55.700223020919545,283.0769230769231 37.55067749414587,55.70024580742193,283.0769230769231 37.55067749414587,55.70024580742193,160.0</coordinates></LineString></Placemark></Document></kml>