{
  "type": "FeatureCollection",
  "features": [
    {
      "type": "Feature",
      "geometry": {
        "type": "Polygon",
        "coordinates": [
          [
            [
              37.59225994586314,
              55.732448246277144
            ],
            [
              37.59148349104477,
              55.75400650217594
            ],
            [
              37.59153745090157,
              55.755064094311436
            ],
            [
              37.59177497831335,
              55.75611361077299
            ],
            [
              37.59219380020931,
              55.75714494317211
            ],
            [
              37.59278989657464,
              55.758148157469435
            ],
            [
              37.593557538647545,
              55.759113589711944
            ],
            [
              37.59448934362969,
              55.760031939196224
            ],
            [
              37.59557634540118,
              55.76089435815691
            ],
            [
              37.596808080573666,
              55.76169253711231
            ],
            [
              37.598172689064555,
              55.76241878503975
            ],
            [
              37.599657028230915,
              55.76306610360281
            ],
            [
              37.60124679946751,
              55.76362825470965
            ],
            [
              37.602926686048534,
              55.76409982074539
            ],
            [
              37.60468050088039,
              55.76447625689257
            ],
            [
              37.60649134273314,
              55.76475393503029
            ],
            [
              37.60834175943293,
              55.76493017878406
            ],
            [
              37.610213916427384,
              55.76500328938471
            ],
            [
              37.69625280980947,
              55.76594610241432
            ],
            [
              37.69812865957749,
              55.76591406180624
            ],
            [
              37.69998989603678,
              55.76577848839006
            ],
            [
              37.70181858001755,
              55.765540688802346
            ],
            [
              37.70359708684098,
              55.765202954946126
            ],
            [
              37.705308276572,
              55.76476854185095
            ],
            [
              37.70693565954549,
              55.764241636230054
            ],
            [
              37.70846355555429,
              55.7636273160417
            ],
            [
              37.70987724515086,
              55.762931501448286
            ],
            [
              37.711163111594686,
              55.762160897651015
            ],
            [
              37.71230877207064,
              55.76132293015652
            ],
            [
              37.713303196911745,
              55.76042567310469
            ],
            [
              37.7141368156793,
              55.759477771354476
            ],
            [
              37.71480160908421,
              55.758488357083706
            ],
            [
              37.7152911858739,
              55.75746696171201
            ],
            [
              37.71560084395752,
              55.75642342399964
            ],
            [
              37.715727615197274,
              55.75536779521185
            ],
            [
              37.71643562762171,
              55.733808445209085
            ],
            [
              37.71637830943254,
              55.73275088901111
            ],
            [
              37.71613756653739,
              55.73170159486214
            ],
            [
              37.71571573183005,
              55.73067066704691
            ],
            [
              37.71511688122454,
              55.729668032201616
            ],
            [
              37.714346793886634,
              55.728703343782925
            ],
            [
              37.713412896120296,
              55.7277858891946
            ],
            [
              37.71232418946688,
              55.726924500462964
            ],
            [
              37.71109116372407,
              55.72612746931654
            ],
            [
              37.70972569573354,
              55.72540246748263
            ],
            [
              37.70824093491916,
              55.72475647296254
            ],
            [
              37.70665117668118,
              55.72419570298949
            ],
            [
              37.704971724864585,
              55.72372555430862
            ],
            [
              37.703218744620536,
              55.72335055134837
            ],
            [
              37.70140910706858,
              55.723074302776716
            ],
            [
              37.69956022724244,
              55.722899466855736
            ],
            [
              37.69768989686389,
              55.72282772592425
            ],
            [
              37.61174576995809,
              55.721886427809416
            ],
            [
              37.60987198379499,
              55.721917160936506
            ],
            [
              37.60801254773108,
              55.72205137986864
            ],
            [
              37.60618535474119,
              55.72228779297659
            ],
            [
              37.604407988260874,
              55.72262412521662
            ],
            [
              37.602697553364,
              55.72305713997355
            ],
            [
              37.60107051248991,
              55.723582670137134
            ],
            [
              37.59954252728459,
              55.72419565811625
            ],
            [
              37.59812830806433,
              55.72489020440994
            ],
            [
              37.5968414723403,
              55.72565962427278
            ],
            [
              37.59569441375905,
              55.72649651193458
            ],
            [
              37.594698182717984,
              55.727392811762186
            ],
            [
              37.593862379806325,
              55.72833989568394
            ],
            [
              37.59319506310323,
              55.72932864613716
            ],
            [
              37.59270267023497,
              55.73034954374572
            ],
            [
              37.592389955954836,
              55.7313927588879
            ],
            [
              37.59225994586314,
              55.732448246277144
            ]
          ]
        ]
      },
      "properties": {
        "id": "ALLOWED",
        "layer": "allowed_airspace"
      }
    }
  ]
}