{
  "type": "FeatureCollection",
  "features": [
    {
      "type": "Feature",
      "geometry": {
        "type": "Polygon",
        "coordinates": [
          [
            [
              37.697420740441316,
              55.73091244659004
            ],
            [
              37.70697237073939,
              55.73101335485145
            ],
            [
              37.70608077328827,
              55.75796244162882
            ],
            [
              37.69652256126298,
              55.75786143189492
            ],
            [
              37.697420740441316,
              55.73091244659004
            ]
          ]
        ]
      },
      "properties": {
        "id": "EDGE_NFZ",
        "layer": "no_fly_zone",
        "hard": true
      }
    }
  ]
}