<?xml version="1.0" encoding="UTF-8"?>
<kml xmlns="http://www.opengis.net/kml/2.2"><Document>
<Style id="survey"><PolyStyle><color>5522aa22</color></PolyStyle></Style>
<Style id="nfz"><PolyStyle><color>55aa2222</color></PolyStyle></Style>
<Style id="allowed"><PolyStyle><color>222222aa</color></PolyStyle></Style>
<Placemark><name>FW_RGB</name><styleUrl>#survey</styleUrl><Polygon><outerBoundaryIs><LinearRing><coordinates>37.61136320,55.73266567,0 37.69733099,55.73360735,0 37.69661245,55.75516654,0 37.61059727,55.75422411,0 37.61136320,55.73266567,0</coordinates></LinearRing></outerBoundaryIs></Polygon></Placemark>
<Placemark><name>ALLOWED_AIRSPACE</name><styleUrl>#allowed</styleUrl><Polygon><outerBoundaryIs><LinearRing><coordinates>37.59225995,55.73244825,0 37.59148349,55.75400650,0 37.59153745,55.75506409,0 37.59177498,55.75611361,0 37.59219380,55.75714494,0 37.59278990,55.75814816,0 37.59355754,55.75911359,0 37.59448934,55.76003194,0 37.59557635,55.76089436,0 37.59680808,55.76169254,0 37.59817269,55.76241879,0 37.59965703,55.76306610,0 37.60124680,55.76362825,0 37.60292669,55.76409982,0 37.60468050,55.76447626,0 37.60649134,55.76475394,0 37.60834176,55.76493018,0 37.61021392,55.76500329,0 37.69625281,55.76594610,0 37.69812866,55.76591406,0 37.69998990,55.76577849,0 37.70181858,55.76554069,0 37.70359709,55.76520295,0 37.70530828,55.76476854,0 37.70693566,55.76424164,0 37.70846356,55.76362732,0 37.70987725,55.76293150,0 37.71116311,55.76216090,0 37.71230877,55.76132293,0 37.71330320,55.76042567,0 37.71413682,55.75947777,0 37.71480161,55.75848836,0 37.71529119,55.75746696,0 37.71560084,55.75642342,0 37.71572762,55.75536780,0 37.71643563,55.73380845,0 37.71637831,55.73275089,0 37.71613757,55.73170159,0 37.71571573,55.73067067,0 37.71511688,55.72966803,0 37.71434679,55.72870334,0 37.71341290,55.72778589,0 37.71232419,55.72692450,0 37.71109116,55.72612747,0 37.70972570,55.72540247,0 37.70824093,55.72475647,0 37.70665118,55.72419570,0 37.70497172,55.72372555,0 37.70321874,55.72335055,0 37.70140911,55.72307430,0 37.69956023,55.72289947,0 37.69768990,55.72282773,0 37.61174577,55.72188643,0 37.60987198,55.72191716,0 37.60801255,55.72205138,0 37.60618535,55.72228779,0 37.60440799,55.72262413,0 37.60269755,55.72305714,0 37.60107051,55.72358267,0 37.59954253,55.72419566,0 37.59812831,55.72489020,0 37.59684147,55.72565962,0 37.59569441,55.72649651,0 37.59469818,55.72739281,0 37.59386238,55.72833990,0 37.59319506,55.72932865,0 37.59270267,55.73034954,0 37.59238996,55.73139276,0 37.59225995,55.73244825,0</coordinates></LinearRing></outerBoundaryIs></Polygon></Placemark>
<Placemark><name>EDGE_NFZ</name><styleUrl>#nfz</styleUrl><Polygon><outerBoundaryIs><LinearRing><coordinates>37.69742074,55.73091245,0 37.70697237,55.73101335,0 37.70608077,55.75796244,0 37.69652256,55.75786143,0 37.69742074,55.73091245,0</coordinates></LinearRing></outerBoundaryIs></Polygon></Placemark>
<Placemark><name>BASE</name><description>both</description><Point><coordinates>37.60305055,55.74245636,0</coordinates></Point></Placemark>
<Placemark><name>RES</name><description>reserve</description><Point><coordinates>37.65335658,55.76188910,0</coordinates></Point></Placemark>
</Document></kml>