{
  "type": "FeatureCollection",
  "features": [
    {
      "type": "Feature",
      "geometry": {
        "type": "Polygon",
        "coordinates": [
          [
            [
              37.611363196751604,
              55.7326656743756
            ],
            [
              37.69733099115958,
              55.733607350906794
            ],
            [
              37.6966124478595,
              55.75516653915043
            ],
            [
              37.61059727022832,
              55.75422410516204
            ],
            [
              37.611363196751604,
              55.7326656743756
            ]
          ]
        ]
      },
      "properties": {
        "id": "FW_RGB",
        "survey_type": "rgb",
        "payload_profile": "RGB_STD"
      }
    }
  ]
}