{
  "type": "FeatureCollection",
  "features": [
    {
      "type": "Feature",
      "geometry": {
        "type": "Polygon",
        "coordinates": [
          [
            [
              37.58628183882576,
              55.721595980544976
            ],
            [
              37.585307380222254,
              55.748543765971945
            ],
            [
              37.58534323837674,
              55.74924882921236
            ],
            [
              37.58550145578701,
              55.74994851482478
            ],
            [
              37.585780515152,
              55.75063608402319
            ],
            [
              37.58617773496165,
              55.75130491436563
            ],
            [
              37.586689295091254,
              55.75194856356175
            ],
            [
              37.58731027338673,
              55.752560831557304
            ],
            [
              37.58803469289651,
              55.753135820296386
            ],
            [
              37.58885557930167,
              55.75366799058366
            ],
            [
              37.589765027996286,
              55.75415221549669
            ],
            [
              37.59075428017528,
              55.754583829831404
            ],
            [
              37.59181380719863,
              55.754958675101896
            ],
            [
              37.59293340241877,
              55.75527313965814
            ],
            [
              37.5941022795847,
              55.75552419353315
            ],
            [
              37.595309176870764,
              55.75570941768079
            ],
            [
              37.59654246552258,
              55.75582702732114
            ],
            [
              37.5977902620665,
              55.75587588916602
            ],
            [
              37.68540161121092,
              55.75684435447123
            ],
            [
              37.68665189085271,
              55.75682310621477
            ],
            [
              37.68789245227705,
              55.75673284151492
            ],
            [
              37.68911134178258,
              55.75657443010915
            ],
            [
              37.69029681482072,
              55.75634939836821
            ],
            [
              37.69143744933188,
              55.75605991456629
            ],
            [
              37.692522255950145,
              55.75570876795714
            ],
            [
              37.69354078400729,
              55.755299341859605
            ],
            [
              37.69448322230856,
              55.75483558101325
            ],
            [
              37.695340493704904,
              55.75432195352162
            ],
            [
              37.69610434254731,
              55.7537634077512
            ],
            [
              37.69676741417993,
              55.753165324604915
            ],
            [
              37.697323325706805,
              55.75253346563174
            ],
            [
              37.69776672735299,
              55.75187391747522
            ],
            [
              37.698093353833656,
              55.75119303319828
            ],
            [
              37.698300065241966,
              55.75049737105163
            ],
            [
              37.69838487706956,
              55.74979363127717
            ],
            [
              37.69928150230518,
              55.72284459044025
            ],
            [
              37.699243606746236,
              55.72213954801225
            ],
            [
              37.69908345739145,
              55.721439996808165
            ],
            [
              37.69880260296726,
              55.720752673449304
            ],
            [
              37.69840375421583,
              55.72008419645362
            ],
            [
              37.69789075756023,
              55.71944100252585
            ],
            [
              37.697268557858074,
              55.71882928461062
            ],
            [
              37.69654315061016,
              55.71825493230343
            ],
            [
              37.69572152409095,
              55.717723475191455
            ],
            [
              37.69481159196305,
              55.71724002966743
            ],
            [
              37.693822117027935,
              55.716809249726275
            ],
            [
              37.69276262684872,
              55.716435282215656
            ],
            [
              37.69164332205682,
              55.71612172696864
            ],
            [
              37.69047497822346,
              55.71587160219973
            ],
            [
              37.68926884223663,
              55.71568731549529
            ],
            [
              37.688036524175594,
              55.71557064067515
            ],
            [
              37.68678988571737,
              55.715522700746725
            ],
            [
              37.59927098659024,
              55.714555726610214
            ],
            [
              37.59802202572888,
              55.71457609290072
            ],
            [
              37.596782610761935,
              55.71466545692719
            ],
            [
              37.59556467153006,
              55.714822958496484
            ],
            [
              37.59437993148549,
              55.715047081556456
            ],
            [
              37.593239795017965,
              55.71533566876674
            ],
            [
              37.592155237828,
              55.71568594223343
            ],
            [
              37.59113670139535,
              55.71609453020936
            ],
            [
              37.590193992552386,
              55.71655749950549
            ],
            [
              37.58933618912482,
              55.71707039330282
            ],
            [
              37.58857155254478,
              55.71762827400387
            ],
            [
              37.58790744827672,
              55.718225770713346
            ],
            [
              37.587350274822846,
              55.718857130893596
            ],
            [
              37.586905401993995,
              55.71951627570001
            ],
            [
              37.58657711904476,
              55.720196858466146
            ],
            [
              37.58636859317804,
              55.72089232577702
            ],
            [
              37.58628183882576,
              55.721595980544976
            ]
          ]
        ]
      },
      "properties": {
        "id": "ALLOWED",
        "layer": "allowed_airspace"
      }
    }
  ]
}