<?xml version="1.0" encoding="UTF-8"?>
<kml xmlns="http://www.opengis.net/kml/2.2"><Document>
<Style id="survey"><PolyStyle><color>5522aa22</color></PolyStyle></Style>
<Style id="nfz"><PolyStyle><color>55aa2222</color></PolyStyle></Style>
<Style id="allowed"><PolyStyle><color>222222aa</color></PolyStyle></Style>
<Placemark><name>LIDAR_JOB</name><styleUrl>#survey</styleUrl><Polygon><outerBoundaryIs><LinearRing><coordinates>37.60057312,55.72265827,0 37.64036203,55.72310516,0 37.63948732,55.74825699,0 37.59967283,55.74780969,0 37.60057312,55.72265827,0</coordinates></LinearRing></outerBoundaryIs></Polygon></Placemark>
<Placemark><name>IR_JOB</name><styleUrl>#survey</styleUrl><Polygon><outerBoundaryIs><LinearRing><coordinates>37.64513677,55.72315792,0 37.68492692,55.72359037,0 37.68408086,55.74874266,0 37.64426513,55.74830980,0 37.64513677,55.72315792,0</coordinates></LinearRing></outerBoundaryIs></Polygon></Placemark>
<Placemark><name>ALLOWED_AIRSPACE</name><styleUrl>#allowed</styleUrl><Polygon><outerBoundaryIs><LinearRing><coordinates>37.58628184,55.72159598,0 37.58530738,55.74854377,0 37.58534324,55.74924883,0 37.58550146,55.74994851,0 37.58578052,55.75063608,0 37.58617773,55.75130491,0 37.58668930,55.75194856,0 37.58731027,55.75256083,0 37.58803469,55.75313582,0 37.58885558,55.75366799,0 37.58976503,55.75415222,0 37.59075428,55.75458383,0 37.59181381,55.75495868,0 37.59293340,55.75527314,0 37.59410228,55.75552419,0 37.59530918,55.75570942,0 37.59654247,55.75582703,0 37.59779026,55.75587589,0 37.68540161,55.75684435,0 37.68665189,55.75682311,0 37.68789245,55.75673284,0 37.68911134,55.75657443,0 37.69029681,55.75634940,0 37.69143745,55.75605991,0 37.69252226,55.75570877,0 37.69354078,55.75529934,0 37.69448322,55.75483558,0 37.69534049,55.75432195,0 37.69610434,55.75376341,0 37.69676741,55.75316532,0 37.69732333,55.75253347,0 37.69776673,55.75187392,0 37.69809335,55.75119303,0 37.69830007,55.75049737,0 37.69838488,55.74979363,0 37.69928150,55.72284459,0 37.69924361,55.72213955,0 37.69908346,55.72144000,0 37.69880260,55.72075267,0 37.69840375,55.72008420,0 37.69789076,55.71944100,0 37.69726856,55.71882928,0 37.69654315,55.71825493,0 37.69572152,55.71772348,0 37.69481159,55.71724003,0 37.69382212,55.71680925,0 37.69276263,55.71643528,0 37.69164332,55.71612173,0 37.69047498,55.71587160,0 37.68926884,55.71568732,0 37.68803652,55.71557064,0 37.68678989,55.71552270,0 37.59927099,55.71455573,0 37.59802203,55.71457609,0 37.59678261,55.71466546,0 37.59556467,55.71482296,0 37.59437993,55.71504708,0 37.59323980,55.71533567,0 37.59215524,55.71568594,0 37.59113670,55.71609453,0 37.59019399,55.71655750,0 37.58933619,55.71707039,0 37.58857155,55.71762827,0 37.58790745,55.71822577,0 37.58735027,55.71885713,0 37.58690540,55.71951628,0 37.58657712,55.72019686,0 37.58636859,55.72089233,0 37.58628184,55.72159598,0</coordinates></LinearRing></outerBoundaryIs></Polygon></Placemark>
<Placemark><name>BASE</name><description>both</description><Point><coordinates>37.59375498,55.73516127,0</coordinates></Point></Placemark>
<Placemark><name>RES</name><description>reserve</description><Point><coordinates>37.69246478,55.73625151,0</coordinates></Point></Placemark>
</Document></kml>