{
  "type": "FeatureCollection",
  "features": [
    {
      "type": "Feature",
      "geometry": {
        "type": "Polygon",
        "coordinates": [
          [
            [
              37.600573116040486,
              55.72265827356291
            ],
            [
              37.64036202995866,
              55.72310515520037
            ],
            [
              37.63948732036516,
              55.748256994860995
            ],
            [
              37.59967282873778,
              55.747809693881635
            ],
            [
              37.600573116040486,
              55.72265827356291
            ]
          ]
        ]
      },
      "properties": {
        "id": "LIDAR_JOB",
        "survey_type": "lidar",
        "payload_profile": "LIDAR_STD"
      }
    },
    {
      "type": "Feature",
      "geometry": {
        "type": "Polygon",
        "coordinates": [
          [
            [
              37.645136774459964,
              55.72315791516289
            ],
            [
              37.68492692279803,
              55.72359036593008
            ],
            [
              37.68408086308335,
              55.74874266091048
            ],
            [
              37.64426513435414,
              55.748309804332706
            ],
            [
              37.645136774459964,
              55.72315791516289
            ]
          ]
        ]
      },
      "properties": {
        "id": "IR_JOB",
        "survey_type": "thermal",
        "payload_profile": "IR_STD"
      }
    }
  ]
}