{
  "type": "FeatureCollection",
  "features": [
    {
      "type": "Feature",
      "geometry": {
        "type": "Polygon",
        "coordinates": [
          [
            [
              37.429506226104955,
              55.64339189354139
            ],
            [
              37.424815873291,
              55.76015783271124
            ],
            [
              37.631913855956384,
              55.76263785136121
            ],
            [
              37.63598804483205,
              55.645861141160886
            ],
            [
              37.429506226104955,
              55.64339189354139
            ]
          ]
        ]
      },
      "properties": {
        "id": "ALLOWED"
      }
    }
  ]
}
