<?xml version='1.0' encoding='utf-8'?>
<kml xmlns="http://www.opengis.net/kml/2.2"><Document><Placemark><name>JOB_RGB</name><Polygon><outerBoundaryIs><LinearRing><coordinates>37.61168486249893,55.65906818131969,0 37.60849617346008,55.748895523339634,0 37.44924484051018,55.74698877367934,0 37.452798123595365,55.65716780505442,0 37.61168486249893,55.65906818131969,0</coordinates></LinearRing></outerBoundaryIs></Polygon></Placemark><Placemark><name>BASE_0</name><Point><coordinates>37.444141608157544,55.67503163303533</coordinates></Point></Placemark><Placemark><name>BASE_1</name><Point><coordinates>37.443428115041705,55.692995818389235</coordinates></Point></Placemark><Placemark><name>BASE_2</name><Point><coordinates>37.442713814525746,55.71095994475972</coordinates></Point></Placemark><Placemark><name>BASE_3</name><Point><coordinates>37.44199870535853,55.7289240121504</coordinates></Point></Placemark><Placemark><name>RESERVE</name><Point><coordinates>37.618046702214905,55.704071803685025</coordinates></Point></Placemark></Document></kml>