{
  "type": "FeatureCollection",
  "features": [
    {
      "type": "Feature",
      "geometry": {
        "type": "Polygon",
        "coordinates": [
          [
            [
              37.61168486249893,
              55.65906818131969
            ],
            [
              37.60849617346008,
              55.748895523339634
            ],
            [
              37.44924484051018,
              55.74698877367934
            ],
            [
              37.452798123595365,
              55.65716780505442
            ],
            [
              37.61168486249893,
              55.65906818131969
            ]
          ]
        ]
      },
      "properties": {
        "id": "JOB_RGB",
        "survey_type": "rgb",
        "payload_profile": "RGB"
      }
    }
  ]
}
