{
  "type": "FeatureCollection",
  "features": [
    {
      "type": "Feature",
      "geometry": {
        "type": "Polygon",
        "coordinates": [
          [
            [
              37.647519647468386,
              55.79237804947722
            ],
            [
              37.6472705407729,
              55.79956424062972
            ],
            [
              37.647455600380205,
              55.80308946599202
            ],
            [
              37.64825332991639,
              55.80658749487987
            ],
            [
              37.649656207793086,
              55.81002462844058
            ],
            [
              37.65165087358284,
              55.81336774567013
            ],
            [
              37.654218250906126,
              55.81658462313253
            ],
            [
              37.65733372600349,
              55.81964424633823
            ],
            [
              37.66096738047239,
              55.82251710974314
            ],
            [
              37.66508427609496,
              55.82517550242878
            ],
            [
              37.669644789142424,
              55.82759377665347
            ],
            [
              37.6746049910223,
              55.82974859662393
            ],
            [
              37.67991707164043,
              55.831619165022815
            ],
            [
              37.685529801390636,
              55.83318742504166
            ],
            [
              37.69138902726359,
              55.83443823590592
            ],
            [
              37.69743819819231,
              55.835359520138745
            ],
            [
              37.70361891442756,
              55.83594238108882
            ],
            [
              37.70987149546857,
              55.83618118954353
            ],
            [
              37.72583396882902,
              55.836347546373005
            ],
            [
              37.73209802899385,
              55.83623918255861
            ],
            [
              37.73831293902202,
              55.835785502816904
            ],
            [
              37.74441868469073,
              55.834990887447
            ],
            [
              37.75035631423741,
              55.83386300876217
            ],
            [
              37.75606851188418,
              55.8324127564392
            ],
            [
              37.76150015495081,
              55.830654131579635
            ],
            [
              37.76659884899276,
              55.8286041105448
            ],
            [
              37.77131543564557,
              55.82628247992696
            ],
            [
              37.7756044681596,
              55.823711644305924
            ],
            [
              37.77942464996487,
              55.82091640870763
            ],
            [
              37.782739232009405,
              55.8179237379285
            ],
            [
              37.78551636506021,
              55.81476249511217
            ],
            [
              37.78772940363807,
              55.811463162163776
            ],
            [
              37.7893571587682,
              55.80805754475588
            ],
            [
              37.790384097263164,
              55.80457846482284
            ],
            [
              37.79080048580413,
              55.80105944355027
            ],
            [
              37.791023177920565,
              55.79387285141161
            ],
            [
              37.79082517779634,
              55.79034778218697
            ],
            [
              37.79001496747092,
              55.78685061641566
            ],
            [
              37.78860051023162,
              55.783415022534534
            ],
            [
              37.78659557739854,
              55.7800740674443
            ],
            [
              37.78401960997567,
              55.77685989882069
            ],
            [
              37.780897526354764,
              55.77380343657672
            ],
            [
              37.777259478116996,
              55.77093407640652
            ],
            [
              37.77314055644433,
              55.76827940821461
            ],
            [
              37.768580452089516,
              55.76586495208412
            ],
            [
              37.76362307225744,
              55.76371391426199
            ],
            [
              37.758316118119325,
              55.7618469654444
            ],
            [
              37.75271062701344,
              55.760282043429406
            ],
            [
              37.74686048367902,
              55.75903418197213
            ],
            [
              37.740821905124854,
              55.758115367428914
            ],
            [
              37.73465290394725,
              55.75753442451716
            ],
            [
              37.72841273508583,
              55.757296932245424
            ],
            [
              37.71248254630357,
              55.75713106551169
            ],
            [
              37.706231137346656,
              55.75723849361765
            ],
            [
              37.700028392025295,
              55.75769061782756
            ],
            [
              37.69393388590363,
              55.75848309492711
            ],
            [
              37.68800616312168,
              55.759608312471826
            ],
            [
              37.68230217830165,
              55.76105546135181
            ],
            [
              37.67687675312573,
              55.76281063884313
            ],
            [
              37.67178205262443,
              55.76485698119353
            ],
            [
              37.66706708605643,
              55.76717482451493
            ],
            [
              37.662777237061746,
              55.769741892491176
            ],
            [
              37.65895382753006,
              55.77253350915667
            ],
            [
              37.65563371934752,
              55.775522834763954
            ],
            [
              37.65284895786719,
              55.778681122536284
            ],
            [
              37.65062646059391,
              55.78197799389902
            ],
            [
              37.64898775418322,
              55.785381729601205
            ],
            [
              37.647948762430104,
              55.788859573978904
            ],
            [
              37.647519647468386,
              55.79237804947722
            ]
          ]
        ]
      },
      "properties": {
        "id": "ALLOWED",
        "layer": "allowed_airspace"
      }
    }
  ]
}