<?xml version="1.0" encoding="UTF-8"?>
<kml xmlns="http://www.opengis.net/kml/2.2"><Document>
<Style id="survey"><PolyStyle><color>5522aa22</color></PolyStyle></Style>
<Style id="nfz"><PolyStyle><color>55aa2222</color></PolyStyle></Style>
<Style id="allowed"><PolyStyle><color>222222aa</color></PolyStyle></Style>
<Placemark><name>RGB_REMOTE</name><styleUrl>#survey</styleUrl><Polygon><outerBoundaryIs><LinearRing><coordinates>37.71129732,55.79306308,0 37.72724216,55.79322917,0 37.72700773,55.80041559,0 37.71105995,55.80024945,0 37.71129732,55.79306308,0</coordinates></LinearRing></outerBoundaryIs></Polygon></Placemark>
<Placemark><name>ALLOWED_AIRSPACE</name><styleUrl>#allowed</styleUrl><Polygon><outerBoundaryIs><LinearRing><coordinates>37.64751965,55.79237805,0 37.64727054,55.79956424,0 37.64745560,55.80308947,0 37.64825333,55.80658749,0 37.64965621,55.81002463,0 37.65165087,55.81336775,0 37.65421825,55.81658462,0 37.65733373,55.81964425,0 37.66096738,55.82251711,0 37.66508428,55.82517550,0 37.66964479,55.82759378,0 37.67460499,55.82974860,0 37.67991707,55.83161917,0 37.68552980,55.83318743,0 37.69138903,55.83443824,0 37.69743820,55.83535952,0 37.70361891,55.83594238,0 37.70987150,55.83618119,0 37.72583397,55.83634755,0 37.73209803,55.83623918,0 37.73831294,55.83578550,0 37.74441868,55.83499089,0 37.75035631,55.83386301,0 37.75606851,55.83241276,0 37.76150015,55.83065413,0 37.76659885,55.82860411,0 37.77131544,55.82628248,0 37.77560447,55.82371164,0 37.77942465,55.82091641,0 37.78273923,55.81792374,0 37.78551637,55.81476250,0 37.78772940,55.81146316,0 37.78935716,55.80805754,0 37.79038410,55.80457846,0 37.79080049,55.80105944,0 37.79102318,55.79387285,0 37.79082518,55.79034778,0 37.79001497,55.78685062,0 37.78860051,55.78341502,0 37.78659558,55.78007407,0 37.78401961,55.77685990,0 37.78089753,55.77380344,0 37.77725948,55.77093408,0 37.77314056,55.76827941,0 37.76858045,55.76586495,0 37.76362307,55.76371391,0 37.75831612,55.76184697,0 37.75271063,55.76028204,0 37.74686048,55.75903418,0 37.74082191,55.75811537,0 37.73465290,55.75753442,0 37.72841274,55.75729693,0 37.71248255,55.75713107,0 37.70623114,55.75723849,0 37.70002839,55.75769062,0 37.69393389,55.75848309,0 37.68800616,55.75960831,0 37.68230218,55.76105546,0 37.67687675,55.76281064,0 37.67178205,55.76485698,0 37.66706709,55.76717482,0 37.66277724,55.76974189,0 37.65895383,55.77253351,0 37.65563372,55.77552283,0 37.65284896,55.77868112,0 37.65062646,55.78197799,0 37.64898775,55.78538173,0 37.64794876,55.78885957,0 37.64751965,55.79237805,0</coordinates></LinearRing></outerBoundaryIs></Polygon></Placemark>
<Placemark><name>BAD_BASE</name><description>both</description><Point><coordinates>37.56005322,55.69882527,0</coordinates></Point></Placemark>
<Placemark><name>CANDIDATE_GOOD_BASE</name><description>both</description><Point><coordinates>37.70167072,55.79475902,0</coordinates></Point></Placemark>
<Placemark><name>RES</name><description>reserve</description><Point><coordinates>37.74945007,55.79705146,0</coordinates></Point></Placemark>
</Document></kml>