{
  "type": "FeatureCollection",
  "features": [
    {
      "type": "Feature",
      "geometry": {
        "type": "Polygon",
        "coordinates": [
          [
            [
              37.711297319675595,
              55.79306307693134
            ],
            [
              37.72724216331762,
              55.79322916619035
            ],
            [
              37.72700773035183,
              55.8004155856543
            ],
            [
              37.711059951752276,
              55.80024945184117
            ],
            [
              37.711297319675595,
              55.79306307693134
            ]
          ]
        ]
      },
      "properties": {
        "id": "RGB_REMOTE",
        "survey_type": "rgb",
        "payload_profile": "RGB_STD"
      }
    }
  ]
}