{
  "type": "FeatureCollection",
  "features": [
    {
      "type": "Feature",
      "geometry": {
        "type": "Polygon",
        "coordinates": [
          [
            [
              37.562471084401515,
              55.682411589451775
            ],
            [
              37.56115149195582,
              55.71834179958165
            ],
            [
              37.31451885715361,
              55.71520463743999
            ],
            [
              37.31606439899732,
              55.67927862553676
            ],
            [
              37.562471084401515,
              55.682411589451775
            ]
          ]
        ]
      },
      "properties": {
        "id": "ALLOWED"
      }
    }
  ]
}
