{
  "type": "FeatureCollection",
  "features": [
    {
      "type": "Feature",
      "geometry": {
        "type": "Polygon",
        "coordinates": [
          [
            [
              37.53406047971323,
              55.69780192993722
            ],
            [
              37.53389234097975,
              55.7022931510974
            ],
            [
              37.525939064632354,
              55.702197932462724
            ],
            [
              37.52610811467466,
              55.697706727240835
            ],
            [
              37.53406047971323,
              55.69780192993722
            ]
          ]
        ]
      },
      "properties": {
        "id": "JOB_RGB",
        "survey_type": "rgb",
        "payload_profile": "RGB"
      }
    }
  ]
}
