{
  "type": "FeatureCollection",
  "features": [
    {
      "type": "Feature",
      "properties": {
        "id": "JOB_mug9k0vy",
        "survey_type": "rgb",
        "payload_profile": "RGB"
      },
      "geometry": {
        "coordinates": [
          [
            [
              37.4639066395427,
              55.706421083372646
            ],
            [
              37.46426393520767,
              55.68709031963593
            ],
            [
              37.528934450610194,
              55.68870158175142
            ],
            [
              37.52750526794881,
              55.7086354563086
            ],
            [
              37.4639066395427,
              55.706421083372646
            ]
          ]
        ],
        "type": "Polygon"
      }
    },
    {
      "type": "Feature",
      "properties": {
        "id": "JOB_mugady20",
        "survey_type": "rgb",
        "payload_profile": "RGB"
      },
      "geometry": {
        "coordinates": [
          [
            [
              37.461552770249455,
              55.74312363555822
            ],
            [
              37.46076439439284,
              55.73069581636403
            ],
            [
              37.481262166675634,
              55.73202755770342
            ],
            [
              37.483627294246986,
              55.74445495291724
            ],
            [
              37.47180165639159,
              55.752885574757556
            ],
            [
              37.461552770249455,
              55.74312363555822
            ]
          ]
        ],
        "type": "Polygon"
      }
    },
    {
      "type": "Feature",
      "properties": {
        "id": "JOB_mugaf9eh",
        "survey_type": "rgb",
        "payload_profile": "RGB"
      },
      "geometry": {
        "coordinates": [
          [
            [
              37.504913442387874,
              55.746229972072996
            ],
            [
              37.50727856995917,
              55.725812376095575
            ],
            [
              37.564830007522886,
              55.70849343832771
            ],
            [
              37.56167650409492,
              55.68494513520548
            ],
            [
              37.50412506653126,
              55.672054209258334
            ],
            [
              37.50097156310173,
              55.652042636605586
            ],
            [
              37.610555807231236,
              55.65293225710528
            ],
            [
              37.61922794165855,
              55.68938929709725
            ],
            [
              37.59321153837641,
              55.70938177579447
            ],
            [
              37.62001631751667,
              55.752885574757556
            ],
            [
              37.54827411452479,
              55.75466021037553
            ],
            [
              37.504913442387874,
              55.746229972072996
            ]
          ]
        ],
        "type": "Polygon"
      }
    },
    {
      "type": "Feature",
      "properties": {
        "id": "JOB_mugafdz8",
        "survey_type": "rgb",
        "payload_profile": "RGB"
      },
      "geometry": {
        "coordinates": [
          [
            [
              37.44893875653747,
              55.66627413919008
            ],
            [
              37.44893875653747,
              55.65248744938225
            ],
            [
              37.47022490467836,
              55.653821857392046
            ],
            [
              37.468648152963596,
              55.66716343631268
            ],
            [
              37.44893875653747,
              55.66627413919008
            ]
          ]
        ],
        "type": "Polygon"
      }
    }
  ]
}
