{
  "type": "FeatureCollection",
  "features": [
    {
      "type": "Feature",
      "geometry": {
        "type": "Polygon",
        "coordinates": [
          [
            [
              37.58787332083478,
              55.721614288099126
            ],
            [
              37.58728950170736,
              55.73778298603092
            ],
            [
              37.58732090303223,
              55.73839991704006
            ],
            [
              37.587459338412074,
              55.73901214075169
            ],
            [
              37.58770347954963,
              55.73961376078683
            ],
            [
              37.58805097981056,
              55.740198982622665
            ],
            [
              37.588498496646764,
              55.74076216941983
            ],
            [
              37.589041723630494,
              55.741297896340306
            ],
            [
              37.58967543179667,
              55.74180100283142
            ],
            [
              37.5903935199003,
              55.742266642371476
            ],
            [
              37.59118907310898,
              55.74269032919536
            ],
            [
              37.59205442956757,
              55.74306798154898
            ],
            [
              37.59298125419536,
              55.743395961053245
            ],
            [
              37.59396061900444,
              55.74367110779666
            ],
            [
              37.59498308916412,
              55.74389077081673
            ],
            [
              37.59603881397926,
              55.74405283367422
            ],
            [
              37.59711762190199,
              55.74415573487285
            ],
            [
              37.59820911865617,
              55.744198482925746
            ],
            [
              37.74153306579665,
              55.74575005708355
            ],
            [
              37.74262673055892,
              55.74573096422906
            ],
            [
              37.74371180785451,
              55.745651486751015
            ],
            [
              37.74477784288916,
              55.74551239040027
            ],
            [
              37.74581456459468,
              55.74531501535239
            ],
            [
              37.746811984720665,
              55.74506126327804
            ],
            [
              37.74776049418259,
              55.74475357899635
            ],
            [
              37.748650955732636,
              55.74439492688984
            ],
            [
              37.74947479205567,
              55.74398876230899
            ],
            [
              37.750224068438115,
              55.74353899824392
            ],
            [
              37.750891569211184,
              55.74304996758644
            ],
            [
              37.75147086723113,
              55.742526381347176
            ],
            [
              37.75195638572787,
              55.741973283233165
            ],
            [
              37.75234345192819,
              55.74139600102467
            ],
            [
              37.752628341940294,
              55.74080009522196
            ],
            [
              37.75280831647209,
              55.74019130545776
            ],
            [
              37.7528816470446,
              55.739575495193314
            ],
            [
              37.75339707936113,
              55.72340571683159
            ],
            [
              37.7533630669205,
              55.72278881544459
            ],
            [
              37.753222086262866,
              55.72217676605036
            ],
            [
              37.75297550000731,
              55.72157546267967
            ],
            [
              37.75262568747389,
              55.720990695611256
            ],
            [
              37.752176021594316,
              55.72042809563132
            ],
            [
              37.75163083627344,
              55.71989307983827
            ],
            [
              37.75099538452174,
              55.719390799513384
            ],
            [
              37.750275787766974,
              55.718926090557815
            ],
            [
              37.74947897683712,
              55.71850342697135
            ],
            [
              37.74861262518513,
              55.718126877819245
            ],
            [
              37.74768507500004,
              55.7178000680993
            ],
            [
              37.746705256915135,
              55.71752614388399
            ],
            [
              37.745682604085005,
              55.717307742071355
            ],
            [
              37.744626961455495,
              55.71714696503415
            ],
            [
              37.74354849109588,
              55.717045360409514
            ],
            [
              37.74245757449959,
              55.717003906222494
            ],
            [
              37.599238837902945,
              55.71545399426591
            ],
            [
              37.59814597211006,
              55.71547181504305
            ],
            [
              37.597061459691936,
              55.715550010204566
            ],
            [
              37.59599574019336,
              55.71568782701851
            ],
            [
              37.594959072505844,
              55.71588393882638
            ],
            [
              37.593961436244435,
              55.716136457796715
            ],
            [
              37.59301243579454,
              55.7164429530741
            ],
            [
              37.592121207947,
              55.7168004741496
            ],
            [
              37.591296334005776,
              55.71720557922941
            ],
            [
              37.590545757210926,
              55.71765436833012
            ],
            [
              37.58987670626967,
              55.71814252078397
            ],
            [
              37.58929562573077,
              55.71866533679474
            ],
            [
              37.588808113873114,
              55.71921778264648
            ],
            [
              37.58841886870853,
              55.71979453913135
            ],
            [
              37.588131642621974,
              55.72039005273249
            ],
            [
              37.58794920609032,
              55.72099858907028
            ],
            [
              37.58787332083478,
              55.721614288099126
            ]
          ]
        ]
      },
      "properties": {
        "id": "ALLOWED",
        "layer": "allowed_airspace"
      }
    }
  ]
}