<?xml version="1.0" encoding="UTF-8"?>
<kml xmlns="http://www.opengis.net/kml/2.2"><Document>
<Style id="survey"><PolyStyle><color>5522aa22</color></PolyStyle></Style>
<Style id="nfz"><PolyStyle><color>55aa2222</color></PolyStyle></Style>
<Style id="allowed"><PolyStyle><color>222222aa</color></PolyStyle></Style>
<Placemark><name>CORRIDOR</name><styleUrl>#survey</styleUrl><Polygon><outerBoundaryIs><LinearRing><coordinates>37.59901375,55.72174186,0 37.74225548,55.72329214,0 37.74173545,55.73946185,0 37.59843453,55.73791064,0 37.59901375,55.72174186,0</coordinates></LinearRing></outerBoundaryIs></Polygon></Placemark>
<Placemark><name>ALLOWED_AIRSPACE</name><styleUrl>#allowed</styleUrl><Polygon><outerBoundaryIs><LinearRing><coordinates>37.58787332,55.72161429,0 37.58728950,55.73778299,0 37.58732090,55.73839992,0 37.58745934,55.73901214,0 37.58770348,55.73961376,0 37.58805098,55.74019898,0 37.58849850,55.74076217,0 37.58904172,55.74129790,0 37.58967543,55.74180100,0 37.59039352,55.74226664,0 37.59118907,55.74269033,0 37.59205443,55.74306798,0 37.59298125,55.74339596,0 37.59396062,55.74367111,0 37.59498309,55.74389077,0 37.59603881,55.74405283,0 37.59711762,55.74415573,0 37.59820912,55.74419848,0 37.74153307,55.74575006,0 37.74262673,55.74573096,0 37.74371181,55.74565149,0 37.74477784,55.74551239,0 37.74581456,55.74531502,0 37.74681198,55.74506126,0 37.74776049,55.74475358,0 37.74865096,55.74439493,0 37.74947479,55.74398876,0 37.75022407,55.74353900,0 37.75089157,55.74304997,0 37.75147087,55.74252638,0 37.75195639,55.74197328,0 37.75234345,55.74139600,0 37.75262834,55.74080010,0 37.75280832,55.74019131,0 37.75288165,55.73957550,0 37.75339708,55.72340572,0 37.75336307,55.72278882,0 37.75322209,55.72217677,0 37.75297550,55.72157546,0 37.75262569,55.72099070,0 37.75217602,55.72042810,0 37.75163084,55.71989308,0 37.75099538,55.71939080,0 37.75027579,55.71892609,0 37.74947898,55.71850343,0 37.74861263,55.71812688,0 37.74768508,55.71780007,0 37.74670526,55.71752614,0 37.74568260,55.71730774,0 37.74462696,55.71714697,0 37.74354849,55.71704536,0 37.74245757,55.71700391,0 37.59923884,55.71545399,0 37.59814597,55.71547182,0 37.59706146,55.71555001,0 37.59599574,55.71568783,0 37.59495907,55.71588394,0 37.59396144,55.71613646,0 37.59301244,55.71644295,0 37.59212121,55.71680047,0 37.59129633,55.71720558,0 37.59054576,55.71765437,0 37.58987671,55.71814252,0 37.58929563,55.71866534,0 37.58880811,55.71921778,0 37.58841887,55.71979454,0 37.58813164,55.72039005,0 37.58794921,55.72099859,0 37.58787332,55.72161429,0</coordinates></LinearRing></outerBoundaryIs></Polygon></Placemark>
<Placemark><name>BASE</name><description>both</description><Point><coordinates>37.59394875,55.72977169,0</coordinates></Point></Placemark>
</Document></kml>