{
  "type": "FeatureCollection",
  "features": [
    {
      "type": "Feature",
      "geometry": {
        "type": "Polygon",
        "coordinates": [
          [
            [
              37.59901374614922,
              55.7217418638082
            ],
            [
              37.74225548128625,
              55.72329213916315
            ],
            [
              37.7417354452074,
              55.739461849022035
            ],
            [
              37.598434529147006,
              55.737910638679
            ],
            [
              37.59901374614922,
              55.7217418638082
            ]
          ]
        ]
      },
      "properties": {
        "id": "CORRIDOR",
        "survey_type": "geophysics",
        "payload_profile": "GEO_STD"
      }
    }
  ]
}