{
  "type": "FeatureCollection",
  "features": [
    {
      "type": "Feature",
      "geometry": {
        "type": "Polygon",
        "coordinates": [
          [
            [
              37.579915929176295,
              55.72152254419826
            ],
            [
              37.57664664060422,
              55.81134774249838
            ],
            [
              37.5767002513073,
              55.812405329774826
            ],
            [
              37.576937702285335,
              55.81345486507834
            ],
            [
              37.577356721257836,
              55.81448623983926
            ],
            [
              37.57795328636422,
              55.8154895196087
            ],
            [
              37.57872166437648,
              55.81645503979977
            ],
            [
              37.57965446545086,
              55.817373498857066
            ],
            [
              37.58074271390903,
              55.81823604795359
            ],
            [
              37.58197593438196,
              55.819034376346735
            ],
            [
              37.58334225249847,
              55.819760791566075
            ],
            [
              37.58482850915619,
              55.820408293654964
            ],
            [
              37.586420387277855,
              55.820970642744726
            ],
            [
              37.5881025498312,
              55.82144241930456
            ],
            [
              37.58985878777788,
              55.821819076480786
            ],
            [
              37.59167217651725,
              55.82209698401592
            ],
            [
              37.59352523930521,
              55.82227346331944
            ],
            [
              37.5954001160579,
              55.82234681334824
            ],
            [
              37.75496869409451,
              55.82406547257416
            ],
            [
              37.75684730515984,
              55.82403254897335
            ],
            [
              37.75871112737792,
              55.82389609963473
            ],
            [
              37.76054219663139,
              55.82365743964283
            ],
            [
              37.762322865234076,
              55.82331886920025
            ],
            [
              37.764035972406695,
              55.82288365140713
            ],
            [
              37.76566501000483,
              55.82235598074019
            ],
            [
              37.7671942818853,
              55.82174094253866
            ],
            [
              37.76860905536148,
              55.82104446389189
            ],
            [
              37.76989570327764,
              55.820273256406765
            ],
            [
              37.77104183532678,
              55.819434751412324
            ],
            [
              37.77203641734423,
              55.81853702823113
            ],
            [
              37.772869877429386,
              55.81758873621488
            ],
            [
              37.77353419787912,
              55.81659901130091
            ],
            [
              37.77402299205722,
              55.81557738789882
            ],
            [
              37.77433156547277,
              55.81453370696058
            ],
            [
              37.774456960495826,
              55.81347802112394
            ],
            [
              37.77727219873968,
              55.723645695540256
            ],
            [
              37.77721324656233,
              55.72258815868186
            ],
            [
              37.77697092902312,
              55.72153897499369
            ],
            [
              37.776547594163326,
              55.720508247686745
            ],
            [
              37.77594733232173,
              55.71950590145722
            ],
            [
              37.775175936228166,
              55.71854158697462
            ],
            [
              37.774240844760364,
              55.71762458803557
            ],
            [
              37.77315107092314,
              55.716763732274174
            ],
            [
              37.7719171147583,
              55.71596730628409
            ],
            [
              37.770550862034845,
              55.71524297596474
            ],
            [
              37.76906546970249,
              55.714597712852566
            ],
            [
              37.76747523921462,
              55.714037727141154
            ],
            [
              37.765795478939395,
              55.71356840802884
            ],
            [
              37.76404235697863,
              55.71319427196261
            ],
            [
              37.762232745802315,
              55.71291891927078
            ],
            [
              37.76038406018201,
              55.71274499959771
            ],
            [
              37.75851408996747,
              55.712674186468846
            ],
            [
              37.599399563151266,
              55.710962654541866
            ],
            [
              37.597526293532326,
              55.71099320210642
            ],
            [
              37.59566733783907,
              55.71112723691378
            ],
            [
              37.593840584428385,
              55.71136346910536
            ],
            [
              37.59206361250889,
              55.71169962537707
            ],
            [
              37.59035352335894,
              55.712132470805614
            ],
            [
              37.588726776090155,
              55.712657839908715
            ],
            [
              37.5871990295206,
              55.71327067664379
            ],
            [
              37.585784991665676,
              55.71396508296409
            ],
            [
              37.58449827828493,
              55.7147343754702
            ],
            [
              37.583351281839676,
              55.715571149616835
            ],
            [
              37.58235505212011,
              55.71646735086297
            ],
            [
              37.581519189692436,
              55.7174143520857
            ],
            [
              37.58085175319768,
              55.718403036518716
            ],
            [
              37.5803591814038,
              55.71942388542219
            ],
            [
              37.58004623077512,
              55.72046706964447
            ],
            [
              37.579915929176295,
              55.72152254419826
            ]
          ]
        ]
      },
      "properties": {
        "id": "ALLOWED",
        "layer": "allowed_airspace"
      }
    }
  ]
}