{
  "type": "FeatureCollection",
  "features": [
    {
      "type": "Feature",
      "geometry": {
        "type": "Polygon",
        "coordinates": [
          [
            [
              37.62961681293042,
              55.75713355575119
            ],
            [
              37.64873242658022,
              55.757345235974896
            ],
            [
              37.64826629019994,
              55.7708194208685
            ],
            [
              37.629144087381825,
              55.77060763421371
            ],
            [
              37.62961681293042,
              55.75713355575119
            ]
          ]
        ]
      },
      "properties": {
        "id": "NFZ_A",
        "layer": "no_fly_zone",
        "hard": true
      }
    },
    {
      "type": "Feature",
      "geometry": {
        "type": "Polygon",
        "coordinates": [
          [
            [
              37.718707327350664,
              55.76168918498888
            ],
            [
              37.74101229306807,
              55.76191970297236
            ],
            [
              37.740635849067694,
              55.773597751917826
            ],
            [
              37.718324218458115,
              55.77336713348013
            ],
            [
              37.718707327350664,
              55.76168918498888
            ]
          ]
        ]
      },
      "properties": {
        "id": "NFZ_B",
        "layer": "no_fly_zone",
        "hard": true
      }
    }
  ]
}