{
  "type": "FeatureCollection",
  "features": [
    {
      "type": "Feature",
      "geometry": {
        "type": "Polygon",
        "coordinates": [
          [
            [
              37.662194673837476,
              55.74581045926489
            ],
            [
              37.662189087403455,
              55.74570470207641
            ],
            [
              37.66216515072059,
              55.74559976299815
            ],
            [
              37.66212309445653,
              55.74549665264104
            ],
            [
              37.662063323770504,
              55.74539636399658
            ],
            [
              37.661986414406265,
              55.745299862874695
            ],
            [
              37.66189310714278,
              55.7452080786032
            ],
            [
              37.661784300656315,
              55.74512189507923
            ],
            [
              37.661661042862725,
              55.74504214225807
            ],
            [
              37.661524520823555,
              55.744969588161744
            ],
            [
              37.661376049313134,
              55.74490493148422
            ],
            [
              37.66121705815691,
              55.744848794864104
            ],
            [
              37.66104907846281,
              55.74480171888989
            ],
            [
              37.6608737278783,
              55.744764156895265
            ],
            [
              37.66069269501498,
              55.74473647059452
            ],
            [
              37.66050772319054,
              55.74471892660016
            ],
            [
              37.66032059364461,
              55.744711693856075
            ],
            [
              37.6601331083898,
              55.744714842011135
            ],
            [
              37.659947072863005,
              55.74472834074861
            ],
            [
              37.659764278543776,
              55.74475206007808
            ],
            [
              37.6595864857069,
              55.74478577158701
            ],
            [
              37.65941540647523,
              55.7448291506397
            ],
            [
              37.659252688335506,
              55.74488177950286
            ],
            [
              37.65909989827606,
              55.74494315136737
            ],
            [
              37.65895850769875,
              55.74501267522781
            ],
            [
              37.658829878250515,
              55.74508968157257
            ],
            [
              37.65871524871074,
              55.74517342883014
            ],
            [
              37.65861572306093,
              55.745263110509235
            ],
            [
              37.6585322598513,
              55.74535786296401
            ],
            [
              37.65846566296698,
              55.74545677371029
            ],
            [
              37.65841657388277,
              55.74555889021172
            ],
            [
              37.658385465481096,
              55.74566322905235
            ],
            [
              37.658372637493066,
              55.74576878540638
            ],
            [
              37.658378213606426,
              55.74587454271492
            ],
            [
              37.65840214026877,
              55.74597948247553
            ],
            [
              37.65844418719755,
              55.74608259405111
            ],
            [
              37.6585039495923,
              55.74618288440331
            ],
            [
              37.65858085202788,
              55.74627938765659
            ],
            [
              37.65867415399158,
              55.746371174401226
            ],
            [
              37.65878295701082,
              55.74645736064503
            ],
            [
              37.658906213302984,
              55.74653711632821
            ],
            [
              37.65904273586421,
              55.746609673318744
            ],
            [
              37.65919120990013,
              55.74667433281145
            ],
            [
              37.65935020548822,
              55.74673047205953
            ],
            [
              37.65951819135026,
              55.746777550373494
            ],
            [
              37.659693549601734,
              55.746815114329756
            ],
            [
              37.65987459133642,
              55.74684280213863
            ],
            [
              37.66005957289569,
              55.746860347129655
            ],
            [
              37.66024671266583,
              55.746867580320625
            ],
            [
              37.660434208241305,
              55.74686443204554
            ],
            [
              37.660620253788615,
              55.7468509326257
            ],
            [
              37.66080305744312,
              55.74682721207777
            ],
            [
              37.66098085857127,
              55.746793498861095
            ],
            [
              37.66115194473161,
              55.74675011767701
            ],
            [
              37.66131466817111,
              55.74669748634071
            ],
            [
              37.66146746169779,
              55.74663611175636
            ],
            [
              37.66160885377653,
              55.74656658503391
            ],
            [
              37.661737482702705,
              55.746489575794925
            ],
            [
              37.66185210971698,
              55.74640582572218
            ],
            [
              37.66195163093492,
              55.74631614141513
            ],
            [
              37.66203508797662,
              55.74622138662059
            ],
            [
              37.66210167719397,
              55.746122473912685
            ],
            [
              37.66215075740682,
              55.74602035590311
            ],
            [
              37.66218185607365,
              55.74591601606584
            ],
            [
              37.662194673837476,
              55.74581045926489
            ]
          ]
        ]
      },
      "properties": {
        "id": "TOWER_1",
        "layer": "obstacle",
        "height_m": 180,
        "horizontal_buffer_m": 50
      }
    },
    {
      "type": "Feature",
      "geometry": {
        "type": "Polygon",
        "coordinates": [
          [
            [
              37.712064911117245,
              55.793969728130804
            ],
            [
              37.712057753070596,
              55.79383753464993
            ],
            [
              37.712027630101346,
              55.79370637297615
            ],
            [
              37.71197483253621,
              55.79357750625257
            ],
            [
              37.71189986905507,
              55.79345217550855
            ],
            [
              37.711803461784065,
              55.79333158770909
            ],
            [
              37.71168653933397,
              55.79321690413248
            ],
            [
              37.711550227851106,
              55.79310922918843
            ],
            [
              37.711395840167405,
              55.79300959978416
            ],
            [
              37.711224863154115,
              55.7929189753408
            ],
            [
              37.71103894340113,
              55.79283822855602
            ],
            [
              37.7108398713599,
              55.792768137002106
            ],
            [
              37.71062956410262,
              55.79270937563988
            ],
            [
              37.71041004686362,
              55.7926625103207
            ],
            [
              37.710183433540635,
              55.792627992339135
            ],
            [
              37.709951906343434,
              55.79260615408833
            ],
            [
              37.70971769478569,
              55.792597205860254
            ],
            [
              37.709483054221984,
              55.7926012338213
            ],
            [
              37.70925024413632,
              55.79261819918285
            ],
            [
              37.709021506391096,
              55.79264793857469
            ],
            [
              37.708799043645364,
              55.79269016561782
            ],
            [
              37.70858499815011,
              55.792744473681324
            ],
            [
              37.70838143112442,
              55.79281033979702
            ],
            [
              37.708190302910786,
              55.79288712969398
            ],
            [
              37.708013454100524,
              55.79297410390485
            ],
            [
              37.70785258781084,
              55.793070424885
            ],
            [
              37.70770925328423,
              55.79317516507595
            ],
            [
              37.70758483096791,
              55.7932873158358
            ],
            [
              37.70748051921716,
              55.79340579715062
            ],
            [
              37.70739732275065,
              55.79352946803323
            ],
            [
              37.707336042969125,
              55.79365713750951
            ],
            [
              37.70729727023076,
              55.79378757608655
            ],
            [
              37.70728137815805,
              55.793919527591854
            ],
            [
              37.70728852003113,
              55.794051721270215
            ],
            [
              37.70731862730273,
              55.79418288402143
            ],
            [
              37.70737141024945,
              55.79431175266102
            ],
            [
              37.70744636075314,
              55.79443708608592
            ],
            [
              37.70754275718639,
              55.794557677228156
            ],
            [
              37.70765967135491,
              55.794672364680956
            ],
            [
              37.70779597743065,
              55.79478004388565
            ],
            [
              37.707950362789454,
              55.79487967777128
            ],
            [
              37.70812134064943,
              55.79497030674453
            ],
            [
              37.70830726438813,
              55.795051057933605
            ],
            [
              37.70850634340095,
              55.795121153596995
            ],
            [
              37.70871666034778,
              55.79517991861596
            ],
            [
              37.70893618962192,
              55.79522678699858
            ],
            [
              37.70916281686314,
              55.7952613073326
            ],
            [
              37.70939435932679,
              55.79528314713443
            ],
            [
              37.70962858691252,
              55.79529209605252
            ],
            [
              37.709863243649814,
              55.79528806789397
            ],
            [
              37.710096069433106,
              55.79527110145498
            ],
            [
              37.71032482179675,
              55.795241360147145
            ],
            [
              37.71054729751994,
              55.795199130423114
            ],
            [
              37.710761353852945,
              55.79514481901683
            ],
            [
              37.7109649291602,
              55.79507894902496
            ],
            [
              37.71115606278096,
              55.79500215486737
            ],
            [
              37.71133291391613,
              55.79491517617511
            ],
            [
              37.711493779359124,
              55.79481885066509
            ],
            [
              37.71163710990001,
              55.79471410606983
            ],
            [
              37.71176152524475,
              55.79460195120051
            ],
            [
              37.71186582730595,
              55.794483466228954
            ],
            [
              37.71194901173731,
              55.79435979228291
            ],
            [
              37.71201027760061,
              55.79423212045417
            ],
            [
              37.712049035072525,
              55.794101680326115
            ],
            [
              37.712064911117245,
              55.793969728130804
            ]
          ]
        ]
      },
      "properties": {
        "id": "STACK_2",
        "layer": "obstacle",
        "height_m": 230,
        "horizontal_buffer_m": 50
      }
    },
    {
      "type": "Feature",
      "geometry": {
        "type": "Polygon",
        "coordinates": [
          [
            [
              37.68228591968818,
              55.797248632802436
            ],
            [
              37.68228168514601,
              55.79716931601792
            ],
            [
              37.68226367002453,
              55.79709061497371
            ],
            [
              37.68223204790062,
              55.7970132875983
            ],
            [
              37.682187123388445,
              55.796938078586685
            ],
            [
              37.682129329202965,
              55.79686571222888
            ],
            [
              37.68205922199,
              55.796796885435164
            ],
            [
              37.681977476963375,
              55.7967322610251
            ],
            [
              37.68188488140048,
              55.79667246134501
            ],
            [
              37.68178232705933,
              55.79661806227528
            ],
            [
              37.681670801589995,
              55.7965695876852
            ],
            [
              37.681551379023134,
              55.7965275043887
            ],
            [
              37.68142520942725,
              55.79649221764966
            ],
            [
              37.68129350783438,
              55.79646406727968
            ],
            [
              37.68115754254052,
              55.7964433243663
            ],
            [
              37.68101862289364,
              55.796430188662896
            ],
            [
              37.68087808668677,
              55.796424786665405
            ],
            [
              37.680737287277324,
              55.79642717039442
            ],
            [
              37.68059758055673,
              55.79643731689431
            ],
            [
              37.68046031189565,
              55.7964551284543
            ],
            [
              37.68032680319053,
              55.79648043354923
            ],
            [
              37.68019834013583,
              55.796512988491095
            ],
            [
              37.68007615984475,
              55.79655247977531
            ],
            [
              37.67996143893727,
              55.79659852709928
            ],
            [
              37.679855282210305,
              55.796650687024204
            ],
            [
              37.67975871199904,
              55.79670845724471
            ],
            [
              37.67967265833171,
              55.796771281425485
            ],
            [
              37.67959794997273,
              55.79683855455817
            ],
            [
              37.679535306440506,
              55.79690962878703
            ],
            [
              37.67948533107666,
              55.79698381964736
            ],
            [
              37.67944850523362,
              55.79706041265653
            ],
            [
              37.67942518363648,
              55.7971386701942
            ],
            [
              37.67941559096411,
              55.7972178386056
            ],
            [
              37.679419819682266,
              55.797297155459255
            ],
            [
              37.679437829149954,
              55.79737585688947
            ],
            [
              37.67946944600756,
              55.797453184952936
            ],
            [
              37.679514365843296,
              55.79752839492819
            ],
            [
              37.67957215612194,
              55.797600762488216
            ],
            [
              37.67964226034778,
              55.79766959067653
            ],
            [
              37.679724003421796,
              55.79773421661993
            ],
            [
              37.679816598141656,
              55.79779401791324
            ],
            [
              37.6799191527817,
              55.797848418614045
            ],
            [
              37.6800306796804,
              55.79789689479037
            ],
            [
              37.68015010475218,
              55.79793897956732
            ],
            [
              37.680276277832235,
              55.79797426762414
            ],
            [
              37.68040798375466,
              55.79800241909857
            ],
            [
              37.680543954057086,
              55.798023162860645
            ],
            [
              37.68068287919903,
              55.79803629912436
            ],
            [
              37.68082342117633,
              55.79804170137225
            ],
            [
              37.68096422640979,
              55.79803931757412
            ],
            [
              37.68110393878419,
              55.798029170688224
            ],
            [
              37.68124121271156,
              55.79801135844018
            ],
            [
              37.68137472609311,
              55.797986052381596
            ],
            [
              37.68150319305465,
              55.79795349623752
            ],
            [
              37.68162537633286,
              55.79791400355872
            ],
            [
              37.68174009919295,
              55.79786795470139
            ],
            [
              37.68184625676295,
              55.797815793163245
            ],
            [
              37.68194282667531,
              55.797758021311665
            ],
            [
              37.682028878913286,
              55.79769519554466
            ],
            [
              37.682103584767354,
              55.79762792093153
            ],
            [
              37.682166224815404,
              55.79755684538489
            ],
            [
              37.68221619584968,
              55.797482653420104
            ],
            [
              37.68225301668417,
              55.79740605956223
            ],
            [
              37.68227633278624,
              55.79732780146424
            ],
            [
              37.68228591968818,
              55.797248632802436
            ]
          ]
        ]
      },
      "properties": {
        "id": "MAST_3",
        "layer": "obstacle",
        "height_m": 120,
        "horizontal_buffer_m": 50
      }
    }
  ]
}