<?xml version="1.0" encoding="UTF-8"?>
<kml xmlns="http://www.opengis.net/kml/2.2"><Document>
<Style id="survey"><PolyStyle><color>5522aa22</color></PolyStyle></Style>
<Style id="nfz"><PolyStyle><color>55aa2222</color></PolyStyle></Style>
<Style id="allowed"><PolyStyle><color>222222aa</color></PolyStyle></Style>
<Placemark><name>JOB_RGB</name><styleUrl>#survey</styleUrl><Polygon><outerBoundaryIs><LinearRing><coordinates>37.59901375,55.72174186,0 37.63084402,55.72210080,0 37.62769189,55.81192794,0 37.59578839,55.81156780,0 37.59901375,55.72174186,0</coordinates></LinearRing></outerBoundaryIs></Polygon></Placemark>
<Placemark><name>JOB_MS</name><styleUrl>#survey</styleUrl><Polygon><outerBoundaryIs><LinearRing><coordinates>37.63084402,55.72210080,0 37.66267501,55.72245149,0 37.65959610,55.81227981,0 37.62769189,55.81192794,0 37.63084402,55.72210080,0</coordinates></LinearRing></outerBoundaryIs></Polygon></Placemark>
<Placemark><name>JOB_GEO</name><styleUrl>#survey</styleUrl><Polygon><outerBoundaryIs><LinearRing><coordinates>37.66267501,55.72245149,0 37.69450669,55.72279394,0 37.69150102,55.81262340,0 37.65959610,55.81227981,0 37.66267501,55.72245149,0</coordinates></LinearRing></outerBoundaryIs><innerBoundaryIs><LinearRing><coordinates>37.66622463,55.75843495,0 37.68852728,55.75867498,0 37.68810502,55.77125109,0 37.66579520,55.77101095,0 37.66622463,55.75843495,0</coordinates></LinearRing></innerBoundaryIs></Polygon></Placemark>
<Placemark><name>JOB_LIDAR</name><styleUrl>#survey</styleUrl><Polygon><outerBoundaryIs><LinearRing><coordinates>37.69450669,55.72279394,0 37.72633905,55.72312813,0 37.72340662,55.81295872,0 37.69150102,55.81262340,0 37.69450669,55.72279394,0</coordinates></LinearRing></outerBoundaryIs></Polygon></Placemark>
<Placemark><name>JOB_IR</name><styleUrl>#survey</styleUrl><Polygon><outerBoundaryIs><LinearRing><coordinates>37.72633905,55.72312813,0 37.75817207,55.72345408,0 37.75531289,55.81328577,0 37.72340662,55.81295872,0 37.72633905,55.72312813,0</coordinates></LinearRing></outerBoundaryIs></Polygon></Placemark>
<Placemark><name>ALLOWED_AIRSPACE</name><styleUrl>#allowed</styleUrl><Polygon><outerBoundaryIs><LinearRing><coordinates>37.57991593,55.72152254,0 37.57664664,55.81134774,0 37.57670025,55.81240533,0 37.57693770,55.81345487,0 37.57735672,55.81448624,0 37.57795329,55.81548952,0 37.57872166,55.81645504,0 37.57965447,55.81737350,0 37.58074271,55.81823605,0 37.58197593,55.81903438,0 37.58334225,55.81976079,0 37.58482851,55.82040829,0 37.58642039,55.82097064,0 37.58810255,55.82144242,0 37.58985879,55.82181908,0 37.59167218,55.82209698,0 37.59352524,55.82227346,0 37.59540012,55.82234681,0 37.75496869,55.82406547,0 37.75684731,55.82403255,0 37.75871113,55.82389610,0 37.76054220,55.82365744,0 37.76232287,55.82331887,0 37.76403597,55.82288365,0 37.76566501,55.82235598,0 37.76719428,55.82174094,0 37.76860906,55.82104446,0 37.76989570,55.82027326,0 37.77104184,55.81943475,0 37.77203642,55.81853703,0 37.77286988,55.81758874,0 37.77353420,55.81659901,0 37.77402299,55.81557739,0 37.77433157,55.81453371,0 37.77445696,55.81347802,0 37.77727220,55.72364570,0 37.77721325,55.72258816,0 37.77697093,55.72153897,0 37.77654759,55.72050825,0 37.77594733,55.71950590,0 37.77517594,55.71854159,0 37.77424084,55.71762459,0 37.77315107,55.71676373,0 37.77191711,55.71596731,0 37.77055086,55.71524298,0 37.76906547,55.71459771,0 37.76747524,55.71403773,0 37.76579548,55.71356841,0 37.76404236,55.71319427,0 37.76223275,55.71291892,0 37.76038406,55.71274500,0 37.75851409,55.71267419,0 37.59939956,55.71096265,0 37.59752629,55.71099320,0 37.59566734,55.71112724,0 37.59384058,55.71136347,0 37.59206361,55.71169963,0 37.59035352,55.71213247,0 37.58872678,55.71265784,0 37.58719903,55.71327068,0 37.58578499,55.71396508,0 37.58449828,55.71473438,0 37.58335128,55.71557115,0 37.58235505,55.71646735,0 37.58151919,55.71741435,0 37.58085175,55.71840304,0 37.58035918,55.71942389,0 37.58004623,55.72046707,0 37.57991593,55.72152254,0</coordinates></LinearRing></outerBoundaryIs></Polygon></Placemark>
<Placemark><name>NFZ_A</name><styleUrl>#nfz</styleUrl><Polygon><outerBoundaryIs><LinearRing><coordinates>37.62961681,55.75713356,0 37.64873243,55.75734524,0 37.64826629,55.77081942,0 37.62914409,55.77060763,0 37.62961681,55.75713356,0</coordinates></LinearRing></outerBoundaryIs></Polygon></Placemark>
<Placemark><name>NFZ_B</name><styleUrl>#nfz</styleUrl><Polygon><outerBoundaryIs><LinearRing><coordinates>37.71870733,55.76168918,0 37.74101229,55.76191970,0 37.74063585,55.77359775,0 37.71832422,55.77336713,0 37.71870733,55.76168918,0</coordinates></LinearRing></outerBoundaryIs></Polygon></Placemark>
<Placemark><name>BASE_W</name><description>both</description><Point><coordinates>37.59060328,55.73422652,0</coordinates></Point></Placemark>
<Placemark><name>BASE_E</name><description>both</description><Point><coordinates>37.76570533,55.73700917,0</coordinates></Point></Placemark>
<Placemark><name>BASE_N</name><description>both</description><Point><coordinates>37.73602346,55.81758205,0</coordinates></Point></Placemark>
<Placemark><name>RES_1</name><description>reserve</description><Point><coordinates>37.65419191,55.73763546,0</coordinates></Point></Placemark>
<Placemark><name>RES_2</name><description>reserve</description><Point><coordinates>37.69345742,55.80186090,0</coordinates></Point></Placemark>
<Placemark><name>RES_3</name><description>reserve</description><Point><coordinates>37.62347700,55.79570570,0</coordinates></Point></Placemark>
<Placemark><name>TOWER_1</name><Polygon><outerBoundaryIs><LinearRing><coordinates>37.66219467,55.74581046,0 37.66218909,55.74570470,0 37.66216515,55.74559976,0 37.66212309,55.74549665,0 37.66206332,55.74539636,0 37.66198641,55.74529986,0 37.66189311,55.74520808,0 37.66178430,55.74512190,0 37.66166104,55.74504214,0 37.66152452,55.74496959,0 37.66137605,55.74490493,0 37.66121706,55.74484879,0 37.66104908,55.74480172,0 37.66087373,55.74476416,0 37.66069270,55.74473647,0 37.66050772,55.74471893,0 37.66032059,55.74471169,0 37.66013311,55.74471484,0 37.65994707,55.74472834,0 37.65976428,55.74475206,0 37.65958649,55.74478577,0 37.65941541,55.74482915,0 37.65925269,55.74488178,0 37.65909990,55.74494315,0 37.65895851,55.74501268,0 37.65882988,55.74508968,0 37.65871525,55.74517343,0 37.65861572,55.74526311,0 37.65853226,55.74535786,0 37.65846566,55.74545677,0 37.65841657,55.74555889,0 37.65838547,55.74566323,0 37.65837264,55.74576879,0 37.65837821,55.74587454,0 37.65840214,55.74597948,0 37.65844419,55.74608259,0 37.65850395,55.74618288,0 37.65858085,55.74627939,0 37.65867415,55.74637117,0 37.65878296,55.74645736,0 37.65890621,55.74653712,0 37.65904274,55.74660967,0 37.65919121,55.74667433,0 37.65935021,55.74673047,0 37.65951819,55.74677755,0 37.65969355,55.74681511,0 37.65987459,55.74684280,0 37.66005957,55.74686035,0 37.66024671,55.74686758,0 37.66043421,55.74686443,0 37.66062025,55.74685093,0 37.66080306,55.74682721,0 37.66098086,55.74679350,0 37.66115194,55.74675012,0 37.66131467,55.74669749,0 37.66146746,55.74663611,0 37.66160885,55.74656659,0 37.66173748,55.74648958,0 37.66185211,55.74640583,0 37.66195163,55.74631614,0 37.66203509,55.74622139,0 37.66210168,55.74612247,0 37.66215076,55.74602036,0 37.66218186,55.74591602,0 37.66219467,55.74581046,0</coordinates></LinearRing></outerBoundaryIs></Polygon></Placemark>
<Placemark><name>STACK_2</name><Polygon><outerBoundaryIs><LinearRing><coordinates>37.71206491,55.79396973,0 37.71205775,55.79383753,0 37.71202763,55.79370637,0 37.71197483,55.79357751,0 37.71189987,55.79345218,0 37.71180346,55.79333159,0 37.71168654,55.79321690,0 37.71155023,55.79310923,0 37.71139584,55.79300960,0 37.71122486,55.79291898,0 37.71103894,55.79283823,0 37.71083987,55.79276814,0 37.71062956,55.79270938,0 37.71041005,55.79266251,0 37.71018343,55.79262799,0 37.70995191,55.79260615,0 37.70971769,55.79259721,0 37.70948305,55.79260123,0 37.70925024,55.79261820,0 37.70902151,55.79264794,0 37.70879904,55.79269017,0 37.70858500,55.79274447,0 37.70838143,55.79281034,0 37.70819030,55.79288713,0 37.70801345,55.79297410,0 37.70785259,55.79307042,0 37.70770925,55.79317517,0 37.70758483,55.79328732,0 37.70748052,55.79340580,0 37.70739732,55.79352947,0 37.70733604,55.79365714,0 37.70729727,55.79378758,0 37.70728138,55.79391953,0 37.70728852,55.79405172,0 37.70731863,55.79418288,0 37.70737141,55.79431175,0 37.70744636,55.79443709,0 37.70754276,55.79455768,0 37.70765967,55.79467236,0 37.70779598,55.79478004,0 37.70795036,55.79487968,0 37.70812134,55.79497031,0 37.70830726,55.79505106,0 37.70850634,55.79512115,0 37.70871666,55.79517992,0 37.70893619,55.79522679,0 37.70916282,55.79526131,0 37.70939436,55.79528315,0 37.70962859,55.79529210,0 37.70986324,55.79528807,0 37.71009607,55.79527110,0 37.71032482,55.79524136,0 37.71054730,55.79519913,0 37.71076135,55.79514482,0 37.71096493,55.79507895,0 37.71115606,55.79500215,0 37.71133291,55.79491518,0 37.71149378,55.79481885,0 37.71163711,55.79471411,0 37.71176153,55.79460195,0 37.71186583,55.79448347,0 37.71194901,55.79435979,0 37.71201028,55.79423212,0 37.71204904,55.79410168,0 37.71206491,55.79396973,0</coordinates></LinearRing></outerBoundaryIs></Polygon></Placemark>
<Placemark><name>MAST_3</name><Polygon><outerBoundaryIs><LinearRing><coordinates>37.68228592,55.79724863,0 37.68228169,55.79716932,0 37.68226367,55.79709061,0 37.68223205,55.79701329,0 37.68218712,55.79693808,0 37.68212933,55.79686571,0 37.68205922,55.79679689,0 37.68197748,55.79673226,0 37.68188488,55.79667246,0 37.68178233,55.79661806,0 37.68167080,55.79656959,0 37.68155138,55.79652750,0 37.68142521,55.79649222,0 37.68129351,55.79646407,0 37.68115754,55.79644332,0 37.68101862,55.79643019,0 37.68087809,55.79642479,0 37.68073729,55.79642717,0 37.68059758,55.79643732,0 37.68046031,55.79645513,0 37.68032680,55.79648043,0 37.68019834,55.79651299,0 37.68007616,55.79655248,0 37.67996144,55.79659853,0 37.67985528,55.79665069,0 37.67975871,55.79670846,0 37.67967266,55.79677128,0 37.67959795,55.79683855,0 37.67953531,55.79690963,0 37.67948533,55.79698382,0 37.67944851,55.79706041,0 37.67942518,55.79713867,0 37.67941559,55.79721784,0 37.67941982,55.79729716,0 37.67943783,55.79737586,0 37.67946945,55.79745318,0 37.67951437,55.79752839,0 37.67957216,55.79760076,0 37.67964226,55.79766959,0 37.67972400,55.79773422,0 37.67981660,55.79779402,0 37.67991915,55.79784842,0 37.68003068,55.79789689,0 37.68015010,55.79793898,0 37.68027628,55.79797427,0 37.68040798,55.79800242,0 37.68054395,55.79802316,0 37.68068288,55.79803630,0 37.68082342,55.79804170,0 37.68096423,55.79803932,0 37.68110394,55.79802917,0 37.68124121,55.79801136,0 37.68137473,55.79798605,0 37.68150319,55.79795350,0 37.68162538,55.79791400,0 37.68174010,55.79786795,0 37.68184626,55.79781579,0 37.68194283,55.79775802,0 37.68202888,55.79769520,0 37.68210358,55.79762792,0 37.68216622,55.79755685,0 37.68221620,55.79748265,0 37.68225302,55.79740606,0 37.68227633,55.79732780,0 37.68228592,55.79724863,0</coordinates></LinearRing></outerBoundaryIs></Polygon></Placemark>
</Document></kml>