{
  "type": "FeatureCollection",
  "features": [
    {
      "type": "Feature",
      "geometry": {
        "type": "Polygon",
        "coordinates": [
          [
            [
              37.59901374614922,
              55.7217418638082
            ],
            [
              37.63084402176988,
              55.7221008001385
            ],
            [
              37.62769188755536,
              55.811927939529824
            ],
            [
              37.59578838876532,
              55.81156779831422
            ],
            [
              37.59901374614922,
              55.7217418638082
            ]
          ]
        ]
      },
      "properties": {
        "id": "JOB_RGB",
        "survey_type": "rgb",
        "payload_profile": "RGB_STD"
      }
    },
    {
      "type": "Feature",
      "geometry": {
        "type": "Polygon",
        "coordinates": [
          [
            [
              37.63084402176988,
              55.7221008001385
            ],
            [
              37.66267500891167,
              55.722451490680704
            ],
            [
              37.65959610340823,
              55.812279807299156
            ],
            [
              37.62769188755536,
              55.811927939529824
            ],
            [
              37.63084402176988,
              55.7221008001385
            ]
          ]
        ]
      },
      "properties": {
        "id": "JOB_MS",
        "survey_type": "multispectral",
        "payload_profile": "MS_STD"
      }
    },
    {
      "type": "Feature",
      "geometry": {
        "type": "Polygon",
        "coordinates": [
          [
            [
              37.66267500891167,
              55.722451490680704
            ],
            [
              37.694506691059644,
              55.722793935042766
            ],
            [
              37.69150101968054,
              55.81262340122737
            ],
            [
              37.65959610340823,
              55.812279807299156
            ],
            [
              37.66267500891167,
              55.722451490680704
            ]
          ],
          [
            [
              37.66622463416097,
              55.758434951382945
            ],
            [
              37.68852728265409,
              55.758674983877775
            ],
            [
              37.68810502322605,
              55.771251091250086
            ],
            [
              37.66579519901991,
              55.77101094611344
            ],
            [
              37.66622463416097,
              55.758434951382945
            ]
          ]
        ]
      },
      "properties": {
        "id": "JOB_GEO",
        "survey_type": "geophysics",
        "payload_profile": "GEO_STD"
      }
    },
    {
      "type": "Feature",
      "geometry": {
        "type": "Polygon",
        "coordinates": [
          [
            [
              37.694506691059644,
              55.722793935042766
            ],
            [
              37.72633905169662,
              55.72312813284185
            ],
            [
              37.72340661972663,
              55.812958720928876
            ],
            [
              37.69150101968054,
              55.81262340122737
            ],
            [
              37.694506691059644,
              55.722793935042766
            ]
          ]
        ]
      },
      "properties": {
        "id": "JOB_LIDAR",
        "survey_type": "lidar",
        "payload_profile": "LIDAR_STD"
      }
    },
    {
      "type": "Feature",
      "geometry": {
        "type": "Polygon",
        "coordinates": [
          [
            [
              37.72633905169662,
              55.72312813284185
            ],
            [
              37.7581720743032,
              55.72345408370432
            ],
            [
              37.75531288689859,
              55.81328576602736
            ],
            [
              37.72340661972663,
              55.812958720928876
            ],
            [
              37.72633905169662,
              55.72312813284185
            ]
          ]
        ]
      },
      "properties": {
        "id": "JOB_IR",
        "survey_type": "thermal",
        "payload_profile": "IR_STD"
      }
    }
  ]
}