{
  "type": "FeatureCollection",
  "features": [
    {
      "type": "Feature",
      "geometry": {
        "type": "Polygon",
        "coordinates": [
          [
            [
              37.695559185508166,
              55.73898026036633
            ],
            [
              37.713074153271215,
              55.73916497424651
            ],
            [
              37.71271926949844,
              55.749944635850696
            ],
            [
              37.69519947511027,
              55.74975984769415
            ],
            [
              37.695559185508166,
              55.73898026036633
            ]
          ]
        ]
      },
      "properties": {
        "id": "TNFZ_1",
        "layer": "airspace_constraint",
        "min_alt_m": 0,
        "max_alt_m": 700,
        "active_from": "2026-06-15T11:00:00+03:00",
        "active_to": "2026-06-15T12:30:00+03:00"
      }
    },
    {
      "type": "Feature",
      "geometry": {
        "type": "Polygon",
        "coordinates": [
          [
            [
              37.6110086068325,
              55.78747787821099
            ],
            [
              37.633327339936386,
              55.78772801313955
            ],
            [
              37.63285535315766,
              55.80120204497422
            ],
            [
              37.6105289181705,
              55.800951784228104
            ],
            [
              37.6110086068325,
              55.78747787821099
            ]
          ]
        ]
      },
      "properties": {
        "id": "ALT_CAP",
        "layer": "airspace_constraint",
        "min_alt_m": 0,
        "max_alt_m": 130,
        "active_from": "2026-06-15T00:00:00+03:00",
        "active_to": "2026-06-15T23:59:59+03:00"
      }
    }
  ]
}