{
  "type": "FeatureCollection",
  "features": [
    {
      "type": "Feature",
      "properties": {
        "id": "JOB_mug9k0vy",
        "survey_type": "rgb",
        "payload_profile": "RGB"
      },
      "geometry": {
        "coordinates": [
          [
            [
              37.4639066395427,
              55.706421083372646
            ],
            [
              37.46426393520767,
              55.68709031963593
            ],
            [
              37.528934450610194,
              55.68870158175142
            ],
            [
              37.52750526794881,
              55.7086354563086
            ],
            [
              37.4639066395427,
              55.706421083372646
            ]
          ]
        ],
        "type": "Polygon"
      }
    },
    {
      "type": "Feature",
      "properties": {
        "id": "JOB_mug9kanh",
        "survey_type": "rgb",
        "payload_profile": "RGB"
      },
      "geometry": {
        "coordinates": [
          [
            [
              37.55144407751689,
              55.74988035792177
            ],
            [
              37.543940868548816,
              55.68165181980552
            ],
            [
              37.46569311786911,
              55.67802573306864
            ],
            [
              37.463549343877645,
              55.654649553980306
            ],
            [
              37.60753949695368,
              55.65525428623769
            ],
            [
              37.59503414867277,
              55.75028253260396
            ],
            [
              37.55144407751689,
              55.74988035792177
            ]
          ]
        ],
        "type": "Polygon"
      }
    },
    {
      "type": "Feature",
      "properties": {
        "id": "JOB_mug9zkpn",
        "survey_type": "rgb",
        "payload_profile": "RGB"
      },
      "geometry": {
        "coordinates": [
          [
            [
              37.45965152324425,
              55.748568516875196
            ],
            [
              37.46338698498428,
              55.721227567575795
            ],
            [
              37.48057010898415,
              55.72080678799526
            ],
            [
              37.47832883194036,
              55.75067087364343
            ],
            [
              37.46338698498428,
              55.754875247298514
            ],
            [
              37.45965152324425,
              55.748568516875196
            ]
          ]
        ],
        "type": "Polygon"
      }
    },
    {
      "type": "Feature",
      "properties": {
        "id": "JOB_mug9zsll",
        "survey_type": "rgb",
        "payload_profile": "RGB"
      },
      "geometry": {
        "coordinates": [
          [
            [
              37.492523586550334,
              55.750250411353306
            ],
            [
              37.49775323298536,
              55.72501437978917
            ],
            [
              37.509706710550205,
              55.721227567575795
            ],
            [
              37.52166018811647,
              55.72795942430673
            ],
            [
              37.519418911072705,
              55.750250411353306
            ],
            [
              37.50671834115897,
              55.75361398278443
            ],
            [
              37.492523586550334,
              55.750250411353306
            ]
          ]
        ],
        "type": "Polygon"
      }
    },
    {
      "type": "Feature",
      "properties": {
        "id": "JOB_mugb47tq",
        "survey_type": "rgb",
        "payload_profile": "RGB"
      },
      "geometry": {
        "coordinates": [
          [
            [
              37.487760078690314,
              55.71791037069218
            ],
            [
              37.48803476051836,
              55.711024749381096
            ],
            [
              37.510421329597705,
              55.711566359079
            ],
            [
              37.500258101918746,
              55.72123669670384
            ],
            [
              37.49146828338377,
              55.72139140264699
            ],
            [
              37.487760078690314,
              55.71791037069218
            ]
          ]
        ],
        "type": "Polygon"
      }
    }
  ]
}
