{
  "type": "FeatureCollection",
  "features": [
    {
      "type": "Feature",
      "properties": {
        "id": "Airspace_0"
      },
      "geometry": {
        "type": "Polygon",
        "coordinates": [
          [
            [
              37.583019511869,
              55.682986133280096
            ],
            [
              37.58139309954083,
              55.727899257461445
            ],
            [
              37.4731595510945,
              55.72660157836529
            ],
            [
              37.47490993847339,
              55.681690624824384
            ],
            [
              37.583019511869,
              55.682986133280096
            ]
          ]
        ]
      }
    }
  ]
}
