{
  "type": "FeatureCollection",
  "features": [
    {
      "type": "Feature",
      "properties": {
        "id": "Job_0",
        "survey_type": "lidar",
        "payload_profile": "LIDAR"
      },
      "geometry": {
        "type": "Polygon",
        "coordinates": [
          [
            [
              37.50136963684565,
              55.696844263032645
            ],
            [
              37.52045476089291,
              55.69707572682881
            ],
            [
              37.52031900928502,
              55.70066868252347
            ],
            [
              37.51316139911164,
              55.700582219517855
            ],
            [
              37.512990846099186,
              55.7050733963757
            ],
            [
              37.50106021556596,
              55.70492834030515
            ],
            [
              37.50136963684565,
              55.696844263032645
            ]
          ]
        ]
      }
    },
    {
      "type": "Feature",
      "properties": {
        "id": "Job_1",
        "survey_type": "lidar",
        "payload_profile": "LIDAR"
      },
      "geometry": {
        "type": "Polygon",
        "coordinates": [
          [
            [
              37.53635924219316,
              55.69726634813767
            ],
            [
              37.55544487018616,
              55.697492375403165
            ],
            [
              37.55514660414163,
              55.70557664799766
            ],
            [
              37.54321559395299,
              55.70543568600208
            ],
            [
              37.543382683346984,
              55.70094444849949
            ],
            [
              37.53622494858024,
              55.700859329361705
            ],
            [
              37.53635924219316,
              55.69726634813767
            ]
          ]
        ]
      }
    },
    {
      "type": "Feature",
      "properties": {
        "id": "Job_2",
        "survey_type": "rgb",
        "payload_profile": "RGB"
      },
      "geometry": {
        "type": "Polygon",
        "coordinates": [
          [
            [
              37.49684195486723,
              55.711167326869365
            ],
            [
              37.5112463860072,
              55.709096175655695
            ],
            [
              37.520673133830755,
              55.71235535782688
            ],
            [
              37.52048638818736,
              55.71729565942035
            ],
            [
              37.507670735875415,
              55.71938722336333
            ],
            [
              37.496634957511,
              55.71655668921606
            ],
            [
              37.49684195486723,
              55.711167326869365
            ]
          ]
        ]
      }
    },
    {
      "type": "Feature",
      "properties": {
        "id": "Job_3",
        "survey_type": "rgb",
        "payload_profile": "RGB"
      },
      "geometry": {
        "type": "Polygon",
        "coordinates": [
          [
            [
              37.53507679031076,
              55.71028140722171
            ],
            [
              37.55496425568146,
              55.71051703100945
            ],
            [
              37.55879295808901,
              55.71460590477706
            ],
            [
              37.55385347889458,
              55.719041043372016
            ],
            [
              37.54350971309076,
              55.71891881493039
            ],
            [
              37.5436434288881,
              55.715325832689174
            ],
            [
              37.53489187690403,
              55.71522174243694
            ],
            [
              37.53507679031076,
              55.71028140722171
            ]
          ]
        ]
      }
    }
  ]
}
