<?xml version='1.0' encoding='utf-8'?>
<kml xmlns="http://www.opengis.net/kml/2.2"><Document><Placemark><name>JOB_RGB</name><Polygon><outerBoundaryIs><LinearRing><coordinates>37.49760802887873,55.69817008775249,0 37.49749774895873,55.701044422124895,0 37.49240789296219,55.700982034101514,0 37.492518546120635,55.69810770641262,0 37.49760802887873,55.69817008775249,0</coordinates></LinearRing></outerBoundaryIs></Polygon></Placemark><Placemark><name>JOB_MULTISPECTRAL</name><Polygon><outerBoundaryIs><LinearRing><coordinates>37.51510327765215,55.698382915289216,0 37.51499428077688,55.701257272464034,0 37.509904356444146,55.70119560939692,0 37.510013726574776,55.69832125882803,0 37.51510327765215,55.698382915289216,0</coordinates></LinearRing></outerBoundaryIs></Polygon></Placemark><Placemark><name>JOB_THERMAL</name><Polygon><outerBoundaryIs><LinearRing><coordinates>37.5325987595041,55.69859325100928,0 37.53249104573131,55.70146763071978,0 37.52740105385986,55.701406692629746,0 37.52750914090474,55.698532319447565,0 37.5325987595041,55.69859325100928,0</coordinates></LinearRing></outerBoundaryIs></Polygon></Placemark><Placemark><name>JOB_LIDAR</name><Polygon><outerBoundaryIs><LinearRing><coordinates>37.550094471693725,55.69880109484162,0 37.549988041080496,55.70167549682106,0 37.54489798246789,55.70161528372869,0 37.54500478636975,55.69874088819998,0 37.550094471693725,55.69880109484162,0</coordinates></LinearRing></outerBoundaryIs></Polygon></Placemark><Placemark><name>JOB_GEOPHYSICS</name><Polygon><outerBoundaryIs><LinearRing><coordinates>37.567590411479976,55.699006446716034,0 37.56748526408269,55.701880870697636,0 37.56239513952655,55.70182138262329,0 37.5625006602288,55.69894696501479,0 37.567590411479976,55.699006446716034,0</coordinates></LinearRing></outerBoundaryIs></Polygon></Placemark><Placemark><name>BASE_0</name><Point><coordinates>37.49519788906838,55.69463583046652</coordinates></Point></Placemark><Placemark><name>BASE_1</name><Point><coordinates>37.51269154032426,55.69484899261014</coordinates></Point></Placemark><Placemark><name>BASE_2</name><Point><coordinates>37.53018542498685,55.695059663272524</coordinates></Point></Placemark><Placemark><name>BASE_3</name><Point><coordinates>37.54767954031615,55.6952678423825</coordinates></Point></Placemark><Placemark><name>BASE_4</name><Point><coordinates>37.565173883571966,55.69547352986978</coordinates></Point></Placemark></Document></kml>