{
  "type": "FeatureCollection",
  "features": [
    {
      "type": "Feature",
      "geometry": {
        "type": "Polygon",
        "coordinates": [
          [
            [
              37.59933527850811,
              55.712759190865164
            ],
            [
              37.5977741489659,
              55.71278464794856
            ],
            [
              37.596224949743124,
              55.712896348301165
            ],
            [
              37.59470259047193,
              55.713093216861225
            ],
            [
              37.593221722979926,
              55.71337335888619
            ],
            [
              37.59179660054316,
              55.713734078153685
            ],
            [
              37.590440940937526,
              55.714171902862475
            ],
            [
              37.58916779459537,
              55.71468261898627
            ],
            [
              37.58798941912678,
              55.71526131076249
            ],
            [
              37.58691716140616,
              55.71590240792962
            ],
            [
              37.58596134835441,
              55.71659973926207
            ],
            [
              37.585131187466374,
              55.71734659189157
            ],
            [
              37.58443467804219,
              55.71813577584749
            ],
            [
              37.583878533981064,
              55.718959693199395
            ],
            [
              37.58346811888743,
              55.71981041113902
            ],
            [
              37.58320739412346,
              55.72067973830215
            ],
            [
              37.58309888031958,
              55.72155930359753
            ],
            [
              37.582122229530874,
              55.748507052149016
            ],
            [
              37.58216360850688,
              55.74936351423338
            ],
            [
              37.582349448173105,
              55.75021385861414
            ],
            [
              37.58267806772217,
              55.75105035163373
            ],
            [
              37.58314648731472,
              55.75186538511863
            ],
            [
              37.583750454864415,
              55.75265154560736
            ],
            [
              37.584484484425516,
              55.753401681823824
            ],
            [
              37.58534190584398,
              55.75410896978042
            ],
            [
              37.586314925229395,
              55.75476697491627
            ],
            [
              37.58739469570441,
              55.755369710702595
            ],
            [
              37.588571397793174,
              55.75591169317919
            ],
            [
              37.58983432871996,
              55.756387990922214
            ],
            [
              37.591171999805994,
              55.756794269985846
            ],
            [
              37.59257224107632,
              55.75712683340532
            ],
            [
              37.594022312120885,
              55.75738265489896
            ],
            [
              37.59550901819468,
              55.75755940645969
            ],
            [
              37.597018830492694,
              55.75765547958262
            ],
            [
              37.66864247647113,
              55.760249544382134
            ],
            [
              37.6693495254569,
              55.76026606417182
            ],
            [
              37.71236414447727,
              55.76072427691982
            ],
            [
              37.71392713591868,
              55.76069737239771
            ],
            [
              37.71547791718312,
              55.76058419582405
            ],
            [
              37.717001543372945,
              55.76038583784059
            ],
            [
              37.71848333179886,
              55.76010420996885
            ],
            [
              37.71990900374136,
              55.759742026153994
            ],
            [
              37.721264822281256,
              55.759302776562095
            ],
            [
              37.722537724859734,
              55.75879069388566
            ],
            [
              37.72371544928104,
              55.75821071248512
            ],
            [
              37.72478665193654,
              55.757568420763526
            ],
            [
              37.72574101710647,
              55.756870007236905
            ],
            [
              37.726569356284685,
              55.75612220082416
            ],
            [
              37.72726369657051,
              55.75533220593573
            ],
            [
              37.72781735728051,
              55.75450763299022
            ],
            [
              37.72822501404869,
              55.75365642503214
            ],
            [
              37.72848274980726,
              55.75278678116099
            ],
            [
              37.72858809216828,
              55.75190707751168
            ],
            [
              37.72931810572165,
              55.7294492942925
            ],
            [
              37.72926920040422,
              55.72856200636065
            ],
            [
              37.72906537759061,
              55.72768177251217
            ],
            [
              37.7287086372417,
              55.72681718505533
            ],
            [
              37.72820247141557,
              55.72597668300601
            ],
            [
              37.72755182980801,
              55.725168469753484
            ],
            [
              37.72676307110554,
              55.72440043304586
            ],
            [
              37.72584390063861,
              55.72368006807367
            ],
            [
              37.724803294954114,
              55.72301440439916
            ],
            [
              37.72365141405163,
              55.72240993744075
            ],
            [
              37.72239950214529,
              55.721872565177215
            ],
            [
              37.72105977792211,
              55.72140753068521
            ],
            [
              37.71964531536708,
              55.72101937106665
            ],
            [
              37.71816991631427,
              55.72071187325994
            ],
            [
              37.71664797596099,
              55.72048803716271
            ],
            [
              37.65797848433316,
              55.71357063654239
            ],
            [
              37.65651004297642,
              55.71343719615929
            ],
            [
              37.65502595409216,
              55.71338170965301
            ],
            [
              37.59933527850811,
              55.712759190865164
            ]
          ]
        ]
      },
      "properties": {
        "id": "ALLOWED",
        "layer": "allowed_airspace"
      }
    }
  ]
}