<?xml version="1.0" encoding="UTF-8"?>
<kml xmlns="http://www.opengis.net/kml/2.2"><Document>
<Style id="survey"><PolyStyle><color>5522aa22</color></PolyStyle></Style>
<Style id="nfz"><PolyStyle><color>55aa2222</color></PolyStyle></Style>
<Style id="allowed"><PolyStyle><color>222222aa</color></PolyStyle></Style>
<Placemark><name>MP_RGB_1</name><styleUrl>#survey</styleUrl><Polygon><outerBoundaryIs><LinearRing><coordinates>37.59901375,55.72174186,0 37.65471720,55.72236459,0 37.65378987,55.74931315,0 37.59804806,55.74868980,0 37.59901375,55.72174186,0</coordinates></LinearRing></outerBoundaryIs><innerBoundaryIs><LinearRing><coordinates>37.61305070,55.72998885,0 37.62419363,55.73011415,0 37.62397243,55.73640207,0 37.61282771,55.73627674,0 37.61305070,55.72998885,0</coordinates></LinearRing></innerBoundaryIs></Polygon></Placemark>
<Placemark><name>MP_RGB_2</name><styleUrl>#survey</styleUrl><Polygon><outerBoundaryIs><LinearRing><coordinates>37.67041919,55.72882592,0 37.71339925,55.72928360,0 37.71266010,55.75174124,0 37.66965536,55.75128318,0 37.67041919,55.72882592,0</coordinates></LinearRing></outerBoundaryIs></Polygon></Placemark>
<Placemark><name>ALLOWED_AIRSPACE</name><styleUrl>#allowed</styleUrl><Polygon><outerBoundaryIs><LinearRing><coordinates>37.59933528,55.71275919,0 37.59777415,55.71278465,0 37.59622495,55.71289635,0 37.59470259,55.71309322,0 37.59322172,55.71337336,0 37.59179660,55.71373408,0 37.59044094,55.71417190,0 37.58916779,55.71468262,0 37.58798942,55.71526131,0 37.58691716,55.71590241,0 37.58596135,55.71659974,0 37.58513119,55.71734659,0 37.58443468,55.71813578,0 37.58387853,55.71895969,0 37.58346812,55.71981041,0 37.58320739,55.72067974,0 37.58309888,55.72155930,0 37.58212223,55.74850705,0 37.58216361,55.74936351,0 37.58234945,55.75021386,0 37.58267807,55.75105035,0 37.58314649,55.75186539,0 37.58375045,55.75265155,0 37.58448448,55.75340168,0 37.58534191,55.75410897,0 37.58631493,55.75476697,0 37.58739470,55.75536971,0 37.58857140,55.75591169,0 37.58983433,55.75638799,0 37.59117200,55.75679427,0 37.59257224,55.75712683,0 37.59402231,55.75738265,0 37.59550902,55.75755941,0 37.59701883,55.75765548,0 37.66864248,55.76024954,0 37.66934953,55.76026606,0 37.71236414,55.76072428,0 37.71392714,55.76069737,0 37.71547792,55.76058420,0 37.71700154,55.76038584,0 37.71848333,55.76010421,0 37.71990900,55.75974203,0 37.72126482,55.75930278,0 37.72253772,55.75879069,0 37.72371545,55.75821071,0 37.72478665,55.75756842,0 37.72574102,55.75687001,0 37.72656936,55.75612220,0 37.72726370,55.75533221,0 37.72781736,55.75450763,0 37.72822501,55.75365643,0 37.72848275,55.75278678,0 37.72858809,55.75190708,0 37.72931811,55.72944929,0 37.72926920,55.72856201,0 37.72906538,55.72768177,0 37.72870864,55.72681719,0 37.72820247,55.72597668,0 37.72755183,55.72516847,0 37.72676307,55.72440043,0 37.72584390,55.72368007,0 37.72480329,55.72301440,0 37.72365141,55.72240994,0 37.72239950,55.72187257,0 37.72105978,55.72140753,0 37.71964532,55.72101937,0 37.71816992,55.72071187,0 37.71664798,55.72048804,0 37.65797848,55.71357064,0 37.65651004,55.71343720,0 37.65502595,55.71338171,0 37.59933528,55.71275919,0</coordinates></LinearRing></outerBoundaryIs></Polygon></Placemark>
<Placemark><name>BASE</name><description>both</description><Point><coordinates>37.59417472,55.72348384,0</coordinates></Point></Placemark>
<Placemark><name>RES</name><description>reserve</description><Point><coordinates>37.71944328,55.73923152,0</coordinates></Point></Placemark>
</Document></kml>