{
  "type": "FeatureCollection",
  "features": [
    {
      "type": "Feature",
      "geometry": {
        "type": "MultiPolygon",
        "coordinates": [
          [
            [
              [
                37.59901374614922,
                55.7217418638082
              ],
              [
                37.65471719632424,
                55.72236459110938
              ],
              [
                37.65378987377532,
                55.74931314932334
              ],
              [
                37.5980480564571,
                55.74868979590878
              ],
              [
                37.59901374614922,
                55.7217418638082
              ]
            ],
            [
              [
                37.61305070418331,
                55.72998884784069
              ],
              [
                37.62419363292555,
                55.7301141525819
              ],
              [
                37.623972429019936,
                55.7364020734469
              ],
              [
                37.61282771009804,
                55.7362767393213
              ],
              [
                37.61305070418331,
                55.72998884784069
              ]
            ]
          ],
          [
            [
              [
                37.67041918687288,
                55.728825923973275
              ],
              [
                37.71339925165787,
                55.72928359973533
              ],
              [
                37.71266009875434,
                55.75174124412155
              ],
              [
                37.669655359355815,
                55.75128318488603
              ],
              [
                37.67041918687288,
                55.728825923973275
              ]
            ]
          ]
        ]
      },
      "properties": {
        "id": "MP_RGB",
        "survey_type": "rgb",
        "payload_profile": "RGB_STD"
      }
    }
  ]
}