{
  "type": "FeatureCollection",
  "features": [
    {
      "type": "Feature",
      "geometry": {
        "type": "Polygon",
        "coordinates": [
          [
            [
              37.58787332083478,
              55.721614288099126
            ],
            [
              37.58741929070061,
              55.73418994609881
            ],
            [
              37.58745069214006,
              55.73480687742249
            ],
            [
              37.587589117779636,
              55.7354191012803
            ],
            [
              37.58783323941477,
              55.73602072129183
            ],
            [
              37.588180710597875,
              55.73660594293462
            ],
            [
              37.58862818905996,
              55.73716912937127
            ],
            [
              37.58917136874206,
              55.73770485576733
            ],
            [
              37.58980502113402,
              55.7382079615754
            ],
            [
              37.59052304552758,
              55.73867360028047
            ],
            [
              37.591318527703706,
              55.73909728612572
            ],
            [
              37.592183806491384,
              55.73947493736665
            ],
            [
              37.59311054755817,
              55.73980291563506
            ],
            [
              37.59408982372135,
              55.740078061031554
            ],
            [
              37.59511220100462,
              55.74029772260673
            ],
            [
              37.59616782960811,
              55.740459783935464
            ],
            [
              37.59724653891151,
              55.74056268353624
            ],
            [
              37.59833793558951,
              55.74060542993768
            ],
            [
              37.63655276340369,
              55.74103546643785
            ],
            [
              37.63764633173316,
              55.74101730757246
            ],
            [
              37.63873147580485,
              55.74093875757931
            ],
            [
              37.63979774017823,
              55.74080057327084
            ],
            [
              37.64083485156966,
              55.7406040860334
            ],
            [
              37.64183281796569,
              55.74035118898234
            ],
            [
              37.6427820250079,
              55.740044318698075
            ],
            [
              37.643673328714875,
              55.73968643172043
            ],
            [
              37.644498143643744,
              55.73928097602892
            ],
            [
              37.64524852563794,
              55.73883185778562
            ],
            [
              37.645917248362075,
              55.738343403662725
            ],
            [
              37.646497872885654,
              55.73782031911991
            ],
            [
              37.64698480964597,
              55.73726764303504
            ],
            [
              37.64737337219512,
              55.736690699127664
            ],
            [
              37.647659822216916,
              55.7360950446445
            ],
            [
              37.6478414053846,
              55.73548641680324
            ],
            [
              37.64791637771945,
              55.73487067751161
            ],
            [
              37.648350977703004,
              55.72229470037827
            ],
            [
              37.64831862254494,
              55.72167777865845
            ],
            [
              37.64817929065629,
              55.72106561740307
            ],
            [
              37.64793432878188,
              55.720464111726315
            ],
            [
              37.647586100605935,
              55.71987905386096
            ],
            [
              37.64713796381298,
              55.7193160773988
            ],
            [
              37.64659423759574,
              55.71878060306823
            ],
            [
              37.645960160928766,
              55.71827778656977
            ],
            [
              37.64524184201471,
              55.71781246897035
            ],
            [
              37.64444619939384,
              55.7173891301323
            ],
            [
              37.64358089528657,
              55.7170118456236
            ],
            [
              37.64265426181183,
              55.71668424752245
            ],
            [
              37.64167522079169,
              55.716409489491184
            ],
            [
              37.6406531979125,
              55.71619021645421
            ],
            [
              37.6395980320662,
              55.71602853917001
            ],
            [
              37.63851988074033,
              55.71592601394017
            ],
            [
              37.637429122362455,
              55.71588362764976
            ],
            [
              37.599238837902945,
              55.71545399426591
            ],
            [
              37.59814597211006,
              55.71547181504305
            ],
            [
              37.597061459691936,
              55.715550010204566
            ],
            [
              37.59599574019336,
              55.71568782701851
            ],
            [
              37.594959072505844,
              55.71588393882638
            ],
            [
              37.593961436244435,
              55.716136457796715
            ],
            [
              37.59301243579454,
              55.7164429530741
            ],
            [
              37.592121207947,
              55.7168004741496
            ],
            [
              37.591296334005776,
              55.71720557922941
            ],
            [
              37.590545757210926,
              55.71765436833012
            ],
            [
              37.58987670626967,
              55.71814252078397
            ],
            [
              37.58929562573077,
              55.71866533679474
            ],
            [
              37.588808113873114,
              55.71921778264648
            ],
            [
              37.58841886870853,
              55.71979453913135
            ],
            [
              37.588131642621974,
              55.72039005273249
            ],
            [
              37.58794920609032,
              55.72099858907028
            ],
            [
              37.58787332083478,
              55.721614288099126
            ]
          ]
        ]
      },
      "properties": {
        "id": "ALLOWED",
        "layer": "allowed_airspace"
      }
    }
  ]
}