<?xml version="1.0" encoding="UTF-8"?>
<kml xmlns="http://www.opengis.net/kml/2.2"><Document>
<Style id="survey"><PolyStyle><color>5522aa22</color></PolyStyle></Style>
<Style id="nfz"><PolyStyle><color>55aa2222</color></PolyStyle></Style>
<Style id="allowed"><PolyStyle><color>222222aa</color></PolyStyle></Style>
<Placemark><name>RGB_LONG</name><styleUrl>#survey</styleUrl><Polygon><outerBoundaryIs><LinearRing><coordinates>37.59901375,55.72174186,0 37.63721016,55.72217160,0 37.63677198,55.73474752,0 37.59856330,55.73431758,0 37.59901375,55.72174186,0</coordinates></LinearRing></outerBoundaryIs></Polygon></Placemark>
<Placemark><name>ALLOWED_AIRSPACE</name><styleUrl>#allowed</styleUrl><Polygon><outerBoundaryIs><LinearRing><coordinates>37.58787332,55.72161429,0 37.58741929,55.73418995,0 37.58745069,55.73480688,0 37.58758912,55.73541910,0 37.58783324,55.73602072,0 37.58818071,55.73660594,0 37.58862819,55.73716913,0 37.58917137,55.73770486,0 37.58980502,55.73820796,0 37.59052305,55.73867360,0 37.59131853,55.73909729,0 37.59218381,55.73947494,0 37.59311055,55.73980292,0 37.59408982,55.74007806,0 37.59511220,55.74029772,0 37.59616783,55.74045978,0 37.59724654,55.74056268,0 37.59833794,55.74060543,0 37.63655276,55.74103547,0 37.63764633,55.74101731,0 37.63873148,55.74093876,0 37.63979774,55.74080057,0 37.64083485,55.74060409,0 37.64183282,55.74035119,0 37.64278203,55.74004432,0 37.64367333,55.73968643,0 37.64449814,55.73928098,0 37.64524853,55.73883186,0 37.64591725,55.73834340,0 37.64649787,55.73782032,0 37.64698481,55.73726764,0 37.64737337,55.73669070,0 37.64765982,55.73609504,0 37.64784141,55.73548642,0 37.64791638,55.73487068,0 37.64835098,55.72229470,0 37.64831862,55.72167778,0 37.64817929,55.72106562,0 37.64793433,55.72046411,0 37.64758610,55.71987905,0 37.64713796,55.71931608,0 37.64659424,55.71878060,0 37.64596016,55.71827779,0 37.64524184,55.71781247,0 37.64444620,55.71738913,0 37.64358090,55.71701185,0 37.64265426,55.71668425,0 37.64167522,55.71640949,0 37.64065320,55.71619022,0 37.63959803,55.71602854,0 37.63851988,55.71592601,0 37.63742912,55.71588363,0 37.59923884,55.71545399,0 37.59814597,55.71547182,0 37.59706146,55.71555001,0 37.59599574,55.71568783,0 37.59495907,55.71588394,0 37.59396144,55.71613646,0 37.59301244,55.71644295,0 37.59212121,55.71680047,0 37.59129633,55.71720558,0 37.59054576,55.71765437,0 37.58987671,55.71814252,0 37.58929563,55.71866534,0 37.58880811,55.71921778,0 37.58841887,55.71979454,0 37.58813164,55.72039005,0 37.58794921,55.72099859,0 37.58787332,55.72161429,0</coordinates></LinearRing></outerBoundaryIs></Polygon></Placemark>
<Placemark><name>BASE</name><description>both</description><Point><coordinates>37.59401332,55.72797516,0</coordinates></Point></Placemark>
<Placemark><name>RES</name><description>reserve</description><Point><coordinates>37.64176651,55.72851246,0</coordinates></Point></Placemark>
</Document></kml>