{
  "type": "FeatureCollection",
  "features": [
    {
      "type": "Feature",
      "geometry": {
        "type": "Polygon",
        "coordinates": [
          [
            [
              37.59901374614922,
              55.7217418638082
            ],
            [
              37.637210162805,
              55.722171597922674
            ],
            [
              37.6367719833727,
              55.734747517316464
            ],
            [
              37.598563295040904,
              55.73431758164384
            ],
            [
              37.59901374614922,
              55.7217418638082
            ]
          ]
        ]
      },
      "properties": {
        "id": "RGB_LONG",
        "survey_type": "rgb",
        "payload_profile": "RGB_STD"
      }
    }
  ]
}