{
  "type": "FeatureCollection",
  "features": [
    {
      "type": "Feature",
      "geometry": {
        "type": "Polygon",
        "coordinates": [
          [
            [
              37.498843259996,
              55.68254864666952
            ],
            [
              37.49753423963348,
              55.716681377244996
            ],
            [
              37.56118451817093,
              55.7174435471605
            ],
            [
              37.56243813095866,
              55.683309847537274
            ],
            [
              37.498843259996,
              55.68254864666952
            ]
          ]
        ]
      },
      "properties": {
        "id": "ALLOWED"
      }
    }
  ]
}
