{
  "type": "FeatureCollection",
  "features": [
    {
      "type": "Feature",
      "geometry": {
        "type": "Point",
        "coordinates": [
          37.51409445435762,
          55.699808548921624
        ]
      },
      "properties": {
        "id": "BASE",
        "role": "both",
        "candidate": false
      }
    },
    {
      "type": "Feature",
      "geometry": {
        "type": "Point",
        "coordinates": [
          37.54749632040297,
          55.70020821744659
        ]
      },
      "properties": {
        "id": "RESERVE",
        "role": "reserve",
        "candidate": false
      }
    }
  ]
}
