<?xml version='1.0' encoding='utf-8'?>
<kml xmlns="http://www.opengis.net/kml/2.2"><Document><Placemark><name>JOB_RGB</name><Polygon><outerBoundaryIs><LinearRing><coordinates>37.53808697575186,55.69650196878211,0 37.53781868283449,55.70368793533738,0 37.52191158331837,55.70349748850529,0 37.522182792423955,55.69631157295254,0 37.53808697575186,55.69650196878211,0</coordinates></LinearRing></outerBoundaryIs></Polygon></Placemark><Placemark><name>BASE</name><Point><coordinates>37.51409445435762,55.699808548921624</coordinates></Point></Placemark><Placemark><name>RESERVE</name><Point><coordinates>37.54749632040297,55.70020821744659</coordinates></Point></Placemark></Document></kml>