{
  "type": "FeatureCollection",
  "features": [
    {
      "type": "Feature",
      "geometry": {
        "type": "Polygon",
        "coordinates": [
          [
            [
              37.53808697575186,
              55.69650196878211
            ],
            [
              37.53781868283449,
              55.70368793533738
            ],
            [
              37.52191158331837,
              55.70349748850529
            ],
            [
              37.522182792423955,
              55.69631157295254
            ],
            [
              37.53808697575186,
              55.69650196878211
            ]
          ]
        ]
      },
      "properties": {
        "id": "JOB_RGB",
        "survey_type": "rgb",
        "payload_profile": "RGB"
      }
    }
  ]
}
