{
  "type": "FeatureCollection",
  "features": [
    {
      "type": "Feature",
      "geometry": {
        "type": "Polygon",
        "coordinates": [
          [
            [
              37.58469035865335,
              55.72157765237776
            ],
            [
              37.58384497366358,
              55.74493239130655
            ],
            [
              37.5838852819882,
              55.74572558820251
            ],
            [
              37.58406323271595,
              55.74651273680831
            ],
            [
              37.58437712020656,
              55.747286255907184
            ],
            [
              37.58482392912432,
              55.748038695107155
            ],
            [
              37.58539936318614,
              55.74876280662996
            ],
            [
              37.58609788627832,
              55.749451615164055
            ],
            [
              37.586912775555604,
              55.75009848510677
            ],
            [
              37.587836186019885,
              55.75069718454567
            ],
            [
              37.58885922596271,
              55.75124194535992
            ],
            [
              37.58997204254947,
              55.75172751885954
            ],
            [
              37.591163916722806,
              55.752149226423285
            ],
            [
              37.59242336651073,
              55.752503004644254
            ],
            [
              37.5937382577415,
              55.752785444544564
            ],
            [
              37.59509592109386,
              55.75299382447896
            ],
            [
              37.596483274347875,
              55.753126136406934
            ],
            [
              37.597886948649986,
              55.753181105278514
            ],
            [
              37.693456642277276,
              55.75423441075859
            ],
            [
              37.69486310932977,
              55.75421041288272
            ],
            [
              37.69625862723727,
              55.75410877035387
            ],
            [
              37.697629748280164,
              55.75393046260161
            ],
            [
              37.6989632602517,
              55.75367720781792
            ],
            [
              37.70024631398953,
              55.75335144637185
            ],
            [
              37.70146654737833,
              55.75295631725417
            ],
            [
              37.70261220461923,
              55.75249562778057
            ],
            [
              37.70367224960927,
              55.751973816848015
            ],
            [
              37.70463647233248,
              55.75139591210085
            ],
            [
              37.70549558723409,
              55.75076748142269
            ],
            [
              37.706241322628394,
              55.75009457922448
            ],
            [
              37.706866500280235,
              55.74938368804956
            ],
            [
              37.707365104396565,
              55.748641656061444
            ],
            [
              37.707732339369,
              55.747875631019575
            ],
            [
              37.70796467571884,
              55.74709299138156
            ],
            [
              37.708059883811174,
              55.74630127519785
            ],
            [
              37.70883117037128,
              55.72294534458709
            ],
            [
              37.708788344241945,
              55.72215217423352
            ],
            [
              37.708607984372414,
              55.721365192176975
            ],
            [
              37.70829183582678,
              55.72059197692806
            ],
            [
              37.707842950830816,
              55.71983997398212
            ],
            [
              37.70726565908764,
              55.71911642415308
            ],
            [
              37.70656552582327,
              55.71842829389381
            ],
            [
              37.70574929797587,
              55.71778220827167
            ],
            [
              37.704824839055064,
              55.71718438724266
            ],
            [
              37.70380105330522,
              55.71664058583419
            ],
            [
              37.702687799906734,
              55.71615603881019
            ],
            [
              37.70149579804374,
              55.715735410347264
            ],
            [
              37.70023652375151,
              55.715382749203606
            ],
            [
              37.698922099534165,
              55.7151014498087
            ],
            [
              37.69756517781024,
              55.71489421964577
            ],
            [
              37.69617881930132,
              55.71476305323796
            ],
            [
              37.694776367525776,
              55.71470921298681
            ],
            [
              37.599303133458584,
              55.71365745880996
            ],
            [
              37.59789808468098,
              55.713680370535876
            ],
            [
              37.59650377411267,
              55.713780902959385
            ],
            [
              37.59513362162342,
              55.713958088444016
            ],
            [
              37.59380081497746,
              55.71421022157631
            ],
            [
              37.59251818311822,
              55.71453487555229
            ],
            [
              37.59129807287635,
              55.714928925496054
            ],
            [
              37.59015223027876,
              55.71538857848805
            ],
            [
              37.589091687593246,
              55.71590941001629
            ],
            [
              37.58812665719027,
              55.71648640650239
            ],
            [
              37.58726643323987,
              55.717114013496314
            ],
            [
              37.58651930218856,
              55.717786189078694
            ],
            [
              37.58589246287898,
              55.718496461960356
            ],
            [
              37.58539195708444,
              55.7192379937225
            ],
            [
              37.5850226111327,
              55.72000364460152
            ],
            [
              37.58478798918844,
              55.72078604218758
            ],
            [
              37.58469035865335,
              55.72157765237776
            ]
          ]
        ]
      },
      "properties": {
        "id": "ALLOWED",
        "layer": "allowed_airspace"
      }
    }
  ]
}