{
  "type": "FeatureCollection",
  "features": [
    {
      "type": "Feature",
      "geometry": {
        "type": "Point",
        "coordinates": [
          37.593023596454515,
          55.733355627700185
        ]
      },
      "properties": {
        "id": "BASE",
        "layer": "landing_site",
        "role": "both"
      }
    },
    {
      "type": "Feature",
      "geometry": {
        "type": "Point",
        "coordinates": [
          37.70048523366418,
          55.7345393751567
        ]
      },
      "properties": {
        "id": "RES",
        "layer": "landing_site",
        "role": "reserve"
      }
    }
  ]
}