<?xml version="1.0" encoding="UTF-8"?>
<kml xmlns="http://www.opengis.net/kml/2.2"><Document>
<Style id="survey"><PolyStyle><color>5522aa22</color></PolyStyle></Style>
<Style id="nfz"><PolyStyle><color>55aa2222</color></PolyStyle></Style>
<Style id="allowed"><PolyStyle><color>222222aa</color></PolyStyle></Style>
<Placemark><name>WIND_RGB</name><styleUrl>#survey</styleUrl><Polygon><outerBoundaryIs><LinearRing><coordinates>37.59901375,55.72174186,0 37.69450669,55.72279394,0 37.69372685,55.74614973,0 37.59817691,55.74509675,0 37.59901375,55.72174186,0</coordinates></LinearRing></outerBoundaryIs></Polygon></Placemark>
<Placemark><name>ALLOWED_AIRSPACE</name><styleUrl>#allowed</styleUrl><Polygon><outerBoundaryIs><LinearRing><coordinates>37.58469036,55.72157765,0 37.58384497,55.74493239,0 37.58388528,55.74572559,0 37.58406323,55.74651274,0 37.58437712,55.74728626,0 37.58482393,55.74803870,0 37.58539936,55.74876281,0 37.58609789,55.74945162,0 37.58691278,55.75009849,0 37.58783619,55.75069718,0 37.58885923,55.75124195,0 37.58997204,55.75172752,0 37.59116392,55.75214923,0 37.59242337,55.75250300,0 37.59373826,55.75278544,0 37.59509592,55.75299382,0 37.59648327,55.75312614,0 37.59788695,55.75318111,0 37.69345664,55.75423441,0 37.69486311,55.75421041,0 37.69625863,55.75410877,0 37.69762975,55.75393046,0 37.69896326,55.75367721,0 37.70024631,55.75335145,0 37.70146655,55.75295632,0 37.70261220,55.75249563,0 37.70367225,55.75197382,0 37.70463647,55.75139591,0 37.70549559,55.75076748,0 37.70624132,55.75009458,0 37.70686650,55.74938369,0 37.70736510,55.74864166,0 37.70773234,55.74787563,0 37.70796468,55.74709299,0 37.70805988,55.74630128,0 37.70883117,55.72294534,0 37.70878834,55.72215217,0 37.70860798,55.72136519,0 37.70829184,55.72059198,0 37.70784295,55.71983997,0 37.70726566,55.71911642,0 37.70656553,55.71842829,0 37.70574930,55.71778221,0 37.70482484,55.71718439,0 37.70380105,55.71664059,0 37.70268780,55.71615604,0 37.70149580,55.71573541,0 37.70023652,55.71538275,0 37.69892210,55.71510145,0 37.69756518,55.71489422,0 37.69617882,55.71476305,0 37.69477637,55.71470921,0 37.59930313,55.71365746,0 37.59789808,55.71368037,0 37.59650377,55.71378090,0 37.59513362,55.71395809,0 37.59380081,55.71421022,0 37.59251818,55.71453488,0 37.59129807,55.71492893,0 37.59015223,55.71538858,0 37.58909169,55.71590941,0 37.58812666,55.71648641,0 37.58726643,55.71711401,0 37.58651930,55.71778619,0 37.58589246,55.71849646,0 37.58539196,55.71923799,0 37.58502261,55.72000364,0 37.58478799,55.72078604,0 37.58469036,55.72157765,0</coordinates></LinearRing></outerBoundaryIs></Polygon></Placemark>
<Placemark><name>BASE</name><description>both</description><Point><coordinates>37.59302360,55.73335563,0</coordinates></Point></Placemark>
<Placemark><name>RES</name><description>reserve</description><Point><coordinates>37.70048523,55.73453938,0</coordinates></Point></Placemark>
</Document></kml>