{
  "type": "FeatureCollection",
  "features": [
    {
      "type": "Feature",
      "geometry": {
        "type": "Polygon",
        "coordinates": [
          [
            [
              37.59901374614922,
              55.7217418638082
            ],
            [
              37.694506691059644,
              55.722793935042766
            ],
            [
              37.69372685359244,
              55.74614973372499
            ],
            [
              37.59817690986415,
              55.745096745811416
            ],
            [
              37.59901374614922,
              55.7217418638082
            ]
          ]
        ]
      },
      "properties": {
        "id": "WIND_RGB",
        "survey_type": "rgb",
        "payload_profile": "RGB_STD"
      }
    }
  ]
}