{
  "type": "FeatureCollection",
  "features": [
    {
      "type": "Feature",
      "geometry": {
        "type": "Polygon",
        "coordinates": [
          [
            [
              37.88843127815421,
              55.685795670069105
            ],
            [
              37.88741073131454,
              55.72173041568277
            ],
            [
              37.497499753717015,
              55.717579604142124
            ],
            [
              37.49887766992731,
              55.68165041406254
            ],
            [
              37.88843127815421,
              55.685795670069105
            ]
          ]
        ]
      },
      "properties": {
        "id": "ALLOWED"
      }
    }
  ]
}
