{
  "type": "FeatureCollection",
  "features": [
    {
      "type": "Feature",
      "geometry": {
        "type": "Polygon",
        "coordinates": [
          [
            [
              37.49244938440909,
              55.683368945252354
            ],
            [
              37.49120401122188,
              55.715705122336864
            ],
            [
              37.567582591020326,
              55.71661969553312
            ],
            [
              37.56876497455333,
              55.684282416794524
            ],
            [
              37.49244938440909,
              55.683368945252354
            ]
          ]
        ]
      },
      "properties": {
        "id": "ALLOWED"
      }
    }
  ]
}
