<?xml version='1.0' encoding='utf-8'?>
<kml xmlns="http://www.opengis.net/kml/2.2"><Document><Placemark><name>JOB_RGB</name><Polygon><outerBoundaryIs><LinearRing><coordinates>37.54399265397854,55.698144771449755,0 37.54384235436425,55.7021868883155,0 37.53668439106617,55.702101794719525,0 37.53683542885997,55.698059690673105,0 37.54399265397854,55.698144771449755,0</coordinates></LinearRing></outerBoundaryIs></Polygon></Placemark><Placemark><name>JOB_MS</name><Polygon><outerBoundaryIs><LinearRing><coordinates>37.523316330878004,55.69789784473553,0 37.52316389878172,55.70193992439636,0 37.51600604707125,55.70185362589455,0 37.51615921730819,55.6978115592344,0 37.523316330878004,55.69789784473553,0</coordinates></LinearRing></outerBoundaryIs></Polygon></Placemark><Placemark><name>WEST</name><Point><coordinates>37.50773228996215,55.69973139183856</coordinates></Point></Placemark><Placemark><name>EAST</name><Point><coordinates>37.55226808383892,55.70026457151591</coordinates></Point></Placemark></Document></kml>