{
  "type": "FeatureCollection",
  "features": [
    {
      "type": "Feature",
      "geometry": {
        "type": "Polygon",
        "coordinates": [
          [
            [
              37.54399265397854,
              55.698144771449755
            ],
            [
              37.54384235436425,
              55.7021868883155
            ],
            [
              37.53668439106617,
              55.702101794719525
            ],
            [
              37.53683542885997,
              55.698059690673105
            ],
            [
              37.54399265397854,
              55.698144771449755
            ]
          ]
        ]
      },
      "properties": {
        "id": "JOB_RGB",
        "survey_type": "rgb",
        "payload_profile": "RGB"
      }
    },
    {
      "type": "Feature",
      "geometry": {
        "type": "Polygon",
        "coordinates": [
          [
            [
              37.523316330878004,
              55.69789784473553
            ],
            [
              37.52316389878172,
              55.70193992439636
            ],
            [
              37.51600604707125,
              55.70185362589455
            ],
            [
              37.51615921730819,
              55.6978115592344
            ],
            [
              37.523316330878004,
              55.69789784473553
            ]
          ]
        ]
      },
      "properties": {
        "id": "JOB_MS",
        "survey_type": "multispectral",
        "payload_profile": "MULTISPECTRAL"
      }
    }
  ]
}
