<?xml version='1.0' encoding='utf-8'?>
<kml xmlns="http://www.opengis.net/kml/2.2"><Document><Placemark><name>U01_S1</name><LineString><altitudeMode>absolute</altitudeMode><coordinates>37.49519788906838,55.69463583046652,160.0 37.49519788906838,55.69463583046652,280.0 37.495089727138854,55.6948006655392,280.0 37.4949815642882,55.694965500507074,280.0 37.49487340051642,55.69513033537015,280.0 37.49476523582348,55.695295170128446,280.0 37.49465707020939,55.69546000478195,280.0 37.49454890367412,55.69562483933065,280.0 37.49444073621766,55.69578967377455,280.0 37.49433256784,55.69595450811366,280.0 37.49422439854112,55.69611934234796,280.0 37.49411622832101,55.696284176477455,280.0 37.49400805717966,55.69644901050216,280.0 37.49389988511705,55.69661384442203,280.0 37.493791712133174,55.69677867823711,280.0 37.49368353822801,55.696943511947374,280.0 37.49357536340154,55.69710834555283,280.0 37.49346718765377,55.69727317905346,280.0 37.49335901098467,55.69743801244929,280.0 37.493250833394235,55.69760284574029,280.0 37.49314265488245,55.69776767892647,280.0 37.4930344754493,55.69793251200783,280.0 37.49292629509476,55.69809734498437,280.0 37.492818113818835,55.69826217785609,280.0 37.4927099316215,55.698427010622964,280.0 37.49260174850274,55.69859184328503,280.0 37.492493564462556,55.69875667584227,280.0 37.49281166181548,55.69876058094831,280.0 37.4931297592466,55.69876448523062,280.0 37.49344785675592,55.698768388689196,280.0 37.49376595434342,55.698772291324055,280.0 37.494084052009065,55.698776193135174,280.0 37.49440214975286,55.698780094122554,280.0 37.494720247574776,55.69878399428621,280.0 37.49503834547481,55.69878789362613,280.0 37.49535644345293,55.698791792142316,280.0 37.495674541509125,55.69879568983477,280.0 37.49599263964338,55.698799586703494,280.0 37.49631073785569,55.698803482748474,280.0 37.496628836146016,55.69880737796972,280.0 37.496946934514355,55.69881127236723,280.0 37.49726503296069,55.69881516594101,280.0 37.497583131484994,55.69881905869105,280.0 37.49757708359079,55.69897669798708,280.0 37.49757103563656,55.6991343372786,280.0 37.49756498762229,55.699291976565625,280.0 37.49755893954799,55.69944961584812,280.0 37.497552891413655,55.699607255126104,280.0 37.497234786492655,55.699603362261705,280.0 37.49691668164963,55.69959946857353,280.0 37.49659857688461,55.699595574061604,280.0 37.49628047219761,55.69959167872593,280.0 37.49596236758863,55.69958778256649,280.0 37.495644263057706,55.69958388558329,280.0 37.495326158604854,55.69957998777633,280.0 37.49500805423008,55.6995760891456,280.0 37.494689949933395,55.69957218969113,280.0 37.49437184571483,55.69956828941291,280.0 37.4940537415744,55.69956438831091,280.0 37.49373563751211,55.69956048638516,280.0 37.493417533527996,55.699556583635655,280.0 37.49309942962205,55.699552680062396,280.0 37.492781325794304,55.69954877566538,280.0 37.49246322204477,55.699544870444605,280.0 37.49245715338051,55.699702509351546,280.0 37.492451084656004,55.699860148253954,280.0 37.49244501587126,55.700017787151864,280.0 37.49243894702627,55.70017542604526,280.0 37.49243287812105,55.70033306493414,280.0 37.49275098826752,55.700336970269646,280.0 37.49306909849219,55.70034087478137,280.0 37.49338720879507,55.70034477846931,280.0 37.49370531917614,55.70034868133347,280.0 37.49402342963538,55.700352583373856,280.0 37.49434154017277,55.70035648459045,280.0 37.49465965078829,55.70036038498327,280.0 37.49497776148194,55.70036428455231,280.0 37.49529587225369,55.70036818329756,280.0 37.495613983103524,55.70037208121904,280.0 37.49593209403143,55.70037597831673,280.0 37.49625020503739,55.70037987459063,280.0 37.49656831612139,55.70038377004076,280.0 37.496886427283414,55.7003876646671,280.0 37.497204538523434,55.70039155846965,280.0 37.49752264984145,55.70039545144842,280.0 37.497452192709076,55.70022091814585,280.0 37.49738173619157,55.70004638480163,280.0 37.497311280288926,55.69987185141573,280.0 37.49724082500113,55.69969731798817,280.0 37.49717037032816,55.69952278451893,280.0 37.497099916270024,55.69934825100803,280.0 37.49702946282671,55.699173717455466,280.0 37.4969590099982,55.698999183861226,280.0 37.49688855778449,55.69882465022534,280.0 37.496818106185565,55.69865011654777,280.0 37.49674765520141,55.69847558282856,280.0 37.49667720483203,55.698301049067666,280.0 37.49660675507741,55.69812651526513,280.0 37.49653630593753,55.69795198142092,280.0 37.49646585741239,55.697777447535046,280.0 37.49639540950197,55.69760291360753,280.0 37.49632496220627,55.697428379638346,280.0 37.49625451552529,55.69725384562751,280.0 37.49618406945899,55.697079311575,280.0 37.496113624007386,55.69690477748084,280.0 37.49604317917045,55.69673024334505,280.0 37.49597273494819,55.696555709167576,280.0 37.495902291340585,55.69638117494846,280.0 37.49583184834762,55.696206640687684,280.0 37.49576140596929,55.69603210638528,280.0 37.49569096420559,55.69585757204119,280.0 37.49562052305651,55.69568303765546,280.0 37.49555008252203,55.695508503228105,280.0 37.49547964260215,55.695333968759066,280.0 37.49540920329685,55.69515943424841,280.0 37.49533876460614,55.69498489969608,280.0 37.49526832652998,55.694810365102136,280.0 37.49519788906838,55.69463583046652,280.0 37.49519788906838,55.69463583046652,160.0</coordinates></LineString></Placemark><Placemark><name>U02_S1</name><LineString><altitudeMode>absolute</altitudeMode><coordinates>37.51269154032426,55.694848992610126,160.0 37.51269154032426,55.694848992610126,280.0 37.51257472810162,55.695010376350545,280.0 37.512457914906534,55.69517175997025,280.0 37.512341100739015,55.69533314346927,280.0 37.512224285599025,55.69549452684759,280.0 37.512107469486565,55.69565591010519,280.0 37.511990652401614,55.695817293242094,280.0 37.511873834344165,55.69597867625828,280.0 37.511757015314195,55.69614005915378,280.0 37.5116401953117,55.69630144192854,280.0 37.511523374336655,55.69646282458259,280.0 37.51140655238905,55.69662420711591,280.0 37.511289729468885,55.696785589528524,280.0 37.511172905576124,55.69694697182044,280.0 37.511056080710766,55.69710835399159,280.0 37.51093925487279,55.69726973604203,280.0 37.51082242806219,55.69743111797176,280.0 37.51070560027895,55.697592499780754,280.0 37.51058877152305,55.69775388146901,280.0 37.510471941794485,55.697915263036535,280.0 37.51035511109324,55.69807664448332,280.0 37.51023827941929,55.69823802580939,280.0 37.51012144677264,55.69839940701469,280.0 37.51000461315325,55.69856078809926,280.0 37.51030399979304,55.698564420819764,280.0 37.510603386501295,55.698568052810586,280.0 37.51090277327801,55.69857168407172,280.0 37.511202160123176,55.69857531460318,280.0 37.511501547036765,55.69857894440496,280.0 37.51180093401879,55.69858257347705,280.0 37.512100321069205,55.69858620181947,280.0 37.51239970818802,55.698589829432194,280.0 37.51269909537521,55.69859345631524,280.0 37.51299848263076,55.69859708246859,280.0 37.51329786995466,55.69860070789227,280.0 37.5135972573469,55.698604332586264,280.0 37.51389664480746,55.69860795655056,280.0 37.514196032336336,55.69861157978518,280.0 37.5144954199335,55.698615202290114,280.0 37.51479480759895,55.698618824065356,280.0 37.515094195332665,55.698622445110914,280.0 37.5150881403769,55.698782131652955,280.0 37.51508208536027,55.69894181819037,280.0 37.51507603028274,55.699101504723174,280.0 37.51477663888986,55.69909788361296,280.0 37.514477247565246,55.699094261773034,280.0 37.51417785630892,55.699090639203426,280.0 37.51387846512089,55.69908701590411,280.0 37.51357907400117,55.6990833918751,280.0 37.51327968294977,55.69907976711639,280.0 37.51298029196672,55.699076141627984,280.0 37.51268090105202,55.699072515409874,280.0 37.512381510205685,55.699068888462065,280.0 37.512082119427724,55.69906526078458,280.0 37.51178272871817,55.69906163237738,280.0 37.511483338077014,55.699058003240474,280.0 37.511183947504286,55.69905437337388,280.0 37.51088455699999,55.6990507427776,280.0 37.51058516656415,55.69904711145163,280.0 37.51028577619676,55.69904347939595,280.0 37.509986385897854,55.69903984661058,280.0 37.50998031002387,55.699199532771786,280.0 37.5099742340888,55.69935921892835,280.0 37.509968158092626,55.6995189050803,280.0 37.51028626417543,55.69952276495946,280.0 37.510604370335535,55.69952662401484,280.0 37.51092247657292,55.69953048224642,280.0 37.51124058288759,55.69953433965427,280.0 37.51155868927952,55.69953819623833,280.0 37.51187679574868,55.69954205199862,280.0 37.512194902295064,55.69954590693512,280.0 37.51251300891865,55.699549761047855,280.0 37.512831115619434,55.69955361433683,280.0 37.513149222397395,55.69955746680202,280.0 37.513467329252514,55.69956131844343,280.0 37.51378543618477,55.69956516926107,280.0 37.514103543194146,55.69956901925494,280.0 37.51442165028063,55.69957286842502,280.0 37.51473975744422,55.699576716771325,280.0 37.51505786468488,55.69958056429385,280.0 37.51505180936381,55.69974025080818,280.0 37.51504575398186,55.69989993731789,280.0 37.51503969853903,55.700059623823,280.0 37.51472158741027,55.700055776231764,280.0 37.51440347635859,55.70005192781674,280.0 37.514085365384005,55.70004807857792,280.0 37.51376725448654,55.70004422851532,280.0 37.51344914366619,55.70004037762891,280.0 37.51313103292299,55.700036525918726,280.0 37.512812922256956,55.70003267338475,280.0 37.51249481166809,55.70002882002698,280.0 37.51217670115643,55.70002496584542,280.0 37.511858590721964,55.70002111084008,280.0 37.51154048036474,55.70001725501094,280.0 37.51122237008475,55.70001339835802,280.0 37.510904259882025,55.70000954088131,280.0 37.51058614975657,55.70000568258081,280.0 37.51026803970841,55.70000182345653,280.0 37.50994992973756,55.699997963508466,280.0 37.50994385349701,55.70015764964192,280.0 37.50993777719536,55.70031733577079,280.0 37.50993170083262,55.700477021895026,280.0 37.51024981469164,55.70048088191202,280.0 37.51056792862797,55.70048474110521,280.0 37.5108860426416,55.7004885994746,280.0 37.51120415673251,55.70049245702019,280.0 37.51152227090068,55.70049631374198,280.0 37.511840385146094,55.700500169639966,280.0 37.51215849946874,55.70050402471415,280.0 37.5124766138686,55.70050787896452,280.0 37.51279472834566,55.7005117323911,280.0 37.5131128428999,55.700515584993866,280.0 37.5134309575313,55.70051943677283,280.0 37.51374907223985,55.70052328772799,280.0 37.51406718702553,55.700527137859346,280.0 37.51438530188832,55.7005309871669,280.0 37.51470341682821,55.70053483565064,280.0 37.515021531845186,55.70053868331057,280.0 37.51501547615879,55.70069836979721,280.0 37.5150094204115,55.7008580562792,280.0 37.515003364603324,55.7010177427566,280.0 37.51468524569802,55.701013895027955,280.0 37.51436712686979,55.701010046475496,280.0 37.51404900811867,55.701006197099204,280.0 37.513730889444666,55.7010023468991,280.0 37.51341277084779,55.70099849587518,280.0 37.51309465232808,55.70099464402744,280.0 37.51277653388552,55.70099079135588,280.0 37.51245841552015,55.7009869378605,280.0 37.51214029723199,55.700983083541296,280.0 37.51182217902103,55.70097922839827,280.0 37.51150406088731,55.700975372431444,280.0 37.51118594283084,55.70097151564078,280.0 37.51086782485164,55.700967658026315,280.0 37.51054970694972,55.70096379958803,280.0 37.51023158912509,55.70095994032592,280.0 37.509913471377786,55.70095608024001,280.0 37.509990651872954,55.700786439911695,280.0 37.510067831687245,55.700616799526536,280.0 37.510145010820665,55.700447159084504,280.0 37.510222189273215,55.70027751858563,280.0 37.51029936704492,55.70010787802991,280.0 37.510376544135795,55.699938237417335,280.0 37.51045372054584,55.69976859674792,280.0 37.51053089627506,55.69959895602165,280.0 37.510608071323475,55.69942931523853,280.0 37.5106852456911,55.699259674398576,280.0 37.51076241937793,55.69909003350178,280.0 37.51083959238399,55.69892039254813,280.0 37.510916764709286,55.698750751537645,280.0 37.51099393635383,55.698581110470315,280.0 37.51107110731762,55.698411469346155,280.0 37.51114827760068,55.69824182816515,280.0 37.511225447203024,55.69807218692731,280.0 37.51130261612465,55.69790254563263,280.0 37.51137978436558,55.6977329042811,280.0 37.51145695192582,55.69756326287275,280.0 37.51153411880538,55.69739362140755,280.0 37.511611285004264,55.697223979885536,280.0 37.51168845052249,55.69705433830668,280.0 37.51176561536006,55.69688469667099,280.0 37.51184277951701,55.69671505497846,280.0 37.511919942993316,55.6965454132291,280.0 37.51199710578902,55.69637577142293,280.0 37.512074267904104,55.696206129559926,280.0 37.5121514293386,55.696036487640086,280.0 37.51222859009251,55.695866845663424,280.0 37.512305750165844,55.695697203629926,280.0 37.51238290955862,55.69552756153962,280.0 37.51246006827083,55.69535791939248,280.0 37.512537226302506,55.695188277188514,280.0 37.51261438365365,55.69501863492773,280.0 37.51269154032426,55.694848992610126,280.0 37.51269154032426,55.694848992610126,160.0</coordinates></LineString></Placemark><Placemark><name>U03_S1</name><LineString><altitudeMode>absolute</altitudeMode><coordinates>37.53018542498685,55.69505966327252,160.0 37.53018542498685,55.69505966327252,280.0 37.530063506979985,55.69522494984875,280.0 37.529941587934026,55.69539023629386,280.0 37.52981966784896,55.695555522607805,280.0 37.529697746724786,55.69572080879062,280.0 37.52957582456146,55.695886094842294,280.0 37.529453901359,55.69605138076282,280.0 37.529331977117366,55.69621666655219,280.0 37.52921005183655,55.69638195221042,280.0 37.52908812551654,55.696547237737484,280.0 37.52896619815732,55.6967125231334,280.0 37.52884426975888,55.69687780839815,280.0 37.52872234032118,55.697043093531754,280.0 37.52860040984423,55.69720837853418,280.0 37.52847847832802,55.69737366340545,280.0 37.52835654577251,55.69753894814556,280.0 37.528234612177705,55.69770423275448,280.0 37.528112677543575,55.69786951723224,280.0 37.52799074187011,55.69803480157884,280.0 37.52786880515731,55.698200085794255,280.0 37.52774686740514,55.69836536987849,280.0 37.52762492861359,55.69853065383155,280.0 37.52750298878265,55.69869593765342,280.0 37.52782109070061,55.69869975207749,280.0 37.52813919269497,55.69870356567779,280.0 37.5284572947657,55.69870737845434,280.0 37.5287753969128,55.69871119040711,280.0 37.52909349913624,55.69871500153612,280.0 37.529411601435996,55.69871881184138,280.0 37.529729703812066,55.69872262132287,280.0 37.530047806264434,55.69872642998058,280.0 37.53036590879308,55.69873023781454,280.0 37.53068401139799,55.698734044824725,280.0 37.53100211407914,55.69873785101114,280.0 37.53132021683652,55.69874165637379,280.0 37.53163831967011,55.698745460912676,280.0 37.5319564225799,55.69874926462779,280.0 37.53227452556586,55.698753067519135,280.0 37.53259262862799,55.69875686958672,280.0 37.53258666339062,55.698916066035785,280.0 37.53258069809344,55.699075262480285,280.0 37.53228130454201,55.69907168404407,280.0 37.53198191105805,55.69906810487815,280.0 37.53168251764156,55.699064524982525,280.0 37.531383124292574,55.69906094435718,280.0 37.531083731011094,55.69905736300211,280.0 37.53078433779714,55.699053780917346,280.0 37.53048494465071,55.69905019810285,280.0 37.53018555157184,55.699046614558654,280.0 37.52988615856052,55.69904303028475,280.0 37.52958676561679,55.69903944528114,280.0 37.52928737274065,55.69903585954779,280.0 37.528987979932104,55.699032273084754,280.0 37.528688587191176,55.699028685892,280.0 37.528389194517885,55.69902509796953,280.0 37.52808980191224,55.69902150931737,280.0 37.52779040937425,55.69901791993548,280.0 37.52749101690393,55.69901432982389,280.0 37.52748503087457,55.69917352590225,280.0 37.5274790447852,55.699332721976056,280.0 37.52777843968756,55.69933631213024,280.0 37.528077834657594,55.69933990155472,280.0 37.52837722969529,55.69934349024948,280.0 37.52867662480063,55.69934707821452,280.0 37.528976019973605,55.69935066544984,280.0 37.5292754152142,55.69935425195545,280.0 37.529574810522405,55.69935783773134,280.0 37.529874205898196,55.6993614227775,280.0 37.530173601341566,55.69936500709395,280.0 37.530472996852495,55.69936859068067,280.0 37.53077239243099,55.69937217353768,280.0 37.53107178807701,55.69937575566497,280.0 37.531371183790554,55.699379337062524,280.0 37.53167057957161,55.69938291773036,280.0 37.53196997542016,55.699386497668485,280.0 37.5322693713362,55.699390076876874,280.0 37.5325687673197,55.69939365535555,280.0 37.532562801843135,55.6995528517863,280.0 37.53255683630677,55.69971204821248,280.0 37.53225743789115,55.699708469691345,280.0 37.53195803954299,55.69970489044048,280.0 37.53165864126232,55.69970131045987,280.0 37.531359243049145,55.699697729749545,280.0 37.53105984490349,55.699694148309476,280.0 37.530760446825354,55.69969056613969,280.0 37.53046104881476,55.699686983240156,280.0 37.53016165087171,55.699683399610905,280.0 37.52986225299623,55.699679815251926,280.0 37.52956285518834,55.69967623016321,280.0 37.52926345744803,55.69967264434477,280.0 37.52896405977534,55.69966905779661,280.0 37.528664662170264,55.69966547051872,280.0 37.528365264632825,55.69966188251109,280.0 37.52806586716303,55.699658293773744,280.0 37.5277664697609,55.69965470430667,280.0 37.52746707242645,55.69965111410987,280.0 37.52746108615707,55.69981031016991,280.0 37.52745509982767,55.69996950622535,280.0 37.527754499594266,55.69997309646477,280.0 37.528053899428535,55.69997668597444,280.0 37.52835329933047,55.69998027475438,280.0 37.52865269930005,55.69998386280457,280.0 37.52895209933728,55.69998745012505,280.0 37.52925149944213,55.69999103671577,280.0 37.529550899614584,55.69999462257677,280.0 37.52985029985464,55.69999820770803,280.0 37.53014970016227,55.70000179210954,280.0 37.53044910053747,55.70000537578133,280.0 37.53074850098022,55.700008958723366,280.0 37.531047901490524,55.70001254093568,280.0 37.53134730206835,55.70001612241824,280.0 37.53164670271369,55.700019703171066,280.0 37.53194610342652,55.70002328319415,280.0 37.53224550420684,55.7000268624875,280.0 37.53254490505464,55.70003044105111,280.0 37.53253893933887,55.70018963746355,280.0 37.532532973563306,55.700348833871416,280.0 37.53223357028329,55.70034525526535,280.0 37.531934167070744,55.700341675929515,280.0 37.531634763925695,55.700338095863934,280.0 37.531335360848146,55.70033451506862,280.0 37.53103595783811,55.700330933543555,280.0 37.530736554895604,55.700327351288735,280.0 37.53043715202064,55.70032376830417,280.0 37.53013774921323,55.70032018458986,280.0 37.52983834647339,55.700316600145804,280.0 37.529538943801136,55.700313014972004,280.0 37.52923954119648,55.700309429068454,280.0 37.52894013865943,55.700305842435164,280.0 37.52864073619001,55.700302255072124,280.0 37.528341333788234,55.700298666979336,280.0 37.528041931454105,55.70029507815681,280.0 37.527742529187634,55.700291488604535,280.0 37.52744312698885,55.70028789832253,280.0 37.527437140479435,55.70044709436423,280.0 37.52743115391,55.700606290401375,280.0 37.52773055854102,55.70060988072599,280.0 37.528029963239725,55.70061347032086,280.0 37.5283293680061,55.70061705918597,280.0 37.52862877284012,55.70062064732134,280.0 37.52892817774179,55.70062423472696,280.0 37.52922758271109,55.70062782140281,280.0 37.529526987747985,55.700631407348915,280.0 37.5298263928525,55.70063499256527,280.0 37.53012579802459,55.700638577051855,280.0 37.53042520326425,55.70064216080871,280.0 37.530724608571475,55.70064574383579,280.0 37.53102401394624,55.700649326133124,280.0 37.531323419388535,55.7006529077007,280.0 37.53162282489835,55.70065648853851,280.0 37.531922230475665,55.70066006864657,280.0 37.53222163612047,55.70066364802488,280.0 37.53252104183275,55.70066722667342,280.0 37.532515075877775,55.700826423067554,280.0 37.53250910986299,55.7009856194571,280.0 37.532209701718386,55.700982040766085,280.0 37.53191029364127,55.7009784613453,280.0 37.531610885631636,55.70097488119475,280.0 37.53131147768951,55.70097130031444,280.0 37.531012069814906,55.70096771870436,280.0 37.53071266200783,55.70096413636452,280.0 37.5304132542683,55.70096055329492,280.0 37.530113846596336,55.70095696949554,280.0 37.52981443899195,55.700953384966404,280.0 37.529515031455134,55.70094979970751,280.0 37.529215623985934,55.70094621371885,280.0 37.52891621658434,55.70094262700042,280.0 37.52861680925038,55.70093903955224,280.0 37.52831740198407,55.70093545137429,280.0 37.5280179947854,55.70093186246658,280.0 37.52771858765441,55.70092827282911,280.0 37.527419180591096,55.70092468246189,280.0 37.52741319384163,55.70108387848527,280.0 37.52740720703215,55.70124307450408,280.0 37.527706616527794,55.701246664913924,280.0 37.52800602609112,55.70125025459399,280.0 37.52830543572212,55.70125384354429,280.0 37.52860484542078,55.70125743176482,280.0 37.528904255187086,55.70126101925558,280.0 37.52920366502102,55.701264606016565,280.0 37.52950307492257,55.701268192047785,280.0 37.52980248489173,55.70127177734924,280.0 37.53010189492847,55.701275361920914,280.0 37.53040130503279,55.70127894576281,280.0 37.530700715204674,55.70128252887494,280.0 37.5310001254441,55.701286111257296,280.0 37.53129953575107,55.70128969290989,280.0 37.53159894612555,55.7012932738327,280.0 37.531898356567545,55.70129685402573,280.0 37.53219776707703,55.70130043348899,280.0 37.532497177654,55.70130401222248,280.0 37.53243295257144,55.70113055870075,280.0 37.532368728045036,55.70095710514383,280.0 37.53230450407476,55.70078365155171,280.0 37.5322402806606,55.70061019792441,280.0 37.532176057802566,55.7004367442619,280.0 37.532111835500636,55.70026329056421,280.0 37.5320476137548,55.700089836831324,280.0 37.53198339256505,55.69991638306327,280.0 37.531919171931385,55.699742929260005,280.0 37.53185495185378,55.69956947542155,280.0 37.53179073233225,55.699396021547905,280.0 37.531726513366756,55.69922256763908,280.0 37.531662294957314,55.69904911369507,280.0 37.5315980771039,55.69887565971586,280.0 37.53153385980651,55.69870220570147,280.0 37.53146964306514,55.6985287516519,280.0 37.53140542687977,55.69835529756713,280.0 37.53134121125041,55.698181843447195,280.0 37.53127699617701,55.69800838929209,280.0 37.53121278165962,55.69783493510178,280.0 37.53114856769818,55.6976614808763,280.0 37.53108435429271,55.697488026615616,280.0 37.531020141443186,55.69731457231976,280.0 37.530955929149606,55.697141117988735,280.0 37.530891717411954,55.69696766362251,280.0 37.53082750623024,55.696794209221125,280.0 37.53076329560443,55.69662075478456,280.0 37.53069908553453,55.696447300312805,280.0 37.53063487602053,55.696273845805884,280.0 37.53057066706241,55.696100391263776,280.0 37.53050645866017,55.69592693668651,280.0 37.5304422508138,55.69575348207405,280.0 37.53037804352329,55.695580027426445,280.0 37.53031383678864,55.695406572743636,280.0 37.53024963060983,55.69523311802566,280.0 37.53018542498685,55.69505966327252,280.0 37.53018542498685,55.69505966327252,160.0</coordinates></LineString></Placemark><Placemark><name>U04_S1</name><LineString><altitudeMode>absolute</altitudeMode><coordinates>37.54767954031615,55.69526784238249,160.0 37.54767954031615,55.69526784238249,280.0 37.54772472910278,55.69544081946659,280.0 37.54776991827563,55.69561379653152,280.0 37.547815107834715,55.695786773577254,280.0 37.54786029778004,55.695959750603826,280.0 37.54790548811162,55.696132727611214,280.0 37.547950678829444,55.69630570459942,280.0 37.54799586993354,55.69647868156844,280.0 37.548041061423895,55.69665165851828,280.0 37.548086253300525,55.696824635448934,280.0 37.548131445563435,55.69699761236042,280.0 37.54817663821263,55.697170589252714,280.0 37.54822183124812,55.697343566125845,280.0 37.548267024669904,55.697516542979784,280.0 37.548312218477996,55.69768951981453,280.0 37.5483574126724,55.697862496630094,280.0 37.54840260725312,55.69803547342648,280.0 37.54844780222017,55.69820845020368,280.0 37.54849299757354,55.6983814269617,280.0 37.54853819331325,55.69855440370054,280.0 37.5485833894393,55.698727380420195,280.0 37.54862858595171,55.69890035712066,280.0 37.54867378285047,55.699073333801934,280.0 37.5487189801356,55.69924631046403,280.0 37.54876417780709,55.699419287106934,280.0 37.548809375864955,55.699592263730665,280.0 37.548854574309196,55.6997652403352,280.0 37.54889977313984,55.69993821692056,280.0 37.548944972356864,55.70011119348673,280.0 37.5489901719603,55.7002841700337,280.0 37.54903537195014,55.70045714656148,280.0 37.54908057232639,55.700630123070084,280.0 37.54912577308905,55.70080309955951,280.0 37.54917097423815,55.700976076029725,280.0 37.54921617577368,55.701149052480766,280.0 37.54926137769565,55.70132202891261,280.0 37.549306580004064,55.70149500532527,280.0 37.54935178269893,55.70166798171874,280.0 37.549358438093215,55.70148833168898,280.0 37.54936509341221,55.70130868165341,280.0 37.54937174865592,55.70112903161201,280.0 37.54937840382435,55.70094938156479,280.0 37.54938505891748,55.70076973151177,280.0 37.549391713935336,55.700590081452916,280.0 37.54939836887791,55.700410431388256,280.0 37.5494050237452,55.70023078131777,280.0 37.549411678537204,55.70005113124146,280.0 37.54941833325393,55.69987148115934,280.0 37.549424987895385,55.699691831071405,280.0 37.549431642461556,55.699512180977635,280.0 37.54943829695245,55.699332530878046,280.0 37.54944495136808,55.69915288077266,280.0 37.54945160570843,55.698973230661444,280.0 37.5494582599735,55.69879358054441,280.0 37.549140154226286,55.69878982216012,280.0 37.548822048554364,55.69878606295205,280.0 37.548503942957744,55.698782302920186,280.0 37.54818583743644,55.698778542064545,280.0 37.54817917733921,55.69895819208087,280.0 37.54817251716664,55.699137842091396,280.0 37.54816585691873,55.6993174920961,280.0 37.54815919659548,55.69949714209498,280.0 37.54815253619688,55.69967679208804,280.0 37.54814587572294,55.69985644207528,280.0 37.548139215173656,55.70003609205669,280.0 37.548132554549035,55.70021574203229,280.0 37.548125893849054,55.70039539200208,280.0 37.54811923307373,55.70057504196604,280.0 37.54811257222306,55.70075469192419,280.0 37.548105911297036,55.700934341876504,280.0 37.54809925029566,55.701113991823,280.0 37.54809258921894,55.70129364176369,280.0 37.548085928066854,55.701473291698555,280.0 37.54807926683942,55.7016529416276,280.0 37.54776113806289,55.70164917954513,280.0 37.547443009361736,55.70164541663879,280.0 37.54712488073597,55.70164165290858,280.0 37.54680675218561,55.7016378883545,280.0 37.54681341924618,55.70145823852624,280.0 37.546820086231314,55.701278588692176,280.0 37.54682675314104,55.70109893885229,280.0 37.54683341997534,55.700919289006585,280.0 37.546840086734235,55.70073963915507,280.0 37.54684675341771,55.70055998929771,280.0 37.54685342002576,55.70038033943455,280.0 37.54686008655841,55.700200689565555,280.0 37.546866753015635,55.700021039690746,280.0 37.54687341939746,55.699841389810125,280.0 37.54688008570387,55.69966173992367,280.0 37.54688675193486,55.699482090031395,280.0 37.546893418090455,55.699302440133316,280.0 37.54690008417064,55.699122790229396,280.0 37.546906750175424,55.69894314031966,280.0 37.54691341610479,55.69876349040411,280.0 37.54659531096035,55.698759725429554,280.0 37.54627720589132,55.69875595963121,280.0 37.545959100897726,55.698752193009064,280.0 37.54564099597959,55.698748425563146,280.0 37.5456343242181,55.69892807537783,280.0 37.54562765238113,55.69910772518669,280.0 37.54562098046869,55.69928737498972,280.0 37.54561430848078,55.69946702478694,280.0 37.545607636417394,55.699646674578325,280.0 37.545600964278535,55.699826324363904,280.0 37.5455942920642,55.70000597414365,280.0 37.54558761977439,55.700185623917584,280.0 37.54558094740909,55.700365273685684,280.0 37.54557427496832,55.700544923447964,280.0 37.54556760245207,55.70072457320444,280.0 37.54556092986033,55.700904222955074,280.0 37.54555425719312,55.7010838726999,280.0 37.54554758445041,55.70126352243891,280.0 37.54554091163223,55.70144317217208,280.0 37.545534238738554,55.70162282189944,280.0 37.54559222924359,55.701451066323926,280.0 37.545650219227355,55.70127931071354,280.0 37.545708208689845,55.701107555068276,280.0 37.54576619763107,55.70093579938812,280.0 37.545824186051036,55.70076404367312,280.0 37.54588217394976,55.700592287923236,280.0 37.54594016132724,55.70042053213847,280.0 37.545998148183486,55.70024877631884,280.0 37.546056134518516,55.70007702046434,280.0 37.54611412033233,55.69990526457496,280.0 37.546172105624926,55.699733508650716,280.0 37.546230090396335,55.6995617526916,280.0 37.546288074646554,55.69938999669762,280.0 37.54634605837558,55.69921824066877,280.0 37.54640404158345,55.69904648460504,280.0 37.54646202427014,55.69887472850646,280.0 37.54652000643568,55.698702972373006,280.0 37.54657798808007,55.698531216204685,280.0 37.546635969203315,55.698359460001484,280.0 37.54669394980543,55.698187703763416,280.0 37.546751929886426,55.698015947490504,280.0 37.5468099094463,55.697844191182725,280.0 37.546867888485075,55.69767243484008,280.0 37.54692586700274,55.69750067846256,280.0 37.54698384499932,55.69732892205018,280.0 37.54704182247482,55.69715716560293,280.0 37.54709979942923,55.696985409120835,280.0 37.547157775862594,55.69681365260388,280.0 37.547215751774885,55.69664189605205,280.0 37.54727372716613,55.69647013946537,280.0 37.54733170203633,55.69629838284382,280.0 37.547389676385514,55.69612662618741,280.0 37.547447650213655,55.695954869496134,280.0 37.547505623520784,55.69578311277001,280.0 37.54756359630691,55.695611356009024,280.0 37.547621568572026,55.69543959921318,280.0 37.54767954031615,55.69526784238249,280.0 37.54767954031615,55.69526784238249,160.0</coordinates></LineString></Placemark><Placemark><name>U05_S1</name><LineString><altitudeMode>absolute</altitudeMode><coordinates>37.565173883571966,55.69547352986978,160.0 37.565173883571966,55.69547352986978,280.0 37.56521914995219,55.6956465009288,280.0 37.56526441671947,55.695819471968576,280.0 37.56530968387382,55.69599244298907,280.0 37.565354951415244,55.69616541399032,280.0 37.565400219343736,55.6963383849723,280.0 37.56544548765932,55.69651135593502,280.0 37.56549075636199,55.696684326878476,280.0 37.565536025451756,55.69685729780266,280.0 37.56558129492863,55.697030268707586,280.0 37.565626564792616,55.69720323959324,280.0 37.565671835043716,55.697376210459645,280.0 37.565717105681934,55.69754918130677,280.0 37.56576237670728,55.69772215213463,280.0 37.565807648119765,55.697895122943244,280.0 37.56585291991939,55.698068093732566,280.0 37.56589819210616,55.69824106450263,280.0 37.565943464680096,55.69841403525343,280.0 37.56598873764118,55.69858700598496,280.0 37.56603401098943,55.69875997669722,280.0 37.566079284724864,55.698932947390226,280.0 37.56612455884747,55.69910591806395,280.0 37.566169833357264,55.6992788887184,280.0 37.566215108254255,55.69945185935361,280.0 37.56626038353844,55.69962482996953,280.0 37.56630565920983,55.69979780056619,280.0 37.56635093526844,55.69997077114356,280.0 37.56639621171426,55.70014374170167,280.0 37.566441488547305,55.70031671224051,280.0 37.566486765767586,55.700489682760086,280.0 37.56653204337509,55.70066265326039,280.0 37.566577321369856,55.70083562374142,280.0 37.56662259975186,55.70100859420318,280.0 37.56666787852113,55.701181564645665,280.0 37.56671315767765,55.70135453506889,280.0 37.566758437221445,55.701527505472825,280.0 37.566803717152524,55.70170047585749,280.0 37.56684899747087,55.7018734462229,280.0 37.566855572657495,55.7016937948173,280.0 37.566862147769726,55.7015141434059,280.0 37.56686872280759,55.70133449198869,280.0 37.56687529777106,55.70115484056569,280.0 37.56688187266016,55.70097518913687,280.0 37.56688844747488,55.70079553770224,280.0 37.56689502221522,55.70061588626182,280.0 37.56690159688119,55.700436234815584,280.0 37.566908171472775,55.70025658336354,280.0 37.56691474599,55.700076931905706,280.0 37.56692132043285,55.69989728044204,280.0 37.566927894801324,55.69971762897259,280.0 37.56693446909543,55.699537977497315,280.0 37.56694104331516,55.69935832601625,280.0 37.566947617460535,55.69917867452938,280.0 37.566954191531536,55.69899902303669,280.0 37.566636081668854,55.69899530996131,280.0 37.566317971880565,55.698991596062115,280.0 37.56599986216666,55.698987881339114,280.0 37.56568175252718,55.698984165792304,280.0 37.56567517262377,55.699163817185486,280.0 37.56566859264591,55.699343468572884,280.0 37.565662012593634,55.69952311995447,280.0 37.56565543246691,55.699702771330244,280.0 37.56564885226576,55.69988242270022,280.0 37.56564227199018,55.700062074064384,280.0 37.565635691640146,55.700241725422735,280.0 37.56562911121568,55.70042137677528,280.0 37.56562253071677,55.70060102812204,280.0 37.565615950143425,55.70078067946296,280.0 37.56560936949563,55.7009603307981,280.0 37.5656027887734,55.70113998212741,280.0 37.56559620797671,55.70131963345093,280.0 37.56558962710558,55.701499284768644,280.0 37.56558304616001,55.70167893608054,280.0 37.56557646513998,55.70185858738663,280.0 37.565258332243346,55.70185487061782,280.0 37.56494019942117,55.701851153025125,280.0 37.56462206667348,55.701847434608524,280.0 37.56430393400029,55.701843715368035,280.0 37.5643105208537,55.70166406416152,280.0 37.56431710763259,55.701484412949206,280.0 37.56432369433698,55.70130476173108,280.0 37.56433028096684,55.70112511050715,280.0 37.5643368675222,55.70094545927741,280.0 37.564343454003044,55.700765808041865,280.0 37.56435004040939,55.700586156800526,280.0 37.564356626741215,55.70040650555335,280.0 37.564363212998536,55.700226854300375,280.0 37.56436979918136,55.7000472030416,280.0 37.56437638528967,55.69986755177701,280.0 37.56438297132348,55.699687900506625,280.0 37.564389557282794,55.699508249230426,280.0 37.564396143167606,55.699328597948416,280.0 37.56440272897792,55.6991489466606,280.0 37.56440931471373,55.69896929536697,280.0 37.564091205446566,55.69896557570113,280.0 37.56377309625392,55.69896185521148,280.0 37.563454987135806,55.69895813389801,280.0 37.56313687809223,55.698954411760745,280.0 37.56313028652404,55.69913406295471,280.0 37.56312369488129,55.69931371414286,280.0 37.56311710316397,55.6994933653252,280.0 37.56311051137208,55.699673016501734,280.0 37.563103919505636,55.69985266767247,280.0 37.563097327564606,55.70003231883739,280.0 37.56309073554902,55.7002119699965,280.0 37.56308414345885,55.7003916211498,280.0 37.563077551294114,55.7005712722973,280.0 37.56307095905481,55.70075092343898,280.0 37.563064366740925,55.700930574574855,280.0 37.563057774352465,55.70111022570492,280.0 37.56305118188943,55.70128987682918,280.0 37.56304458935181,55.701469527947644,280.0 37.563037996739624,55.70164917906027,280.0 37.56303140405285,55.701828830167116,280.0 37.56308931827181,55.70165706591995,280.0 37.563147231970284,55.70148530163804,280.0 37.56320514514827,55.70131353732134,280.0 37.563263057805784,55.70114177296988,280.0 37.563320969942836,55.70097000858366,280.0 37.56337888155942,55.700798244162655,280.0 37.56343679265557,55.7006264797069,280.0 37.56349470323127,55.70045471521636,280.0 37.56355261328654,55.70028295069107,280.0 37.56361052282139,55.700111186131004,280.0 37.56366843183582,55.69993942153618,280.0 37.56372634032984,55.699767656906594,280.0 37.56378424830346,55.699595892242236,280.0 37.563842155756696,55.69942412754311,280.0 37.56390006268955,55.69925236280922,280.0 37.56395796910202,55.69908059804058,280.0 37.564015874994126,55.69890883323717,280.0 37.564073780365874,55.69873706839902,280.0 37.56413168521727,55.698565303526095,280.0 37.56418958954833,55.6983935386184,280.0 37.564247493359055,55.69822177367595,280.0 37.564305396649445,55.698050008698736,280.0 37.564363299419526,55.69787824368677,280.0 37.564421201669305,55.697706478640036,280.0 37.56447910339877,55.69753471355855,280.0 37.56453700460795,55.697362948442304,280.0 37.56459490529684,55.6971911832913,280.0 37.564652805465464,55.69701941810555,280.0 37.56471070511381,55.696847652885026,280.0 37.564768604241905,55.69667588762977,280.0 37.56482650284974,55.69650412233974,280.0 37.56488440093734,55.696332357014974,280.0 37.564942298504704,55.69616059165543,280.0 37.56500019555183,55.695988826261136,280.0 37.56505809207876,55.695817060832105,280.0 37.56511598808546,55.695645295368315,280.0 37.565173883571966,55.69547352986978,280.0 37.565173883571966,55.69547352986978,160.0</coordinates></LineString></Placemark></Document></kml>